{"type":"FeatureCollection","features":[{"type":"Feature","properties":{"address":"302026, Орловская обл, г. Орёл, ул. Чапаева, д. 32","floors":6,"height":19.6,"pop":40},"geometry":{"type":"Point","coordinates":[36.051234,52.954077]}},{"type":"Feature","properties":{"address":"302030, Орловская обл, г. Орёл, ул. Московская, д. 36а","floors":5,"height":16.5,"pop":29},"geometry":{"type":"Point","coordinates":[36.088783,52.968896]}},{"type":"Feature","properties":{"address":"302001, Орловская обл, г. Орёл, ул. 2-я Посадская, д. 17","floors":1,"height":4.1,"pop":3},"geometry":{"type":"Point","coordinates":[36.061681,52.957744]}},{"type":"Feature","properties":{"address":"302028, Орловская обл, г. Орёл, ул. Салтыкова-Щедрина, д. 35г","floors":2,"height":7.2,"pop":3},"geometry":{"type":"Point","coordinates":[36.063631,52.973711]}},{"type":"Feature","properties":{"address":"302030, Орловская обл, г. Орёл, ул. Московская, д. 44","floors":3,"height":10.3,"pop":26},"geometry":{"type":"Point","coordinates":[36.088783,52.968896]}},{"type":"Feature","properties":{"address":"302020, Орловская обл, г. Орёл, ш. Наугорское, д. 102г","floors":1,"height":4.1,"pop":6},"geometry":{"type":"Point","coordinates":[36.032244,52.994882]}},{"type":"Feature","properties":{"address":"302028, Орловская обл, г. Орёл, ул. Октябрьская, д. 6","floors":1,"height":4.1,"pop":7},"geometry":{"type":"Point","coordinates":[36.054091,52.968511]}},{"type":"Feature","properties":{"address":"302005, Орловская обл, г. Орёл, ул. Спивака, д. 72","floors":2,"height":7.2,"pop":12},"geometry":{"type":"Point","coordinates":[36.030779,52.947371]}},{"type":"Feature","properties":{"address":"302001, Орловская обл, г. Орёл, ул. Карачевская, д. 35","floors":2,"height":7.2,"pop":4},"geometry":{"type":"Point","coordinates":[36.060855,52.957841]}},{"type":"Feature","properties":{"address":"302026, Орловская обл, г. Орёл, ул. Карачевская, д. 68а","floors":1,"height":4.1,"pop":8},"geometry":{"type":"Point","coordinates":[36.05736,52.956523]}},{"type":"Feature","properties":{"address":"302028, Орловская обл, г. Орёл, тер. Лесопарк Андриабуж, д. 1","floors":3,"height":10.3,"pop":12},"geometry":{"type":"Point","coordinates":[36.064358,52.970756]}},{"type":"Feature","properties":{"address":"302008, Орловская обл, р-н. Орловский, п. Учебный, ул. Молодежная, д. 3","floors":3,"height":10.3,"pop":58},"geometry":{"type":"Point","coordinates":[35.965292,52.918614]}},{"type":"Feature","properties":{"address":"302001, Орловская обл, г. Орёл, проезд. Связистов, д. 12","floors":1,"height":4.1,"pop":6},"geometry":{"type":"Point","coordinates":[36.058672,52.954619]}},{"type":"Feature","properties":{"address":"302020, Орловская обл, р-н. Орловский, д. Некрасовка, пер. Интернатный, д. 1Б","floors":3,"height":10.3,"pop":20},"geometry":{"type":"Point","coordinates":[36.016298,52.979464]}},{"type":"Feature","properties":{"address":"302030, Орловская обл, г. Орёл, ул. Московская, д. 36","floors":6,"height":19.6,"pop":58},"geometry":{"type":"Point","coordinates":[36.088783,52.968896]}}]}