{"type":"FeatureCollection","name":"railway_site","xy_coordinate_resolution":0.000001,"features":[{"type":"Feature","properties":{"full_id":"w292444293","osm_id":"292444293","osm_type":"way","railway":"rail","railway:track_ref":null,"embankment":null,"cutting":null,"height":null,"tracks":null,"service":null,"maxspeed":null,"layer":null,"bridge":null,"voltage":"3000","usage":"main","passenger_lines":"2","operator":"ОАО «Российские железные дороги»","name":null,"gauge":"1520","frequency":"0","electrified":"contact_line","branch":"МСК"},"geometry":{"type":"LineString","coordinates":[[36.118798,52.947739],[36.12384,52.943795]]}},{"type":"Feature","properties":{"full_id":"w33910675","osm_id":"33910675","osm_type":"way","railway":"rail","railway:track_ref":null,"embankment":null,"cutting":null,"height":null,"tracks":null,"service":null,"maxspeed":null,"layer":null,"bridge":null,"voltage":null,"usage":"branch","passenger_lines":"1","operator":"ОАО «Российские железные дороги»","name":null,"gauge":"1520","frequency":null,"electrified":"no","branch":null},"geometry":{"type":"LineString","coordinates":[[36.121383,52.948032],[36.12178,52.948512],[36.122013,52.948788],[36.122144,52.948918],[36.122321,52.94907],[36.122583,52.949261],[36.122844,52.949419],[36.123162,52.949599],[36.123405,52.949717],[36.123816,52.949846],[36.12418,52.949959],[36.124368,52.950014],[36.124664,52.950066],[36.124977,52.950106],[36.125338,52.95015],[36.125827,52.950157],[36.133206,52.950293],[36.140653,52.950445],[36.155522,52.950782],[36.156547,52.950775],[36.15701,52.950762],[36.157532,52.950733],[36.15796,52.950676],[36.158439,52.950597],[36.159091,52.950445],[36.159757,52.950237],[36.160504,52.949877],[36.177256,52.939882]]}},{"type":"Feature","properties":{"full_id":"w36737567","osm_id":"36737567","osm_type":"way","railway":"rail","railway:track_ref":null,"embankment":null,"cutting":null,"height":null,"tracks":null,"service":null,"maxspeed":null,"layer":null,"bridge":null,"voltage":null,"usage":"main","passenger_lines":"1","operator":"ОАО «Российские железные дороги»","name":null,"gauge":"1520","frequency":null,"electrified":"no","branch":"МСК"},"geometry":{"type":"LineString","coordinates":[[36.037985,52.900237],[36.037883,52.90045],[36.037655,52.900972],[36.037419,52.901513],[36.037132,52.902287],[36.037059,52.902594],[36.037016,52.902899],[36.036976,52.903217],[36.036987,52.903591],[36.037269,52.904573],[36.037802,52.905508],[36.038642,52.906383],[36.039941,52.907268],[36.041265,52.907862],[36.042445,52.908209],[36.04367,52.90845],[36.044471,52.908563],[36.04497,52.908613],[36.046228,52.908736]]}},{"type":"Feature","properties":{"full_id":"w36737568","osm_id":"36737568","osm_type":"way","railway":"rail","railway:track_ref":null,"embankment":null,"cutting":null,"height":null,"tracks":null,"service":null,"maxspeed":null,"layer":"1","bridge":"yes","voltage":null,"usage":"main","passenger_lines":"1","operator":"ОАО «Российские железные дороги»","name":null,"gauge":"1520","frequency":null,"electrified":"no","branch":"МСК"},"geometry":{"type":"LineString","coordinates":[[36.038422,52.89923],[36.037985,52.900237]]}},{"type":"Feature","properties":{"full_id":"w88463530","osm_id":"88463530","osm_type":"way","railway":"rail","railway:track_ref":null,"embankment":null,"cutting":null,"height":null,"tracks":null,"service":null,"maxspeed":null,"layer":null,"bridge":null,"voltage":"3000","usage":"branch","passenger_lines":null,"operator":"ОАО «Российские железные дороги»","name":null,"gauge":"1520","frequency":"0","electrified":"contact_line","branch":null},"geometry":{"type":"LineString","coordinates":[[36.113343,52.977204],[36.11368,52.976948],[36.114178,52.976584],[36.114431,52.976375],[36.114668,52.976131],[36.114859,52.975877],[36.114957,52.975711],[36.115031,52.975545],[36.115141,52.975213],[36.115244,52.97488],[36.115427,52.974209],[36.115781,52.972871],[36.115928,52.972278],[36.115991,52.971948],[36.116031,52.971501],[36.116026,52.971208],[36.116005,52.971058],[36.115612,52.969534]]}},{"type":"Feature","properties":{"full_id":"w99194178","osm_id":"99194178","osm_type":"way","railway":"rail","railway:track_ref":null,"embankment":null,"cutting":null,"height":null,"tracks":null,"service":"yard","maxspeed":null,"layer":null,"bridge":null,"voltage":null,"usage":null,"passenger_lines":null,"operator":null,"name":null,"gauge":"1520","frequency":null,"electrified":"no","branch":null},"geometry":{"type":"LineString","coordinates":[[36.118388,52.973558],[36.118038,52.974357],[36.117853,52.974818],[36.117705,52.975328],[36.117646,52.975502],[36.117476,52.976371],[36.11745,52.976486],[36.117244,52.977391],[36.117177,52.978],[36.117149,52.978315],[36.117094,52.978919],[36.116895,52.979209],[36.116552,52.979584],[36.11614,52.979896],[36.115718,52.980128],[36.114508,52.980773],[36.114287,52.980892],[36.114136,52.980975],[36.113879,52.981118],[36.113611,52.981305],[36.113337,52.981505],[36.112851,52.981957],[36.11233,52.9825],[36.112175,52.982638],[36.11128,52.983527],[36.110887,52.983859],[36.11055,52.984057],[36.110331,52.984158],[36.110092,52.984267],[36.109848,52.98435],[36.109763,52.984393],[36.109742,52.984403],[36.109621,52.984453]]}},{"type":"Feature","properties":{"full_id":"w99194180","osm_id":"99194180","osm_type":"way","railway":"rail","railway:track_ref":null,"embankment":null,"cutting":null,"height":null,"tracks":null,"service":"yard","maxspeed":null,"layer":"1","bridge":"yes","voltage":null,"usage":null,"passenger_lines":null,"operator":null,"name":null,"gauge":"1520","frequency":null,"electrified":null,"branch":null},"geometry":{"type":"LineString","coordinates":[[36.109621,52.984453],[36.109045,52.98467]]}},{"type":"Feature","properties":{"full_id":"w99194189","osm_id":"99194189","osm_type":"way","railway":"rail","railway:track_ref":null,"embankment":null,"cutting":null,"height":null,"tracks":null,"service":"yard","maxspeed":null,"layer":null,"bridge":null,"voltage":null,"usage":null,"passenger_lines":null,"operator":null,"name":null,"gauge":"1520","frequency":null,"electrified":null,"branch":null},"geometry":{"type":"LineString","coordinates":[[36.109045,52.98467],[36.108529,52.984897],[36.10808,52.985046],[36.107093,52.985502],[36.106799,52.985658],[36.106458,52.985872],[36.105187,52.986797]]}},{"type":"Feature","properties":{"full_id":"w270049659","osm_id":"270049659","osm_type":"way","railway":"rail","railway:track_ref":null,"embankment":null,"cutting":null,"height":null,"tracks":null,"service":null,"maxspeed":null,"layer":null,"bridge":null,"voltage":null,"usage":"main","passenger_lines":"1","operator":"ОАО «Российские железные дороги»","name":null,"gauge":"1520","frequency":null,"electrified":"no","branch":"МСК"},"geometry":{"type":"LineString","coordinates":[]}},{"type":"Feature","properties":{"full_id":"w292444296","osm_id":"292444296","osm_type":"way","railway":"rail","railway:track_ref":null,"embankment":null,"cutting":null,"height":"4.5","tracks":null,"service":null,"maxspeed":null,"layer":"1","bridge":"yes","voltage":null,"usage":"main","passenger_lines":"1","operator":"ОАО «Российские железные дороги»","name":null,"gauge":"1520","frequency":null,"electrified":"no","branch":"МСК"},"geometry":{"type":"LineString","coordinates":[]}},{"type":"Feature","properties":{"full_id":"w292448193","osm_id":"292448193","osm_type":"way","railway":"rail","railway:track_ref":null,"embankment":null,"cutting":null,"height":null,"tracks":null,"service":"spur","maxspeed":null,"layer":null,"bridge":null,"voltage":null,"usage":null,"passenger_lines":null,"operator":null,"name":null,"gauge":"1520","frequency":null,"electrified":"no","branch":null},"geometry":{"type":"LineString","coordinates":[]}},{"type":"Feature","properties":{"full_id":"w292448196","osm_id":"292448196","osm_type":"way","railway":"rail","railway:track_ref":null,"embankment":null,"cutting":null,"height":null,"tracks":null,"service":"spur","maxspeed":null,"layer":null,"bridge":null,"voltage":null,"usage":null,"passenger_lines":null,"operator":null,"name":null,"gauge":"1520","frequency":null,"electrified":"no","branch":null},"geometry":{"type":"LineString","coordinates":[[36.027448,52.920208],[36.026,52.92076],[36.025776,52.920862],[36.025565,52.921027],[36.025468,52.921104],[36.025253,52.921352],[36.02515,52.921639],[36.02515,52.921949],[36.025216,52.922185],[36.025356,52.922382],[36.025659,52.922626],[36.025748,52.922697],[36.026101,52.922973],[36.026411,52.923215],[36.02713,52.923885],[36.027688,52.924398],[36.028214,52.924882],[36.028619,52.925188],[36.02898,52.925419],[36.029303,52.925606],[36.029676,52.92579],[36.03005,52.925957],[36.030967,52.926351],[36.031813,52.926709],[36.031933,52.926762],[36.03333,52.927453]]}},{"type":"Feature","properties":{"full_id":"w292449916","osm_id":"292449916","osm_type":"way","railway":"rail","railway:track_ref":null,"embankment":null,"cutting":null,"height":null,"tracks":null,"service":"spur","maxspeed":null,"layer":null,"bridge":null,"voltage":null,"usage":null,"passenger_lines":null,"operator":null,"name":null,"gauge":"1520","frequency":null,"electrified":"no","branch":null},"geometry":{"type":"LineString","coordinates":[[36.01562,52.918857],[36.015078,52.918666],[36.014854,52.918513],[36.014724,52.918424],[36.014422,52.91822],[36.014331,52.918159],[36.011523,52.916606]]}},{"type":"Feature","properties":{"full_id":"w292454076","osm_id":"292454076","osm_type":"way","railway":"rail","railway:track_ref":null,"embankment":null,"cutting":null,"height":null,"tracks":null,"service":"spur","maxspeed":null,"layer":null,"bridge":null,"voltage":null,"usage":null,"passenger_lines":null,"operator":null,"name":null,"gauge":"1520","frequency":null,"electrified":"no","branch":null},"geometry":{"type":"LineString","coordinates":[[36.065605,52.94245],[36.066023,52.942916],[36.067081,52.943864],[36.067362,52.944149],[36.067659,52.944476],[36.068087,52.944936],[36.069068,52.945994],[36.069946,52.947024],[36.070347,52.947562]]}},{"type":"Feature","properties":{"full_id":"w292454077","osm_id":"292454077","osm_type":"way","railway":"rail","railway:track_ref":null,"embankment":null,"cutting":null,"height":null,"tracks":null,"service":"spur","maxspeed":null,"layer":null,"bridge":null,"voltage":null,"usage":null,"passenger_lines":null,"operator":null,"name":null,"gauge":"1520","frequency":null,"electrified":"no","branch":null},"geometry":{"type":"LineString","coordinates":[[36.064631,52.940501],[36.066191,52.941982],[36.066238,52.942026],[36.066378,52.942184],[36.066471,52.942319],[36.066723,52.943141],[36.066854,52.943512],[36.067081,52.943864]]}},{"type":"Feature","properties":{"full_id":"w292458959","osm_id":"292458959","osm_type":"way","railway":"rail","railway:track_ref":null,"embankment":null,"cutting":null,"height":null,"tracks":null,"service":"spur","maxspeed":null,"layer":null,"bridge":null,"voltage":null,"usage":null,"passenger_lines":null,"operator":null,"name":null,"gauge":"1520","frequency":null,"electrified":"no","branch":null},"geometry":{"type":"LineString","coordinates":[[36.092662,52.989571],[36.09515,52.990815],[36.095784,52.991123],[36.096052,52.991324],[36.096313,52.991622],[36.096419,52.991771],[36.096638,52.992077],[36.096792,52.992371],[36.09694,52.992732],[36.096944,52.992876],[36.096919,52.992962],[36.096878,52.993047],[36.09677,52.99321],[36.096303,52.993723],[36.095927,52.994045],[36.095788,52.994136],[36.095618,52.994216],[36.095209,52.994332],[36.09478,52.994426],[36.094463,52.994487]]}},{"type":"Feature","properties":{"full_id":"w292459506","osm_id":"292459506","osm_type":"way","railway":"rail","railway:track_ref":null,"embankment":null,"cutting":null,"height":null,"tracks":null,"service":"siding","maxspeed":null,"layer":null,"bridge":null,"voltage":null,"usage":null,"passenger_lines":null,"operator":null,"name":null,"gauge":"1520","frequency":null,"electrified":"no","branch":null},"geometry":{"type":"LineString","coordinates":[[36.097711,52.998449],[36.097719,52.996335],[36.097729,52.996241],[36.097882,52.99474],[36.097849,52.993722],[36.097882,52.993414],[36.098012,52.993076],[36.098191,52.992673]]}},{"type":"Feature","properties":{"full_id":"w292459724","osm_id":"292459724","osm_type":"way","railway":"rail","railway:track_ref":null,"embankment":null,"cutting":null,"height":null,"tracks":null,"service":"spur","maxspeed":null,"layer":null,"bridge":null,"voltage":null,"usage":null,"passenger_lines":null,"operator":null,"name":null,"gauge":"1520","frequency":null,"electrified":"no","branch":null},"geometry":{"type":"LineString","coordinates":[[36.099425,52.9909],[36.098965,52.99129],[36.098482,52.991643],[36.098046,52.991995],[36.097798,52.992199],[36.097443,52.992528],[36.097184,52.992805],[36.09677,52.99321]]}},{"type":"Feature","properties":{"full_id":"w292479000","osm_id":"292479000","osm_type":"way","railway":"rail","railway:track_ref":null,"embankment":null,"cutting":null,"height":null,"tracks":null,"service":null,"maxspeed":null,"layer":null,"bridge":null,"voltage":"3000","usage":"main","passenger_lines":"2","operator":"ОАО «Российские железные дороги»","name":null,"gauge":"1520","frequency":"0","electrified":"contact_line","branch":"МСК"},"geometry":{"type":"LineString","coordinates":[]}},{"type":"Feature","properties":{"full_id":"w292480108","osm_id":"292480108","osm_type":"way","railway":"rail","railway:track_ref":null,"embankment":null,"cutting":null,"height":null,"tracks":null,"service":"spur","maxspeed":null,"layer":null,"bridge":null,"voltage":null,"usage":"industrial","passenger_lines":null,"operator":null,"name":null,"gauge":"1520","frequency":null,"electrified":"no","branch":null},"geometry":{"type":"LineString","coordinates":[[36.107242,53.012729],[36.107706,53.012421],[36.108112,53.012235],[36.108674,53.011995],[36.109113,53.011883],[36.109254,53.011879],[36.109674,53.011868],[36.109866,53.011879],[36.110218,53.0119],[36.111769,53.01199],[36.113211,53.012073]]}},{"type":"Feature","properties":{"full_id":"w292480109","osm_id":"292480109","osm_type":"way","railway":"rail","railway:track_ref":null,"embankment":null,"cutting":null,"height":null,"tracks":null,"service":"spur","maxspeed":null,"layer":null,"bridge":null,"voltage":null,"usage":"industrial","passenger_lines":null,"operator":null,"name":null,"gauge":"1520","frequency":null,"electrified":"no","branch":null},"geometry":{"type":"LineString","coordinates":[[36.110218,53.0119],[36.110934,53.012],[36.111528,53.012137],[36.112194,53.012274],[36.112828,53.012362],[36.113715,53.012445],[36.114034,53.01247],[36.114408,53.0125],[36.115016,53.012548],[36.116585,53.012636]]}},{"type":"Feature","properties":{"full_id":"w292480112","osm_id":"292480112","osm_type":"way","railway":"rail","railway:track_ref":null,"embankment":null,"cutting":null,"height":null,"tracks":null,"service":"spur","maxspeed":null,"layer":null,"bridge":null,"voltage":null,"usage":"industrial","passenger_lines":null,"operator":null,"name":null,"gauge":"1520","frequency":null,"electrified":"no","branch":null},"geometry":{"type":"LineString","coordinates":[[36.106933,53.012343],[36.107714,53.01199],[36.108096,53.0118],[36.108421,53.011491],[36.108642,53.011252],[36.108747,53.011139],[36.108997,53.010845],[36.109974,53.009696],[36.110373,53.009427],[36.110557,53.009332],[36.110691,53.009262],[36.110779,53.009217],[36.111202,53.009114],[36.111771,53.009079],[36.112544,53.009124],[36.114796,53.009398],[36.116837,53.009647]]}},{"type":"Feature","properties":{"full_id":"w292488479","osm_id":"292488479","osm_type":"way","railway":"rail","railway:track_ref":null,"embankment":null,"cutting":null,"height":null,"tracks":null,"service":"yard","maxspeed":null,"layer":null,"bridge":null,"voltage":null,"usage":null,"passenger_lines":null,"operator":null,"name":null,"gauge":"1520","frequency":null,"electrified":"yes","branch":null},"geometry":{"type":"LineString","coordinates":[[36.113647,52.972685],[36.114571,52.970682],[36.11461,52.970376],[36.114561,52.969894],[36.114382,52.969069]]}},{"type":"Feature","properties":{"full_id":"w292517570","osm_id":"292517570","osm_type":"way","railway":"rail","railway:track_ref":null,"embankment":null,"cutting":null,"height":null,"tracks":null,"service":null,"maxspeed":null,"layer":"1","bridge":"yes","voltage":"3000","usage":"main","passenger_lines":"2","operator":"ОАО «Российские железные дороги»","name":null,"gauge":"1520","frequency":"0","electrified":"contact_line","branch":"МСК"},"geometry":{"type":"LineString","coordinates":[]}},{"type":"Feature","properties":{"full_id":"w426596416","osm_id":"426596416","osm_type":"way","railway":"rail","railway:track_ref":null,"embankment":null,"cutting":null,"height":null,"tracks":null,"service":null,"maxspeed":null,"layer":null,"bridge":null,"voltage":null,"usage":"main","passenger_lines":null,"operator":"ОАО «Российские железные дороги»","name":null,"gauge":null,"frequency":null,"electrified":"no","branch":"МСК"},"geometry":{"type":"LineString","coordinates":[]}},{"type":"Feature","properties":{"full_id":"w623098733","osm_id":"623098733","osm_type":"way","railway":"rail","railway:track_ref":null,"embankment":null,"cutting":null,"height":null,"tracks":null,"service":"spur","maxspeed":null,"layer":null,"bridge":null,"voltage":null,"usage":null,"passenger_lines":null,"operator":null,"name":null,"gauge":"1520","frequency":null,"electrified":"no","branch":null},"geometry":{"type":"LineString","coordinates":[[36.072582,52.94923],[36.07195,52.948882],[36.071352,52.948523],[36.070966,52.948211],[36.070634,52.947892],[36.070347,52.947562]]}},{"type":"Feature","properties":{"full_id":"w859754055","osm_id":"859754055","osm_type":"way","railway":"rail","railway:track_ref":null,"embankment":null,"cutting":null,"height":null,"tracks":null,"service":null,"maxspeed":null,"layer":null,"bridge":null,"voltage":null,"usage":null,"passenger_lines":null,"operator":null,"name":null,"gauge":"1520","frequency":null,"electrified":null,"branch":null},"geometry":{"type":"LineString","coordinates":[]}},{"type":"Feature","properties":{"full_id":"w1055479159","osm_id":"1055479159","osm_type":"way","railway":"rail","railway:track_ref":null,"embankment":null,"cutting":null,"height":null,"tracks":null,"service":null,"maxspeed":null,"layer":null,"bridge":null,"voltage":null,"usage":"main","passenger_lines":"1","operator":"ОАО «Российские железные дороги»","name":null,"gauge":"1520","frequency":null,"electrified":"no","branch":"МСК"},"geometry":{"type":"LineString","coordinates":[]}},{"type":"Feature","properties":{"full_id":"w1150990586","osm_id":"1150990586","osm_type":"way","railway":"rail","railway:track_ref":null,"embankment":null,"cutting":null,"height":null,"tracks":null,"service":null,"maxspeed":null,"layer":null,"bridge":null,"voltage":null,"usage":"main","passenger_lines":"1","operator":"ОАО «Российские железные дороги»","name":null,"gauge":"1520","frequency":null,"electrified":"no","branch":"МСК"},"geometry":{"type":"LineString","coordinates":[]}},{"type":"Feature","properties":{"full_id":"w1150990587","osm_id":"1150990587","osm_type":"way","railway":"rail","railway:track_ref":null,"embankment":null,"cutting":null,"height":null,"tracks":null,"service":null,"maxspeed":null,"layer":"1","bridge":"yes","voltage":null,"usage":"main","passenger_lines":"1","operator":"ОАО «Российские железные дороги»","name":null,"gauge":"1520","frequency":null,"electrified":"no","branch":"МСК"},"geometry":{"type":"LineString","coordinates":[]}},{"type":"Feature","properties":{"full_id":"w1258015270","osm_id":"1258015270","osm_type":"way","railway":"rail","railway:track_ref":null,"embankment":null,"cutting":null,"height":null,"tracks":null,"service":null,"maxspeed":null,"layer":null,"bridge":null,"voltage":"3000","usage":"main","passenger_lines":"2","operator":"ОАО «Российские железные дороги»","name":null,"gauge":"1520","frequency":"0","electrified":"contact_line","branch":"МСК"},"geometry":{"type":"LineString","coordinates":[]}},{"type":"Feature","properties":{"full_id":"w1258015293","osm_id":"1258015293","osm_type":"way","railway":"rail","railway:track_ref":null,"embankment":null,"cutting":null,"height":null,"tracks":null,"service":null,"maxspeed":null,"layer":"1","bridge":"yes","voltage":"3000","usage":"main","passenger_lines":"2","operator":"ОАО «Российские железные дороги»","name":null,"gauge":"1520","frequency":"0","electrified":"contact_line","branch":"МСК"},"geometry":{"type":"LineString","coordinates":[]}},{"type":"Feature","properties":{"full_id":"w1258015303","osm_id":"1258015303","osm_type":"way","railway":"rail","railway:track_ref":null,"embankment":null,"cutting":null,"height":null,"tracks":null,"service":null,"maxspeed":null,"layer":null,"bridge":null,"voltage":"3000","usage":"main","passenger_lines":"1","operator":"ОАО «Российские железные дороги»","name":null,"gauge":"1520","frequency":"0","electrified":"contact_line","branch":"МСК"},"geometry":{"type":"LineString","coordinates":[]}},{"type":"Feature","properties":{"full_id":"w292448398","osm_id":"292448398","osm_type":"way","railway":"rail","railway:track_ref":null,"embankment":null,"cutting":null,"height":null,"tracks":null,"service":"spur","maxspeed":null,"layer":null,"bridge":null,"voltage":null,"usage":null,"passenger_lines":null,"operator":null,"name":null,"gauge":"1520","frequency":null,"electrified":"no","branch":null},"geometry":{"type":"LineString","coordinates":[[36.009895,52.916334],[36.011361,52.917151],[36.012127,52.917551],[36.012641,52.917793],[36.013164,52.91799],[36.013911,52.918407],[36.014148,52.9185],[36.014285,52.918553],[36.014601,52.918645],[36.01468,52.918668],[36.015082,52.918768],[36.01562,52.918857],[36.016433,52.919056],[36.017535,52.919325],[36.018114,52.919488],[36.018674,52.919696],[36.020505,52.920468],[36.021213,52.920771],[36.023204,52.921622],[36.025166,52.922478],[36.025614,52.922692],[36.026101,52.922973]]}},{"type":"Feature","properties":{"full_id":"w31141862","osm_id":"31141862","osm_type":"way","railway":"rail","railway:track_ref":null,"embankment":null,"cutting":null,"height":null,"tracks":null,"service":null,"maxspeed":null,"layer":"1","bridge":"yes","voltage":null,"usage":"main","passenger_lines":"1","operator":"ОАО «Российские железные дороги»","name":null,"gauge":null,"frequency":null,"electrified":"no","branch":"МСК"},"geometry":{"type":"LineString","coordinates":[[35.98608,52.923347],[35.994366,52.922311],[35.995384,52.922179],[35.995821,52.922117],[35.996188,52.922047],[35.997061,52.921837],[35.997609,52.92166],[35.998187,52.921441],[35.998676,52.92121],[35.999102,52.920979],[35.999451,52.920748],[35.999784,52.920504],[36.000245,52.920121],[36.001464,52.919104],[36.001893,52.91879],[36.002369,52.918489],[36.004113,52.917501],[36.006915,52.91584],[36.01053,52.913795],[36.013357,52.912197],[36.015057,52.911208],[36.015723,52.910844],[36.016475,52.91051],[36.017781,52.910071],[36.018212,52.90996],[36.019087,52.909752],[36.020989,52.909643],[36.021935,52.909582],[36.023061,52.909526],[36.024937,52.909432],[36.028162,52.909285],[36.032278,52.909075],[36.037688,52.90879],[36.038155,52.908765],[36.040344,52.908653],[36.041288,52.908596],[36.042046,52.908607],[36.045356,52.908703],[36.048144,52.908809],[36.049689,52.908892],[36.050989,52.909045],[36.052275,52.909272],[36.052661,52.909362],[36.053697,52.909604],[36.054752,52.909918],[36.056722,52.910561],[36.063922,52.912915],[36.065929,52.913547],[36.066037,52.913581],[36.077499,52.917197],[36.078203,52.91745],[36.078894,52.917788],[36.079386,52.918028],[36.08016,52.918618],[36.080676,52.919112],[36.081191,52.919863],[36.081432,52.92055],[36.081483,52.921272],[36.081423,52.92314],[36.081479,52.92364],[36.081567,52.923956],[36.081716,52.924276],[36.081928,52.924611],[36.082182,52.924947],[36.083101,52.926008],[36.083268,52.926167],[36.083525,52.92641],[36.083811,52.926634],[36.084278,52.926951],[36.084699,52.927187],[36.085203,52.927421],[36.085996,52.927782],[36.086058,52.927811],[36.088141,52.928748],[36.08916,52.9292],[36.093253,52.930977],[36.093823,52.931198],[36.09453,52.931457],[36.095568,52.931762],[36.096234,52.93194],[36.096392,52.931982],[36.105379,52.934025],[36.106034,52.934165],[36.108225,52.934671],[36.108387,52.934706],[36.110414,52.935159],[36.112874,52.935723],[36.113461,52.935857],[36.113889,52.935961],[36.114271,52.936084],[36.114591,52.936207],[36.114893,52.936349],[36.115231,52.936557],[36.115657,52.936828],[36.116049,52.937121],[36.116432,52.937515],[36.116703,52.937892],[36.11703,52.938562],[36.117413,52.939507],[36.117642,52.940065],[36.118585,52.942378],[36.11936,52.944325],[36.119627,52.945111],[36.11973,52.945501],[36.119757,52.945855],[36.119697,52.946266],[36.119618,52.946528],[36.119443,52.946916],[36.119169,52.947335],[36.118798,52.947739],[36.118464,52.948017],[36.117347,52.948925],[36.114448,52.951304],[36.112083,52.953191],[36.1118,52.953411],[36.111553,52.953634],[36.111405,52.953772],[36.111271,52.95392],[36.111155,52.954077],[36.111063,52.954234],[36.110996,52.954378],[36.11094,52.954521],[36.110893,52.954697],[36.110878,52.954836],[36.110874,52.954967],[36.110885,52.955117],[36.110925,52.955306],[36.110987,52.955464],[36.111195,52.955871],[36.111363,52.956134],[36.111563,52.956409],[36.111675,52.956551],[36.112789,52.957904],[36.113327,52.959043],[36.113521,52.959505],[36.113621,52.959909],[36.113627,52.960279],[36.11356,52.961023],[36.11356,52.961476],[36.113638,52.962031],[36.113832,52.962655],[36.113912,52.962835],[36.114024,52.963228],[36.114186,52.963662],[36.114265,52.964005],[36.114276,52.96409],[36.114286,52.964213],[36.114286,52.96427],[36.114275,52.964373],[36.114259,52.964507],[36.114209,52.964752],[36.114169,52.96498],[36.114104,52.965246],[36.114061,52.965428],[36.114,52.965706],[36.114008,52.965852],[36.114022,52.966009],[36.114093,52.966295],[36.114399,52.967847],[36.1144,52.968073],[36.114336,52.968738],[36.114382,52.969069],[36.11439,52.969603],[36.114295,52.969964],[36.114085,52.970269],[36.11297,52.971806]]}},{"type":"Feature","properties":{"full_id":"w292455132","osm_id":"292455132","osm_type":"way","railway":"rail","railway:track_ref":null,"embankment":null,"cutting":null,"height":null,"tracks":null,"service":"spur","maxspeed":null,"layer":null,"bridge":null,"voltage":null,"usage":null,"passenger_lines":null,"operator":null,"name":null,"gauge":"1520","frequency":null,"electrified":"no","branch":null},"geometry":{"type":"LineString","coordinates":[[35.996155,52.92098],[35.995996,52.920986],[35.995819,52.921036],[35.995717,52.921064],[35.995215,52.921181],[35.994653,52.92123],[35.993215,52.921232],[35.992982,52.921232],[35.99192,52.921229],[35.990471,52.921226],[35.990325,52.921226],[35.989559,52.921226],[35.988969,52.921206],[35.988454,52.921148],[35.987703,52.921135],[35.987222,52.921132],[35.986076,52.921126],[35.985482,52.921122],[35.984356,52.921122],[35.984034,52.921122],[35.983733,52.921103],[35.983384,52.921098],[35.98324,52.921096],[35.983157,52.921099],[35.982875,52.921109],[35.981355,52.921155],[35.98069,52.921285],[35.979207,52.921846],[35.978924,52.92196],[35.977789,52.922407]]}},{"type":"Feature","properties":{"full_id":"w33900471","osm_id":"33900471","osm_type":"way","railway":"rail","railway:track_ref":null,"embankment":null,"cutting":null,"height":null,"tracks":null,"service":null,"maxspeed":"80","layer":null,"bridge":null,"voltage":null,"usage":"branch","passenger_lines":null,"operator":"ОАО «Российские железные дороги»","name":null,"gauge":"1520","frequency":null,"electrified":"no","branch":"МСК"},"geometry":{"type":"LineString","coordinates":[[36.108004,52.983978],[36.108407,52.983319],[36.108813,52.982663],[36.109328,52.98186],[36.109611,52.981435],[36.109904,52.981017],[36.110322,52.980459],[36.110693,52.980011],[36.11111,52.979562],[36.111603,52.979079],[36.111854,52.978834],[36.112134,52.978574],[36.112447,52.978313],[36.112905,52.977955],[36.112997,52.977892],[36.113437,52.977604],[36.113746,52.977403],[36.114113,52.977178],[36.11446,52.976962],[36.114753,52.976776],[36.115085,52.976544],[36.1154,52.976286],[36.115747,52.975959],[36.115829,52.975886],[36.115995,52.975715],[36.116146,52.975498],[36.116222,52.975388],[36.116427,52.975104],[36.116601,52.974935],[36.116858,52.974609],[36.116978,52.974202],[36.117025,52.973843],[36.11694,52.972665],[36.116718,52.971886],[36.116235,52.970912],[36.115612,52.969534],[36.115126,52.968516],[36.114911,52.968072],[36.114745,52.967725],[36.114606,52.967429],[36.11442,52.967025],[36.11424,52.966614],[36.114093,52.966295],[36.11354,52.965463],[36.113421,52.965304],[36.112996,52.964821],[36.112718,52.964532],[36.112468,52.964304],[36.112175,52.964036],[36.111852,52.963785],[36.11149,52.963526],[36.111146,52.963294],[36.110791,52.963067],[36.110301,52.962791],[36.110025,52.962642],[36.109527,52.962405],[36.109,52.962179],[36.108399,52.96194],[36.107783,52.961734],[36.107109,52.961534],[36.106401,52.961349],[36.105162,52.961082],[36.101973,52.96046],[36.101956,52.960457],[36.101336,52.960336],[36.098479,52.959773],[36.096317,52.959351],[36.095902,52.959269],[36.093991,52.958901],[36.093189,52.958728],[36.092366,52.958518],[36.09141,52.958187],[36.090383,52.957768],[36.090126,52.957638],[36.088448,52.956842],[36.087497,52.95639],[36.08647,52.955871],[36.084849,52.955091],[36.083896,52.954638],[36.076652,52.951217],[36.076439,52.951115],[36.076227,52.951014],[36.076145,52.950975],[36.075979,52.950896],[36.073637,52.94979],[36.072715,52.949354],[36.071843,52.948942],[36.069549,52.947857],[36.068923,52.94756],[36.067173,52.946729],[36.062511,52.944516],[36.061622,52.944077],[36.061305,52.94391],[36.061105,52.943805],[36.060731,52.943583],[36.060562,52.943484],[36.060473,52.943424],[36.059893,52.943044],[36.059358,52.942643],[36.059233,52.942555],[36.058665,52.942096],[36.05813,52.941624],[36.057846,52.941359],[36.055528,52.93914],[36.054392,52.938072],[36.054353,52.938034],[36.054305,52.937996],[36.053474,52.93737],[36.052591,52.936754],[36.051736,52.936255],[36.050896,52.935797],[36.05008,52.935389],[36.048208,52.934468],[36.04819,52.934459],[36.040466,52.930655],[36.040372,52.930608],[36.038009,52.929431],[36.037829,52.929351],[36.036999,52.928985],[36.036476,52.928756],[36.035957,52.92853],[36.035063,52.928146],[36.034984,52.928112],[36.034245,52.927801],[36.03333,52.927453],[36.032399,52.927146],[36.031319,52.926824],[36.030302,52.926566],[36.029142,52.926282],[36.028584,52.92616],[36.027504,52.92594],[36.027375,52.925914],[36.025968,52.925645],[36.02374,52.925227],[36.022575,52.925009],[36.02168,52.924844],[36.021276,52.924771],[36.020182,52.924568],[36.017572,52.924088],[36.01676,52.923939],[36.013458,52.923332],[36.007648,52.922265],[36.006314,52.922048],[36.005291,52.921941],[36.004539,52.921894],[36.003449,52.921839],[36.00277,52.92182],[36.002077,52.921823],[36.001275,52.921847],[36.000459,52.921891],[35.99905,52.922012],[35.997738,52.922147],[35.995753,52.922355],[35.995492,52.922377],[35.987555,52.923198],[35.984563,52.923499],[35.982329,52.923729],[35.980096,52.923978],[35.977872,52.924221]]}},{"type":"Feature","properties":{"full_id":"w292459505","osm_id":"292459505","osm_type":"way","railway":"rail","railway:track_ref":null,"embankment":null,"cutting":null,"height":null,"tracks":null,"service":"siding","maxspeed":null,"layer":null,"bridge":null,"voltage":null,"usage":null,"passenger_lines":null,"operator":null,"name":null,"gauge":"1520","frequency":null,"electrified":"no","branch":null},"geometry":{"type":"LineString","coordinates":[[36.097491,52.998449],[36.097455,52.997089],[36.097451,52.996927],[36.097313,52.996032],[36.097134,52.995239],[36.097052,52.994808],[36.097028,52.994554],[36.09706,52.99428],[36.097134,52.994055],[36.097313,52.993781],[36.097857,52.9931],[36.098191,52.992673],[36.098304,52.992528],[36.098475,52.992249],[36.098573,52.991989],[36.098752,52.991608],[36.099024,52.991311],[36.099425,52.9909],[36.099626,52.990743],[36.099796,52.99062],[36.099994,52.990496],[36.100301,52.990339],[36.100488,52.990223],[36.100703,52.990041],[36.100746,52.989998],[36.101088,52.989651],[36.102264,52.988466],[36.102562,52.988194],[36.102694,52.988069],[36.102953,52.987877],[36.103574,52.987457],[36.104415,52.986913],[36.104766,52.986652],[36.104979,52.986476],[36.105108,52.986369],[36.106388,52.985565]]}},{"type":"Feature","properties":{"full_id":"w26732010","osm_id":"26732010","osm_type":"way","railway":"rail","railway:track_ref":null,"embankment":null,"cutting":null,"height":null,"tracks":null,"service":null,"maxspeed":null,"layer":null,"bridge":null,"voltage":"3000","usage":"main","passenger_lines":"2","operator":"ОАО «Российские железные дороги»","name":"Крымский исторический ход","gauge":"1520","frequency":"0","electrified":"contact_line","branch":"МСК"},"geometry":{"type":"LineString","coordinates":[[36.114118,52.951567],[36.113612,52.952562],[36.113461,52.952824],[36.113171,52.95333],[36.112837,52.954223],[36.112772,52.954543],[36.112688,52.95499],[36.112637,52.955213],[36.112652,52.955602],[36.112695,52.956225],[36.112859,52.95681],[36.113202,52.957616],[36.113299,52.957861],[36.113585,52.958307],[36.113926,52.958819],[36.114696,52.95977],[36.11556,52.960772],[36.116929,52.962446],[36.118367,52.96404],[36.119656,52.965699],[36.119917,52.966077],[36.120197,52.96658],[36.120475,52.967164],[36.120657,52.967714],[36.120787,52.968281],[36.120825,52.968829],[36.120804,52.969398],[36.120721,52.969935],[36.120611,52.970348],[36.120468,52.970748],[36.120281,52.97119],[36.120011,52.971664],[36.119713,52.972096],[36.119262,52.972638],[36.118775,52.973159],[36.118388,52.973558],[36.118063,52.973883],[36.117708,52.974251],[36.117572,52.974385],[36.11725,52.97472],[36.11664,52.975307],[36.116486,52.975458],[36.115879,52.976069],[36.115053,52.976905],[36.114391,52.977552],[36.114374,52.977568],[36.114168,52.977772],[36.113818,52.978127],[36.11352,52.978465],[36.112978,52.979164],[36.112698,52.979486],[36.111585,52.980603],[36.110757,52.981415],[36.110198,52.981961],[36.109763,52.982329],[36.109164,52.982845],[36.108697,52.983262],[36.108259,52.983713],[36.108082,52.983895],[36.108004,52.983978],[36.107763,52.984211],[36.107755,52.98422],[36.107149,52.984801],[36.10667,52.985298],[36.10579,52.986132],[36.105409,52.98654],[36.105344,52.98661],[36.105187,52.986797],[36.104327,52.987769],[36.104038,52.988089],[36.103653,52.988497],[36.101675,52.990498],[36.100458,52.99176],[36.100117,52.992232],[36.099831,52.992766],[36.099583,52.993344],[36.099435,52.993848],[36.099337,52.994319],[36.099283,52.994663],[36.099244,52.995234],[36.099265,52.995889],[36.099291,52.996212],[36.099387,52.997027],[36.100161,53.002893],[36.100306,53.003988],[36.10053,53.00561],[36.100693,53.00687],[36.100893,53.0084],[36.101159,53.010346],[36.101314,53.011532],[36.101317,53.011537],[36.101423,53.012284],[36.10153,53.013169],[36.101653,53.014107],[36.101744,53.014785],[36.101833,53.015525]]}},{"type":"Feature","properties":{"full_id":"w158103592","osm_id":"158103592","osm_type":"way","railway":"rail","railway:track_ref":null,"embankment":null,"cutting":null,"height":null,"tracks":null,"service":null,"maxspeed":null,"layer":"1","bridge":"yes","voltage":null,"usage":"main","passenger_lines":"1","operator":"ОАО «Российские железные дороги»","name":null,"gauge":"1520","frequency":null,"electrified":null,"branch":"МСК"},"geometry":{"type":"LineString","coordinates":[[36.120611,52.970348],[36.121069,52.969362],[36.12123,52.96886],[36.121404,52.968238],[36.121471,52.967678],[36.121416,52.967114],[36.121194,52.966414],[36.120784,52.965731],[36.116855,52.959904],[36.116521,52.9591],[36.116449,52.958263],[36.116665,52.95744],[36.117228,52.956501],[36.117851,52.955751],[36.120907,52.952581],[36.121257,52.952226],[36.121632,52.951701],[36.121877,52.951195],[36.121998,52.950781],[36.122083,52.950358],[36.122055,52.949885],[36.122046,52.949649],[36.121971,52.949334],[36.121869,52.949013],[36.121729,52.948737],[36.121626,52.948501],[36.121467,52.948202],[36.121187,52.947634],[36.120796,52.946714],[36.120433,52.945993],[36.11936,52.944325]]}},{"type":"Feature","properties":{"full_id":"w196255279","osm_id":"196255279","osm_type":"way","railway":"rail","railway:track_ref":null,"embankment":null,"cutting":null,"height":null,"tracks":null,"service":null,"maxspeed":null,"layer":null,"bridge":null,"voltage":null,"usage":"main","passenger_lines":"1","operator":"ОАО «Российские железные дороги»","name":null,"gauge":"1520","frequency":null,"electrified":"no","branch":"МСК"},"geometry":{"type":"LineString","coordinates":[[36.162024,52.94897],[36.160372,52.950893],[36.158797,52.952861],[36.156702,52.955563],[36.154526,52.95827],[36.152975,52.960138],[36.15191,52.961505],[36.151163,52.962146],[36.151081,52.962201],[36.150416,52.962647],[36.14951,52.963136],[36.148202,52.963671],[36.147119,52.96398],[36.145867,52.964222],[36.141225,52.964847],[36.14003,52.965122],[36.138524,52.965659],[36.136938,52.966422],[36.134865,52.967485],[36.132717,52.968565],[36.131755,52.968975],[36.130344,52.96938],[36.129074,52.96961],[36.128175,52.969724],[36.12765,52.969769],[36.127156,52.969798],[36.126643,52.969794],[36.126004,52.969776],[36.12545,52.969744],[36.125212,52.969726],[36.124767,52.969681],[36.124311,52.969621],[36.123725,52.969507],[36.123054,52.969371],[36.122656,52.969272],[36.122184,52.96913],[36.121625,52.96893],[36.120607,52.968449],[36.120168,52.96819],[36.119757,52.967953],[36.119389,52.967684],[36.119139,52.967485],[36.118835,52.967134],[36.11864,52.966897],[36.118501,52.96665],[36.118185,52.96598],[36.117815,52.965083],[36.117364,52.964033],[36.116855,52.962997],[36.116524,52.962475],[36.115542,52.961288],[36.114906,52.960556],[36.114331,52.959828],[36.114264,52.959747],[36.114048,52.959418],[36.112789,52.957904]]}}]}