{"type":"FeatureCollection","features":[{"type":"Feature","id":1,"properties":{"source":"bus_stop","name":"Магазин Орёл"},"geometry":{"type":"Point","coordinates":[36.07203,52.983915]}},{"type":"Feature","id":2,"properties":{"source":"bus_stop","name":"Магазин Орёл"},"geometry":{"type":"Point","coordinates":[36.070838,52.983015]}},{"type":"Feature","id":3,"properties":{"source":"bus_stop","name":"Завод Научприбор"},"geometry":{"type":"Point","coordinates":[36.049284,52.981272]}},{"type":"Feature","id":4,"properties":{"source":"bus_stop","name":"Завод Научприбор"},"geometry":{"type":"Point","coordinates":[36.050033,52.980342]}},{"type":"Feature","id":5,"properties":{"source":"bus_stop","name":"Госуниверситет"},"geometry":{"type":"Point","coordinates":[36.035719,52.991217]}},{"type":"Feature","id":6,"properties":{"source":"bus_stop","name":"Торговый центр Европа"},"geometry":{"type":"Point","coordinates":[36.041207,52.987468]}},{"type":"Feature","id":7,"properties":{"source":"bus_stop","name":"Торговый центр Европа"},"geometry":{"type":"Point","coordinates":[36.04035,52.988035]}},{"type":"Feature","id":8,"properties":{"source":"bus_stop","name":"Госуниверситет"},"geometry":{"type":"Point","coordinates":[36.035786,52.990778]}},{"type":"Feature","id":9,"properties":{"source":"bus_stop","name":""},"geometry":{"type":"Point","coordinates":[36.184024,52.974361]}},{"type":"Feature","id":10,"properties":{"source":"bus_stop","name":"909-й квартал"},"geometry":{"type":"Point","coordinates":[36.009853,52.925708]}},{"type":"Feature","id":11,"properties":{"source":"bus_stop","name":"Микрорайон Прокуровка"},"geometry":{"type":"Point","coordinates":[36.135798,52.998848]}},{"type":"Feature","id":12,"properties":{"source":"bus_stop","name":"Микрорайон Прокуровка"},"geometry":{"type":"Point","coordinates":[36.136519,52.998993]}},{"type":"Feature","id":13,"properties":{"source":"bus_stop","name":"Администрация Северного района"},"geometry":{"type":"Point","coordinates":[36.140268,53.001559]}},{"type":"Feature","id":14,"properties":{"source":"bus_stop","name":"Администрация Северного района"},"geometry":{"type":"Point","coordinates":[36.139341,53.001231]}},{"type":"Feature","id":15,"properties":{"source":"bus_stop","name":"Электровозная улица"},"geometry":{"type":"Point","coordinates":[36.118249,52.985859]}},{"type":"Feature","id":16,"properties":{"source":"bus_stop","name":"Паровозная улица"},"geometry":{"type":"Point","coordinates":[36.113185,52.983328]}},{"type":"Feature","id":17,"properties":{"source":"bus_stop","name":"Гипсовый комбинат"},"geometry":{"type":"Point","coordinates":[36.106868,52.982589]}},{"type":"Feature","id":18,"properties":{"source":"bus_stop","name":"Электровозная улица"},"geometry":{"type":"Point","coordinates":[36.11768,52.986459]}},{"type":"Feature","id":19,"properties":{"source":"bus_stop","name":"Гипсовый комбинат"},"geometry":{"type":"Point","coordinates":[36.107342,52.982549]}},{"type":"Feature","id":20,"properties":{"source":"bus_stop","name":"Троллейбусное депо"},"geometry":{"type":"Point","coordinates":[36.149617,53.008252]}},{"type":"Feature","id":21,"properties":{"source":"bus_stop","name":"Супермаркет Апельсин"},"geometry":{"type":"Point","coordinates":[36.074048,52.954395]}},{"type":"Feature","id":22,"properties":{"source":"bus_stop","name":"Улица Горького"},"geometry":{"type":"Point","coordinates":[36.081607,52.987811]}},{"type":"Feature","id":23,"properties":{"source":"bus_stop","name":"Стоматологическая поликлиника"},"geometry":{"type":"Point","coordinates":[36.081701,52.986014]}},{"type":"Feature","id":24,"properties":{"source":"bus_stop","name":"Школа №19"},"geometry":{"type":"Point","coordinates":[36.078542,52.981726]}},{"type":"Feature","id":25,"properties":{"source":"bus_stop","name":"Школа №19"},"geometry":{"type":"Point","coordinates":[36.079279,52.982081]}},{"type":"Feature","id":26,"properties":{"source":"bus_stop","name":"ул. 60 лет Октября"},"geometry":{"type":"Point","coordinates":[36.077084,52.979081]}},{"type":"Feature","id":27,"properties":{"source":"bus_stop","name":"Дом моды"},"geometry":{"type":"Point","coordinates":[36.050407,52.941566]}},{"type":"Feature","id":28,"properties":{"source":"bus_stop","name":"Автовокзал"},"geometry":{"type":"Point","coordinates":[36.048616,52.939806]}},{"type":"Feature","id":29,"properties":{"source":"bus_stop","name":"Поворот на Малую Куликовку"},"geometry":{"type":"Point","coordinates":[36.15399,52.912118]}},{"type":"Feature","id":30,"properties":{"source":"bus_stop","name":"ул. 60 лет Октября"},"geometry":{"type":"Point","coordinates":[36.076782,52.978811]}},{"type":"Feature","id":31,"properties":{"source":"bus_stop","name":"Гипермаркет Лента"},"geometry":{"type":"Point","coordinates":[36.124752,52.99131]}},{"type":"Feature","id":32,"properties":{"source":"bus_stop","name":"Гипермаркет Лента"},"geometry":{"type":"Point","coordinates":[36.124157,52.990573]}},{"type":"Feature","id":33,"properties":{"source":"bus_stop","name":"Автовокзал"},"geometry":{"type":"Point","coordinates":[36.04746,52.942064]}},{"type":"Feature","id":34,"properties":{"source":"bus_stop","name":"Улица Матросова"},"geometry":{"type":"Point","coordinates":[36.044759,52.977657]}},{"type":"Feature","id":35,"properties":{"source":"bus_stop","name":"Университет"},"geometry":{"type":"Point","coordinates":[36.060988,52.949218]}},{"type":"Feature","id":36,"properties":{"source":"bus_stop","name":"Университет"},"geometry":{"type":"Point","coordinates":[36.060841,52.949759]}},{"type":"Feature","id":37,"properties":{"source":"bus_stop","name":"Завод Автосельмаш"},"geometry":{"type":"Point","coordinates":[36.055107,52.945181]}},{"type":"Feature","id":38,"properties":{"source":"bus_stop","name":"Завод Автосельмаш"},"geometry":{"type":"Point","coordinates":[36.054233,52.944075]}},{"type":"Feature","id":39,"properties":{"source":"bus_stop","name":"Железнодорожная больница"},"geometry":{"type":"Point","coordinates":[36.085314,52.960284]}},{"type":"Feature","id":40,"properties":{"source":"bus_stop","name":"Железнодорожная больница"},"geometry":{"type":"Point","coordinates":[36.087282,52.962139]}},{"type":"Feature","id":41,"properties":{"source":"bus_stop","name":"улица 8 Марта"},"geometry":{"type":"Point","coordinates":[36.072716,52.976917]}},{"type":"Feature","id":42,"properties":{"source":"bus_stop","name":"улица 8 Марта"},"geometry":{"type":"Point","coordinates":[36.074505,52.978491]}},{"type":"Feature","id":43,"properties":{"source":"bus_stop","name":"Сквер Гуртьева"},"geometry":{"type":"Point","coordinates":[36.063448,52.974606]}},{"type":"Feature","id":44,"properties":{"source":"bus_stop","name":"Сквер Гуртьева"},"geometry":{"type":"Point","coordinates":[36.063452,52.975614]}},{"type":"Feature","id":45,"properties":{"source":"bus_stop","name":"Сквер Гуртьева"},"geometry":{"type":"Point","coordinates":[36.063113,52.975683]}},{"type":"Feature","id":46,"properties":{"source":"bus_stop","name":""},"geometry":{"type":"Point","coordinates":[36.061387,52.9758]}},{"type":"Feature","id":47,"properties":{"source":"bus_stop","name":"Стадион Динамо"},"geometry":{"type":"Point","coordinates":[36.068351,52.97753]}},{"type":"Feature","id":48,"properties":{"source":"bus_stop","name":"Главпочтамт"},"geometry":{"type":"Point","coordinates":[36.062585,52.967979]}},{"type":"Feature","id":49,"properties":{"source":"bus_stop","name":"Дворец Спорта"},"geometry":{"type":"Point","coordinates":[36.058605,52.971052]}},{"type":"Feature","id":50,"properties":{"source":"bus_stop","name":"Атолл"},"geometry":{"type":"Point","coordinates":[36.056319,52.969679]}},{"type":"Feature","id":51,"properties":{"source":"bus_stop","name":"Музей Тургенева"},"geometry":{"type":"Point","coordinates":[36.061295,52.967262]}},{"type":"Feature","id":52,"properties":{"source":"bus_stop","name":"Музей изобразительных исскуств"},"geometry":{"type":"Point","coordinates":[36.058433,52.972179]}},{"type":"Feature","id":53,"properties":{"source":"bus_stop","name":"Военно-исторический музей"},"geometry":{"type":"Point","coordinates":[36.062678,52.953974]}},{"type":"Feature","id":54,"properties":{"source":"bus_stop","name":"1-я Посадская улица"},"geometry":{"type":"Point","coordinates":[36.064769,52.959865]}},{"type":"Feature","id":55,"properties":{"source":"bus_stop","name":"1-я Посадская улица"},"geometry":{"type":"Point","coordinates":[36.064986,52.96049]}},{"type":"Feature","id":56,"properties":{"source":"bus_stop","name":"Площадь Карла Маркса"},"geometry":{"type":"Point","coordinates":[36.067983,52.962998]}},{"type":"Feature","id":57,"properties":{"source":"bus_stop","name":"Сквер имени Ермолова"},"geometry":{"type":"Point","coordinates":[36.066893,52.961642]}},{"type":"Feature","id":58,"properties":{"source":"bus_stop","name":"Санаторий «Лесной»"},"geometry":{"type":"Point","coordinates":[36.140515,53.020153]}},{"type":"Feature","id":59,"properties":{"source":"bus_stop","name":"Санаторий «Лесной»"},"geometry":{"type":"Point","coordinates":[36.140167,53.019627]}},{"type":"Feature","id":60,"properties":{"source":"bus_stop","name":"больница им. Боткина"},"geometry":{"type":"Point","coordinates":[36.137098,53.017794]}},{"type":"Feature","id":61,"properties":{"source":"bus_stop","name":"ТЦ Европа"},"geometry":{"type":"Point","coordinates":[36.138296,53.015887]}},{"type":"Feature","id":62,"properties":{"source":"bus_stop","name":"Дом быта"},"geometry":{"type":"Point","coordinates":[36.075142,52.967305]}},{"type":"Feature","id":63,"properties":{"source":"bus_stop","name":"Парк культуры и отдыха"},"geometry":{"type":"Point","coordinates":[36.067651,52.97324]}},{"type":"Feature","id":64,"properties":{"source":"bus_stop","name":"Улица Горького"},"geometry":{"type":"Point","coordinates":[36.081915,52.987597]}},{"type":"Feature","id":65,"properties":{"source":"bus_stop","name":"Сквер Героев-Десантников"},"geometry":{"type":"Point","coordinates":[36.023582,52.926791]}},{"type":"Feature","id":66,"properties":{"source":"bus_stop","name":"Ботаника"},"geometry":{"type":"Point","coordinates":[36.036553,52.933831]}},{"type":"Feature","id":67,"properties":{"source":"bus_stop","name":"Автовокзал"},"geometry":{"type":"Point","coordinates":[36.045776,52.939208]}},{"type":"Feature","id":68,"properties":{"source":"bus_stop","name":"Городской центр культуры"},"geometry":{"type":"Point","coordinates":[36.031475,52.930983]}},{"type":"Feature","id":69,"properties":{"source":"bus_stop","name":"Городской центр культуры"},"geometry":{"type":"Point","coordinates":[36.030623,52.930748]}},{"type":"Feature","id":70,"properties":{"source":"bus_stop","name":"Сквер Героев-Десантников"},"geometry":{"type":"Point","coordinates":[36.02405,52.926838]}},{"type":"Feature","id":71,"properties":{"source":"bus_stop","name":"Завод Дормаш"},"geometry":{"type":"Point","coordinates":[36.019523,52.923657]}},{"type":"Feature","id":72,"properties":{"source":"bus_stop","name":"Магазин Уют"},"geometry":{"type":"Point","coordinates":[36.041598,52.936866]}},{"type":"Feature","id":73,"properties":{"source":"bus_stop","name":"Ботаника"},"geometry":{"type":"Point","coordinates":[36.035452,52.933442]}},{"type":"Feature","id":74,"properties":{"source":"bus_stop","name":"Южный рынок"},"geometry":{"type":"Point","coordinates":[36.027907,52.929203]}},{"type":"Feature","id":75,"properties":{"source":"bus_stop","name":"Магазин Уют"},"geometry":{"type":"Point","coordinates":[36.040315,52.935928]}},{"type":"Feature","id":76,"properties":{"source":"bus_stop","name":"Поликлиника №3"},"geometry":{"type":"Point","coordinates":[36.065051,52.957686]}},{"type":"Feature","id":77,"properties":{"source":"bus_stop","name":"Поликлиника №3"},"geometry":{"type":"Point","coordinates":[36.065246,52.958527]}},{"type":"Feature","id":78,"properties":{"source":"bus_stop","name":"Ветеринарная лечебница"},"geometry":{"type":"Point","coordinates":[36.032076,52.946748]}},{"type":"Feature","id":79,"properties":{"source":"bus_stop","name":"Автошкола ДОСААФ"},"geometry":{"type":"Point","coordinates":[36.039765,52.946299]}},{"type":"Feature","id":80,"properties":{"source":"bus_stop","name":"Военно-исторический музей"},"geometry":{"type":"Point","coordinates":[36.062632,52.953472]}},{"type":"Feature","id":81,"properties":{"source":"bus_stop","name":"Женский монастырь"},"geometry":{"type":"Point","coordinates":[36.096246,52.958013]}},{"type":"Feature","id":82,"properties":{"source":"bus_stop","name":"Мелькомбинат"},"geometry":{"type":"Point","coordinates":[36.101616,52.956879]}},{"type":"Feature","id":83,"properties":{"source":"bus_stop","name":"Больница им. Семашко"},"geometry":{"type":"Point","coordinates":[36.061495,52.984927]}},{"type":"Feature","id":84,"properties":{"source":"bus_stop","name":"Больница им. Семашко"},"geometry":{"type":"Point","coordinates":[36.061588,52.985361]}},{"type":"Feature","id":85,"properties":{"source":"bus_stop","name":"Улица Матвеева"},"geometry":{"type":"Point","coordinates":[36.061204,52.9862]}},{"type":"Feature","id":86,"properties":{"source":"bus_stop","name":"Ливенская АЗС"},"geometry":{"type":"Point","coordinates":[36.114715,52.948896]}},{"type":"Feature","id":87,"properties":{"source":"bus_stop","name":"Общежитие"},"geometry":{"type":"Point","coordinates":[36.108266,52.953831]}},{"type":"Feature","id":88,"properties":{"source":"bus_stop","name":"Винзавод"},"geometry":{"type":"Point","coordinates":[36.110243,52.952483]}},{"type":"Feature","id":89,"properties":{"source":"bus_stop","name":"Автодром"},"geometry":{"type":"Point","coordinates":[36.119725,52.949866]}},{"type":"Feature","id":90,"properties":{"source":"bus_stop","name":"Микрорайон"},"geometry":{"type":"Point","coordinates":[36.147911,53.010097]}},{"type":"Feature","id":91,"properties":{"source":"bus_stop","name":"Профлицей"},"geometry":{"type":"Point","coordinates":[36.143719,53.024274]}},{"type":"Feature","id":92,"properties":{"source":"bus_stop","name":"Универсам Москва"},"geometry":{"type":"Point","coordinates":[36.066362,52.956943]}},{"type":"Feature","id":93,"properties":{"source":"bus_stop","name":"Школа №26"},"geometry":{"type":"Point","coordinates":[36.071685,52.95888]}},{"type":"Feature","id":94,"properties":{"source":"bus_stop","name":"Черкасская улица"},"geometry":{"type":"Point","coordinates":[36.073121,52.958026]}},{"type":"Feature","id":95,"properties":{"source":"bus_stop","name":"Супермаркет Апельсин"},"geometry":{"type":"Point","coordinates":[36.073194,52.955799]}},{"type":"Feature","id":96,"properties":{"source":"bus_stop","name":"Сквер имени Ермолова"},"geometry":{"type":"Point","coordinates":[36.066965,52.960999]}},{"type":"Feature","id":97,"properties":{"source":"bus_stop","name":"Черкасская улица"},"geometry":{"type":"Point","coordinates":[36.074509,52.958515]}},{"type":"Feature","id":98,"properties":{"source":"bus_stop","name":"Улица Приборостроительная"},"geometry":{"type":"Point","coordinates":[36.066503,52.985169]}},{"type":"Feature","id":99,"properties":{"source":"bus_stop","name":"Юридический институт"},"geometry":{"type":"Point","coordinates":[36.075472,52.989181]}},{"type":"Feature","id":100,"properties":{"source":"bus_stop","name":"Горгаз"},"geometry":{"type":"Point","coordinates":[36.044229,52.985591]}},{"type":"Feature","id":101,"properties":{"source":"bus_stop","name":"Улица Цветаева"},"geometry":{"type":"Point","coordinates":[36.055223,52.990187]}},{"type":"Feature","id":102,"properties":{"source":"bus_stop","name":"Улица Приборостроительная"},"geometry":{"type":"Point","coordinates":[36.066753,52.98465]}},{"type":"Feature","id":103,"properties":{"source":"bus_stop","name":"Завод приборов"},"geometry":{"type":"Point","coordinates":[36.068844,52.980361]}},{"type":"Feature","id":104,"properties":{"source":"bus_stop","name":"Парк Победы"},"geometry":{"type":"Point","coordinates":[36.038758,52.970604]}},{"type":"Feature","id":105,"properties":{"source":"bus_stop","name":"Весёлая Слобода"},"geometry":{"type":"Point","coordinates":[36.035344,52.968031]}},{"type":"Feature","id":106,"properties":{"source":"bus_stop","name":"Роддом"},"geometry":{"type":"Point","coordinates":[36.036184,52.973264]}},{"type":"Feature","id":107,"properties":{"source":"bus_stop","name":"Роддом"},"geometry":{"type":"Point","coordinates":[36.035325,52.972074]}},{"type":"Feature","id":108,"properties":{"source":"bus_stop","name":"Посёлок Куликовский"},"geometry":{"type":"Point","coordinates":[36.132466,52.942235]}},{"type":"Feature","id":109,"properties":{"source":"bus_stop","name":"Общежитие"},"geometry":{"type":"Point","coordinates":[36.107144,52.954332]}},{"type":"Feature","id":110,"properties":{"source":"bus_stop","name":"Сквер Памяти"},"geometry":{"type":"Point","coordinates":[36.053001,52.978926]}},{"type":"Feature","id":111,"properties":{"source":"bus_stop","name":"Крутая Гора"},"geometry":{"type":"Point","coordinates":[36.220739,52.944057]}},{"type":"Feature","id":112,"properties":{"source":"bus_stop","name":"Завод «Протон»"},"geometry":{"type":"Point","coordinates":[36.05934,52.980322]}},{"type":"Feature","id":113,"properties":{"source":"bus_stop","name":"Завод «Протон»"},"geometry":{"type":"Point","coordinates":[36.059676,52.980907]}},{"type":"Feature","id":114,"properties":{"source":"bus_stop","name":""},"geometry":{"type":"Point","coordinates":[36.017331,52.982239]}},{"type":"Feature","id":115,"properties":{"source":"bus_stop","name":"Горгаз"},"geometry":{"type":"Point","coordinates":[36.044293,52.985847]}},{"type":"Feature","id":116,"properties":{"source":"bus_stop","name":"Торговый центр Европа"},"geometry":{"type":"Point","coordinates":[36.025101,52.949759]}},{"type":"Feature","id":117,"properties":{"source":"bus_stop","name":"Улица Алроса"},"geometry":{"type":"Point","coordinates":[36.025039,52.951844]}},{"type":"Feature","id":118,"properties":{"source":"bus_stop","name":"Автоколонна №1141"},"geometry":{"type":"Point","coordinates":[36.028403,52.946671]}},{"type":"Feature","id":119,"properties":{"source":"bus_stop","name":"Карачевское шоссе"},"geometry":{"type":"Point","coordinates":[36.024646,52.946859]}},{"type":"Feature","id":120,"properties":{"source":"bus_stop","name":"Наугорское шоссе"},"geometry":{"type":"Point","coordinates":[36.055683,52.977788]}},{"type":"Feature","id":121,"properties":{"source":"bus_stop","name":"Институт культуры"},"geometry":{"type":"Point","coordinates":[36.052877,52.976262]}},{"type":"Feature","id":122,"properties":{"source":"bus_stop","name":"рынок \"Орловская Нива\""},"geometry":{"type":"Point","coordinates":[36.060431,52.983074]}},{"type":"Feature","id":123,"properties":{"source":"bus_stop","name":"Завод приборов"},"geometry":{"type":"Point","coordinates":[36.068799,52.979866]}},{"type":"Feature","id":124,"properties":{"source":"bus_stop","name":"Улица Игнатова"},"geometry":{"type":"Point","coordinates":[36.059802,52.990093]}},{"type":"Feature","id":125,"properties":{"source":"bus_stop","name":"Бульвар Молодёжи"},"geometry":{"type":"Point","coordinates":[36.019241,52.949576]}},{"type":"Feature","id":126,"properties":{"source":"bus_stop","name":"Завод им. Медведева"},"geometry":{"type":"Point","coordinates":[36.093062,52.974244]}},{"type":"Feature","id":127,"properties":{"source":"bus_stop","name":"Кинотеатр Родина"},"geometry":{"type":"Point","coordinates":[36.086444,52.971632]}},{"type":"Feature","id":128,"properties":{"source":"bus_stop","name":"Гостиница Орёл"},"geometry":{"type":"Point","coordinates":[36.08071,52.969549]}},{"type":"Feature","id":129,"properties":{"source":"bus_stop","name":"Сквер имени Героя Ермолаева"},"geometry":{"type":"Point","coordinates":[36.085194,52.971898]}},{"type":"Feature","id":130,"properties":{"source":"bus_stop","name":"Завод им. Медведева"},"geometry":{"type":"Point","coordinates":[36.090904,52.973729]}},{"type":"Feature","id":131,"properties":{"source":"bus_stop","name":"Школа №26"},"geometry":{"type":"Point","coordinates":[36.071663,52.959324]}},{"type":"Feature","id":132,"properties":{"source":"bus_stop","name":"Поворот на Образцово"},"geometry":{"type":"Point","coordinates":[35.97892,52.94898]}},{"type":"Feature","id":133,"properties":{"source":"bus_stop","name":"Поворот на Образцово"},"geometry":{"type":"Point","coordinates":[35.978441,52.949205]}},{"type":"Feature","id":134,"properties":{"source":"bus_stop","name":"Знак Орёл"},"geometry":{"type":"Point","coordinates":[36.189262,53.035078]}},{"type":"Feature","id":135,"properties":{"source":"bus_stop","name":"Знак Орёл"},"geometry":{"type":"Point","coordinates":[36.189982,53.03511]}},{"type":"Feature","id":136,"properties":{"source":"bus_stop","name":"Медведевский лес"},"geometry":{"type":"Point","coordinates":[36.171471,53.022768]}},{"type":"Feature","id":137,"properties":{"source":"bus_stop","name":"Медведевский лес"},"geometry":{"type":"Point","coordinates":[36.170328,53.022413]}},{"type":"Feature","id":138,"properties":{"source":"bus_stop","name":"ТРЦ Рио"},"geometry":{"type":"Point","coordinates":[36.160916,53.015636]}},{"type":"Feature","id":139,"properties":{"source":"bus_stop","name":"ТРЦ Рио"},"geometry":{"type":"Point","coordinates":[36.159647,53.015147]}},{"type":"Feature","id":140,"properties":{"source":"bus_stop","name":"Микрорайон Болховский"},"geometry":{"type":"Point","coordinates":[36.067878,52.997501]}},{"type":"Feature","id":141,"properties":{"source":"bus_stop","name":"Микрорайон Болховский"},"geometry":{"type":"Point","coordinates":[36.069277,52.997668]}},{"type":"Feature","id":142,"properties":{"source":"bus_stop","name":"Ремонтный переулок"},"geometry":{"type":"Point","coordinates":[36.122462,52.972939]}},{"type":"Feature","id":143,"properties":{"source":"bus_stop","name":""},"geometry":{"type":"Point","coordinates":[36.072122,53.005528]}},{"type":"Feature","id":144,"properties":{"source":"bus_stop","name":"Крутая Гора"},"geometry":{"type":"Point","coordinates":[36.215337,52.944726]}},{"type":"Feature","id":145,"properties":{"source":"bus_stop","name":"Спецавтобаза"},"geometry":{"type":"Point","coordinates":[36.140852,52.960726]}},{"type":"Feature","id":146,"properties":{"source":"bus_stop","name":"Ремстанок"},"geometry":{"type":"Point","coordinates":[36.134842,52.964181]}},{"type":"Feature","id":147,"properties":{"source":"bus_stop","name":"Ремстанок"},"geometry":{"type":"Point","coordinates":[36.135073,52.964231]}},{"type":"Feature","id":148,"properties":{"source":"bus_stop","name":"Автомагазин"},"geometry":{"type":"Point","coordinates":[36.13003,52.967015]}},{"type":"Feature","id":149,"properties":{"source":"bus_stop","name":"Автомагазин"},"geometry":{"type":"Point","coordinates":[36.129686,52.967023]}},{"type":"Feature","id":150,"properties":{"source":"bus_stop","name":"Локомотивное депо"},"geometry":{"type":"Point","coordinates":[36.11802,52.978756]}},{"type":"Feature","id":151,"properties":{"source":"bus_stop","name":"Электровозная улица"},"geometry":{"type":"Point","coordinates":[36.11973,52.987907]}},{"type":"Feature","id":152,"properties":{"source":"bus_stop","name":"Гипермаркет Линия"},"geometry":{"type":"Point","coordinates":[36.118418,52.990198]}},{"type":"Feature","id":153,"properties":{"source":"bus_stop","name":"Гипермаркет Линия"},"geometry":{"type":"Point","coordinates":[36.118514,52.98969]}},{"type":"Feature","id":154,"properties":{"source":"bus_stop","name":"Молочный комбинат"},"geometry":{"type":"Point","coordinates":[36.115592,52.992287]}},{"type":"Feature","id":155,"properties":{"source":"bus_stop","name":"Молочный комбинат"},"geometry":{"type":"Point","coordinates":[36.115061,52.993192]}},{"type":"Feature","id":156,"properties":{"source":"bus_stop","name":"Кондитерская фабрика"},"geometry":{"type":"Point","coordinates":[36.109342,52.996969]}},{"type":"Feature","id":157,"properties":{"source":"bus_stop","name":"Кондитерская фабрика"},"geometry":{"type":"Point","coordinates":[36.109562,52.996548]}},{"type":"Feature","id":158,"properties":{"source":"bus_stop","name":"Раздольная улица"},"geometry":{"type":"Point","coordinates":[36.105346,52.999367]}},{"type":"Feature","id":159,"properties":{"source":"bus_stop","name":"Ж/д вокзал"},"geometry":{"type":"Point","coordinates":[36.108633,52.979682]}},{"type":"Feature","id":160,"properties":{"source":"bus_stop","name":"Завод Текмаш"},"geometry":{"type":"Point","coordinates":[36.10519,52.979417]}},{"type":"Feature","id":161,"properties":{"source":"bus_stop","name":"Завод Текмаш"},"geometry":{"type":"Point","coordinates":[36.102122,52.978024]}},{"type":"Feature","id":162,"properties":{"source":"bus_stop","name":"Экран"},"geometry":{"type":"Point","coordinates":[36.096847,52.975844]}},{"type":"Feature","id":163,"properties":{"source":"bus_stop","name":"Экран"},"geometry":{"type":"Point","coordinates":[36.098459,52.976213]}},{"type":"Feature","id":164,"properties":{"source":"bus_stop","name":"пос. Булгаковский"},"geometry":{"type":"Point","coordinates":[36.173147,53.022817]}},{"type":"Feature","id":165,"properties":{"source":"bus_stop","name":"Северный рынок"},"geometry":{"type":"Point","coordinates":[36.153469,53.0134]}},{"type":"Feature","id":166,"properties":{"source":"bus_stop","name":"Северный рынок"},"geometry":{"type":"Point","coordinates":[36.152718,53.01358]}},{"type":"Feature","id":167,"properties":{"source":"bus_stop","name":"Троллейбусное депо"},"geometry":{"type":"Point","coordinates":[36.150668,53.008387]}},{"type":"Feature","id":168,"properties":{"source":"bus_stop","name":"Магазин Юность"},"geometry":{"type":"Point","coordinates":[36.145937,53.005421]}},{"type":"Feature","id":169,"properties":{"source":"bus_stop","name":"Магазин Юность"},"geometry":{"type":"Point","coordinates":[36.145096,53.005148]}},{"type":"Feature","id":170,"properties":{"source":"bus_stop","name":"Завод Металлист"},"geometry":{"type":"Point","coordinates":[36.130234,52.994731]}},{"type":"Feature","id":171,"properties":{"source":"bus_stop","name":"Завод Металлист"},"geometry":{"type":"Point","coordinates":[36.129437,52.994486]}},{"type":"Feature","id":172,"properties":{"source":"bus_stop","name":"ДК Металлург"},"geometry":{"type":"Point","coordinates":[36.140667,53.013084]}},{"type":"Feature","id":173,"properties":{"source":"bus_stop","name":"ДК Металлург"},"geometry":{"type":"Point","coordinates":[36.140677,53.013369]}},{"type":"Feature","id":174,"properties":{"source":"bus_stop","name":"ДК Металлург"},"geometry":{"type":"Point","coordinates":[36.142968,53.013071]}},{"type":"Feature","id":175,"properties":{"source":"bus_stop","name":"ДК Металлург"},"geometry":{"type":"Point","coordinates":[36.142551,53.013086]}},{"type":"Feature","id":176,"properties":{"source":"bus_stop","name":"ТЦ Европа"},"geometry":{"type":"Point","coordinates":[36.134905,53.016601]}},{"type":"Feature","id":177,"properties":{"source":"bus_stop","name":"По требованию (ул. Раздольная)"},"geometry":{"type":"Point","coordinates":[36.145309,53.027763]}},{"type":"Feature","id":178,"properties":{"source":"bus_stop","name":"По требованию (ул. Раздольная)"},"geometry":{"type":"Point","coordinates":[36.145069,53.027842]}},{"type":"Feature","id":179,"properties":{"source":"bus_stop","name":"Промбаза"},"geometry":{"type":"Point","coordinates":[36.150238,53.033816]}},{"type":"Feature","id":180,"properties":{"source":"bus_stop","name":"Промбаза"},"geometry":{"type":"Point","coordinates":[36.150355,53.033609]}},{"type":"Feature","id":181,"properties":{"source":"bus_stop","name":"Транспортный цех"},"geometry":{"type":"Point","coordinates":[36.154019,53.037567]}},{"type":"Feature","id":182,"properties":{"source":"bus_stop","name":"Транспортный цех"},"geometry":{"type":"Point","coordinates":[36.155672,53.03817]}},{"type":"Feature","id":183,"properties":{"source":"bus_stop","name":"Магазин"},"geometry":{"type":"Point","coordinates":[35.979554,52.896639]}},{"type":"Feature","id":184,"properties":{"source":"bus_stop","name":"Магазин"},"geometry":{"type":"Point","coordinates":[35.980259,52.896615]}},{"type":"Feature","id":185,"properties":{"source":"bus_stop","name":"Магазин"},"geometry":{"type":"Point","coordinates":[35.981003,52.897269]}},{"type":"Feature","id":186,"properties":{"source":"bus_stop","name":"Школа-интернат"},"geometry":{"type":"Point","coordinates":[35.982863,52.901205]}},{"type":"Feature","id":187,"properties":{"source":"bus_stop","name":"Школа-интернат"},"geometry":{"type":"Point","coordinates":[35.982568,52.901446]}},{"type":"Feature","id":188,"properties":{"source":"bus_stop","name":"Река Цон"},"geometry":{"type":"Point","coordinates":[35.987455,52.906488]}},{"type":"Feature","id":189,"properties":{"source":"bus_stop","name":"Река Цон"},"geometry":{"type":"Point","coordinates":[35.988123,52.906557]}},{"type":"Feature","id":190,"properties":{"source":"bus_stop","name":"Знаменский лесопарк"},"geometry":{"type":"Point","coordinates":[36.004239,52.915627]}},{"type":"Feature","id":191,"properties":{"source":"bus_stop","name":"Знаменский лесопарк"},"geometry":{"type":"Point","coordinates":[36.003476,52.915508]}},{"type":"Feature","id":192,"properties":{"source":"bus_stop","name":"Завод Живмаш"},"geometry":{"type":"Point","coordinates":[36.007804,52.917927]}},{"type":"Feature","id":193,"properties":{"source":"bus_stop","name":"ТМК Гринн"},"geometry":{"type":"Point","coordinates":[36.011583,52.919829]}},{"type":"Feature","id":194,"properties":{"source":"bus_stop","name":"ТМК Гринн"},"geometry":{"type":"Point","coordinates":[36.012269,52.920454]}},{"type":"Feature","id":195,"properties":{"source":"bus_stop","name":"Завод Дормаш"},"geometry":{"type":"Point","coordinates":[36.01934,52.923784]}},{"type":"Feature","id":196,"properties":{"source":"bus_stop","name":"Ипподром"},"geometry":{"type":"Point","coordinates":[36.015088,52.910846]}},{"type":"Feature","id":197,"properties":{"source":"bus_stop","name":"Ипподром"},"geometry":{"type":"Point","coordinates":[36.01484,52.910779]}},{"type":"Feature","id":198,"properties":{"source":"bus_stop","name":"Сторожка"},"geometry":{"type":"Point","coordinates":[36.019579,52.905262]}},{"type":"Feature","id":199,"properties":{"source":"bus_stop","name":"Сторожка"},"geometry":{"type":"Point","coordinates":[36.019807,52.90539]}},{"type":"Feature","id":200,"properties":{"source":"bus_stop","name":"ТЦ Тургеневский"},"geometry":{"type":"Point","coordinates":[36.052829,52.971294]}},{"type":"Feature","id":201,"properties":{"source":"bus_stop","name":"улица Лескова"},"geometry":{"type":"Point","coordinates":[36.051782,52.974361]}},{"type":"Feature","id":202,"properties":{"source":"bus_stop","name":"Стадион имени Ленина"},"geometry":{"type":"Point","coordinates":[36.048765,52.972313]}},{"type":"Feature","id":203,"properties":{"source":"bus_stop","name":"Профлицей"},"geometry":{"type":"Point","coordinates":[36.143374,53.024196]}},{"type":"Feature","id":204,"properties":{"source":"bus_stop","name":"Психобольница"},"geometry":{"type":"Point","coordinates":[35.977008,52.981964]}},{"type":"Feature","id":205,"properties":{"source":"bus_stop","name":"1-я Посадская улица"},"geometry":{"type":"Point","coordinates":[36.067302,52.959975]}},{"type":"Feature","id":206,"properties":{"source":"bus_stop","name":"База Лесоторговая"},"geometry":{"type":"Point","coordinates":[36.07193,52.942214]}},{"type":"Feature","id":207,"properties":{"source":"bus_stop","name":"Скульптурная улица"},"geometry":{"type":"Point","coordinates":[36.075506,52.945768]}},{"type":"Feature","id":208,"properties":{"source":"bus_stop","name":"Скульптурная улица"},"geometry":{"type":"Point","coordinates":[36.075884,52.94594]}},{"type":"Feature","id":209,"properties":{"source":"bus_stop","name":"Городская улица"},"geometry":{"type":"Point","coordinates":[36.076416,52.948188]}},{"type":"Feature","id":210,"properties":{"source":"bus_stop","name":"Городская улица"},"geometry":{"type":"Point","coordinates":[36.076878,52.948929]}},{"type":"Feature","id":211,"properties":{"source":"bus_stop","name":"Песковская улица"},"geometry":{"type":"Point","coordinates":[36.075411,52.951699]}},{"type":"Feature","id":212,"properties":{"source":"bus_stop","name":"Песковская улица"},"geometry":{"type":"Point","coordinates":[36.074957,52.951757]}},{"type":"Feature","id":213,"properties":{"source":"bus_stop","name":"Сады"},"geometry":{"type":"Point","coordinates":[36.156366,52.944409]}},{"type":"Feature","id":214,"properties":{"source":"bus_stop","name":"Сады"},"geometry":{"type":"Point","coordinates":[36.156971,52.944395]}},{"type":"Feature","id":215,"properties":{"source":"bus_stop","name":"Надземный переход"},"geometry":{"type":"Point","coordinates":[36.107322,53.001856]}},{"type":"Feature","id":216,"properties":{"source":"bus_stop","name":"Улица Кузнецова"},"geometry":{"type":"Point","coordinates":[36.111361,53.003684]}},{"type":"Feature","id":217,"properties":{"source":"bus_stop","name":"Мясокомбинат"},"geometry":{"type":"Point","coordinates":[36.091275,53.001317]}},{"type":"Feature","id":218,"properties":{"source":"bus_stop","name":"Микрорайон Болховский"},"geometry":{"type":"Point","coordinates":[36.075461,52.998406]}},{"type":"Feature","id":219,"properties":{"source":"bus_stop","name":"Микрорайон Болховский"},"geometry":{"type":"Point","coordinates":[36.075084,52.998465]}},{"type":"Feature","id":220,"properties":{"source":"bus_stop","name":"Мясокомбинат"},"geometry":{"type":"Point","coordinates":[36.089643,53.001345]}},{"type":"Feature","id":221,"properties":{"source":"bus_stop","name":"Малая Булгакова"},"geometry":{"type":"Point","coordinates":[36.19437,53.018734]}},{"type":"Feature","id":222,"properties":{"source":"bus_stop","name":"Малая Булгакова"},"geometry":{"type":"Point","coordinates":[36.194943,53.019082]}},{"type":"Feature","id":223,"properties":{"source":"bus_stop","name":"Улица Гайдара"},"geometry":{"type":"Point","coordinates":[36.090445,52.992933]}},{"type":"Feature","id":224,"properties":{"source":"bus_stop","name":"Планерная"},"geometry":{"type":"Point","coordinates":[36.012463,52.92764]}},{"type":"Feature","id":225,"properties":{"source":"bus_stop","name":"Кромская"},"geometry":{"type":"Point","coordinates":[36.018366,52.927736]}},{"type":"Feature","id":226,"properties":{"source":"bus_stop","name":""},"geometry":{"type":"Point","coordinates":[36.071036,53.018074]}},{"type":"Feature","id":227,"properties":{"source":"bus_stop","name":"Улица Игнатова"},"geometry":{"type":"Point","coordinates":[36.059701,52.990231]}},{"type":"Feature","id":228,"properties":{"source":"bus_stop","name":"Улица Матвеева"},"geometry":{"type":"Point","coordinates":[36.063845,52.989833]}},{"type":"Feature","id":229,"properties":{"source":"bus_stop","name":"Улица Цветаева"},"geometry":{"type":"Point","coordinates":[36.054894,52.990369]}},{"type":"Feature","id":230,"properties":{"source":"bus_stop","name":""},"geometry":{"type":"Point","coordinates":[36.04876,52.913349]}},{"type":"Feature","id":231,"properties":{"source":"bus_stop","name":""},"geometry":{"type":"Point","coordinates":[36.048023,52.913281]}},{"type":"Feature","id":232,"properties":{"source":"bus_stop","name":""},"geometry":{"type":"Point","coordinates":[36.037511,52.908002]}},{"type":"Feature","id":233,"properties":{"source":"bus_stop","name":""},"geometry":{"type":"Point","coordinates":[36.036654,52.907999]}},{"type":"Feature","id":234,"properties":{"source":"bus_stop","name":"Южный рынок"},"geometry":{"type":"Point","coordinates":[36.028628,52.929424]}},{"type":"Feature","id":235,"properties":{"source":"bus_stop","name":"Васильевская улица"},"geometry":{"type":"Point","coordinates":[36.042347,52.951219]}},{"type":"Feature","id":236,"properties":{"source":"bus_stop","name":"Васильевская улица"},"geometry":{"type":"Point","coordinates":[36.041547,52.951069]}},{"type":"Feature","id":237,"properties":{"source":"bus_stop","name":"Ветеринарная лечебница"},"geometry":{"type":"Point","coordinates":[36.034049,52.947112]}},{"type":"Feature","id":238,"properties":{"source":"bus_stop","name":"Ветеринарная лечебница"},"geometry":{"type":"Point","coordinates":[36.034216,52.947447]}},{"type":"Feature","id":239,"properties":{"source":"bus_stop","name":"Учебный комбинат № 1"},"geometry":{"type":"Point","coordinates":[36.042584,52.956405]}},{"type":"Feature","id":240,"properties":{"source":"bus_stop","name":"Учебный комбинат № 1"},"geometry":{"type":"Point","coordinates":[36.042542,52.956296]}},{"type":"Feature","id":241,"properties":{"source":"bus_stop","name":"2-я Пушкарная улица"},"geometry":{"type":"Point","coordinates":[36.041064,52.957624]}},{"type":"Feature","id":242,"properties":{"source":"bus_stop","name":"2-я Пушкарная улица"},"geometry":{"type":"Point","coordinates":[36.040452,52.957871]}},{"type":"Feature","id":243,"properties":{"source":"bus_stop","name":"Царёв Брод"},"geometry":{"type":"Point","coordinates":[36.030929,52.958405]}},{"type":"Feature","id":244,"properties":{"source":"bus_stop","name":"Царёв Брод"},"geometry":{"type":"Point","coordinates":[36.030977,52.95861]}},{"type":"Feature","id":245,"properties":{"source":"bus_stop","name":"Посёлок Орлик"},"geometry":{"type":"Point","coordinates":[36.02395,52.960436]}},{"type":"Feature","id":246,"properties":{"source":"bus_stop","name":"Посёлок Орлик"},"geometry":{"type":"Point","coordinates":[36.02384,52.960631]}},{"type":"Feature","id":247,"properties":{"source":"bus_stop","name":"Посёлок Зареченский"},"geometry":{"type":"Point","coordinates":[36.017817,52.966323]}},{"type":"Feature","id":248,"properties":{"source":"bus_stop","name":"Посёлок Зареченский"},"geometry":{"type":"Point","coordinates":[36.017651,52.966403]}},{"type":"Feature","id":249,"properties":{"source":"bus_stop","name":"Зареченская ПМК"},"geometry":{"type":"Point","coordinates":[36.014776,52.965886]}},{"type":"Feature","id":250,"properties":{"source":"bus_stop","name":"Ягодный переулок"},"geometry":{"type":"Point","coordinates":[36.073104,52.98584]}},{"type":"Feature","id":251,"properties":{"source":"bus_stop","name":"Аграрный университет"},"geometry":{"type":"Point","coordinates":[36.036051,52.976571]}},{"type":"Feature","id":252,"properties":{"source":"bus_stop","name":"Аграрный университет"},"geometry":{"type":"Point","coordinates":[36.036341,52.976617]}},{"type":"Feature","id":253,"properties":{"source":"bus_stop","name":"Стадион имени Ленина"},"geometry":{"type":"Point","coordinates":[36.047095,52.972851]}},{"type":"Feature","id":254,"properties":{"source":"bus_stop","name":"Мелькомбинат"},"geometry":{"type":"Point","coordinates":[36.102117,52.956553]}},{"type":"Feature","id":255,"properties":{"source":"bus_stop","name":"Ливенская АЗС"},"geometry":{"type":"Point","coordinates":[36.115216,52.948796]}},{"type":"Feature","id":256,"properties":{"source":"bus_stop","name":"Ливенская АЗС"},"geometry":{"type":"Point","coordinates":[36.114283,52.949785]}},{"type":"Feature","id":257,"properties":{"source":"bus_stop","name":"Стоматологическая поликлиника"},"geometry":{"type":"Point","coordinates":[36.081856,52.985878]}},{"type":"Feature","id":258,"properties":{"source":"bus_stop","name":"Юридический институт"},"geometry":{"type":"Point","coordinates":[36.075443,52.989924]}},{"type":"Feature","id":259,"properties":{"source":"bus_stop","name":"Юридический институт"},"geometry":{"type":"Point","coordinates":[36.075923,52.989226]}},{"type":"Feature","id":260,"properties":{"source":"bus_stop","name":"Сквер имени Героя Ермолаева"},"geometry":{"type":"Point","coordinates":[36.084042,52.972616]}},{"type":"Feature","id":261,"properties":{"source":"bus_stop","name":"Октябрьская улица"},"geometry":{"type":"Point","coordinates":[36.070632,52.982187]}},{"type":"Feature","id":262,"properties":{"source":"bus_stop","name":"Улица Матросова"},"geometry":{"type":"Point","coordinates":[36.044372,52.977659]}},{"type":"Feature","id":263,"properties":{"source":"bus_stop","name":"Стадион имени Ленина"},"geometry":{"type":"Point","coordinates":[36.049258,52.973211]}},{"type":"Feature","id":264,"properties":{"source":"bus_stop","name":"Завод приборов"},"geometry":{"type":"Point","coordinates":[36.070543,52.980881]}},{"type":"Feature","id":265,"properties":{"source":"bus_stop","name":"Колхозная улица"},"geometry":{"type":"Point","coordinates":[36.033344,52.960549]}},{"type":"Feature","id":266,"properties":{"source":"bus_stop","name":"Колхозная улица"},"geometry":{"type":"Point","coordinates":[36.033902,52.961091]}},{"type":"Feature","id":267,"properties":{"source":"bus_stop","name":"Мостовая улица"},"geometry":{"type":"Point","coordinates":[36.031249,52.956952]}},{"type":"Feature","id":268,"properties":{"source":"bus_stop","name":"Мостовая улица"},"geometry":{"type":"Point","coordinates":[36.030326,52.956272]}},{"type":"Feature","id":269,"properties":{"source":"bus_stop","name":"Торговый центр Европа"},"geometry":{"type":"Point","coordinates":[36.026578,52.950189]}},{"type":"Feature","id":270,"properties":{"source":"bus_stop","name":"Улица Алроса"},"geometry":{"type":"Point","coordinates":[36.024815,52.951912]}},{"type":"Feature","id":271,"properties":{"source":"bus_stop","name":"ТЦ Европа"},"geometry":{"type":"Point","coordinates":[36.136849,53.016455]}},{"type":"Feature","id":272,"properties":{"source":"bus_stop","name":"Автобаза"},"geometry":{"type":"Point","coordinates":[36.046712,52.983635]}},{"type":"Feature","id":273,"properties":{"source":"bus_stop","name":"Автобаза"},"geometry":{"type":"Point","coordinates":[36.046148,52.983804]}},{"type":"Feature","id":274,"properties":{"source":"bus_stop","name":"Спецкомбинат"},"geometry":{"type":"Point","coordinates":[36.038768,52.988554]}},{"type":"Feature","id":275,"properties":{"source":"bus_stop","name":"1-я Посадская улица"},"geometry":{"type":"Point","coordinates":[36.063319,52.960977]}},{"type":"Feature","id":276,"properties":{"source":"bus_stop","name":"Школа №30"},"geometry":{"type":"Point","coordinates":[36.122674,52.982259]}},{"type":"Feature","id":277,"properties":{"source":"bus_stop","name":"Станционная улица"},"geometry":{"type":"Point","coordinates":[36.124694,52.980018]}},{"type":"Feature","id":278,"properties":{"source":"bus_stop","name":"Учебно-производственный комбинат"},"geometry":{"type":"Point","coordinates":[36.127859,52.976588]}},{"type":"Feature","id":279,"properties":{"source":"bus_stop","name":"Мебельная фабрика"},"geometry":{"type":"Point","coordinates":[36.131324,52.971791]}},{"type":"Feature","id":280,"properties":{"source":"bus_stop","name":"Южный переулок"},"geometry":{"type":"Point","coordinates":[36.126107,52.970539]}},{"type":"Feature","id":281,"properties":{"source":"bus_stop","name":"Южный переулок"},"geometry":{"type":"Point","coordinates":[36.124109,52.971104]}},{"type":"Feature","id":282,"properties":{"source":"bus_stop","name":"Улица Емлютина"},"geometry":{"type":"Point","coordinates":[36.013627,52.957011]}},{"type":"Feature","id":283,"properties":{"source":"bus_stop","name":"Улица Емлютина"},"geometry":{"type":"Point","coordinates":[36.013914,52.957012]}},{"type":"Feature","id":284,"properties":{"source":"bus_stop","name":"Улица Зеленина"},"geometry":{"type":"Point","coordinates":[36.015689,52.953369]}},{"type":"Feature","id":285,"properties":{"source":"bus_stop","name":"Ледовая арена"},"geometry":{"type":"Point","coordinates":[36.018905,52.953112]}},{"type":"Feature","id":286,"properties":{"source":"bus_stop","name":"Ледовая арена"},"geometry":{"type":"Point","coordinates":[36.018513,52.953421]}},{"type":"Feature","id":287,"properties":{"source":"bus_stop","name":"Бульвар Молодёжи"},"geometry":{"type":"Point","coordinates":[36.019673,52.949738]}},{"type":"Feature","id":288,"properties":{"source":"bus_stop","name":"ТЦ Европа"},"geometry":{"type":"Point","coordinates":[36.023686,52.948099]}},{"type":"Feature","id":289,"properties":{"source":"bus_stop","name":"Карачевское шоссе"},"geometry":{"type":"Point","coordinates":[36.024588,52.947058]}},{"type":"Feature","id":290,"properties":{"source":"bus_stop","name":"Ветеринарная лечебница"},"geometry":{"type":"Point","coordinates":[36.033825,52.94643]}},{"type":"Feature","id":291,"properties":{"source":"bus_stop","name":"Автошкола ДОСААФ"},"geometry":{"type":"Point","coordinates":[36.041134,52.945657]}},{"type":"Feature","id":292,"properties":{"source":"bus_stop","name":"Железнодорожная больница"},"geometry":{"type":"Point","coordinates":[36.087298,52.960978]}},{"type":"Feature","id":293,"properties":{"source":"bus_stop","name":"Железнодорожная больница"},"geometry":{"type":"Point","coordinates":[36.087008,52.962063]}},{"type":"Feature","id":294,"properties":{"source":"bus_stop","name":"Обувная фабрика"},"geometry":{"type":"Point","coordinates":[36.092053,52.962095]}},{"type":"Feature","id":295,"properties":{"source":"bus_stop","name":"Обувная фабрика"},"geometry":{"type":"Point","coordinates":[36.093803,52.96053]}},{"type":"Feature","id":296,"properties":{"source":"bus_stop","name":"Новосильский переулок"},"geometry":{"type":"Point","coordinates":[36.083107,52.969048]}},{"type":"Feature","id":297,"properties":{"source":"bus_stop","name":"Новосильский переулок"},"geometry":{"type":"Point","coordinates":[36.082851,52.969483]}},{"type":"Feature","id":298,"properties":{"source":"bus_stop","name":"Микрорайон"},"geometry":{"type":"Point","coordinates":[36.140222,53.012737]}},{"type":"Feature","id":299,"properties":{"source":"bus_stop","name":"Магазин Звёздный"},"geometry":{"type":"Point","coordinates":[36.135219,53.008982]}},{"type":"Feature","id":300,"properties":{"source":"bus_stop","name":"Магазин Звёздный"},"geometry":{"type":"Point","coordinates":[36.13495,53.008977]}},{"type":"Feature","id":301,"properties":{"source":"bus_stop","name":"Улица Бурова"},"geometry":{"type":"Point","coordinates":[36.139702,53.00451]}},{"type":"Feature","id":302,"properties":{"source":"bus_stop","name":"Улица Бурова"},"geometry":{"type":"Point","coordinates":[36.139895,53.004213]}},{"type":"Feature","id":303,"properties":{"source":"bus_stop","name":"Гостиница Орёл"},"geometry":{"type":"Point","coordinates":[36.081158,52.969514]}},{"type":"Feature","id":304,"properties":{"source":"bus_stop","name":"ЦУМ"},"geometry":{"type":"Point","coordinates":[36.076169,52.967742]}},{"type":"Feature","id":305,"properties":{"source":"bus_stop","name":"Школа № 27"},"geometry":{"type":"Point","coordinates":[36.078603,52.964322]}},{"type":"Feature","id":306,"properties":{"source":"bus_stop","name":"Улица Маринченко"},"geometry":{"type":"Point","coordinates":[36.129596,53.013031]}},{"type":"Feature","id":307,"properties":{"source":"bus_stop","name":"Улица Маринченко"},"geometry":{"type":"Point","coordinates":[36.131747,53.014029]}},{"type":"Feature","id":308,"properties":{"source":"bus_stop","name":"Улица Кузнецова"},"geometry":{"type":"Point","coordinates":[36.113604,53.004286]}},{"type":"Feature","id":309,"properties":{"source":"bus_stop","name":"Улица Кузнецова"},"geometry":{"type":"Point","coordinates":[36.110881,53.005053]}},{"type":"Feature","id":310,"properties":{"source":"bus_stop","name":"Улица Кузнецова"},"geometry":{"type":"Point","coordinates":[36.111437,53.005235]}},{"type":"Feature","id":311,"properties":{"source":"bus_stop","name":"Надземный переход"},"geometry":{"type":"Point","coordinates":[36.105969,53.001746]}},{"type":"Feature","id":312,"properties":{"source":"bus_stop","name":"Раздольная улица"},"geometry":{"type":"Point","coordinates":[36.107106,52.998438]}},{"type":"Feature","id":313,"properties":{"source":"bus_stop","name":"Костомаровка"},"geometry":{"type":"Point","coordinates":[36.07697,52.99601]}},{"type":"Feature","id":314,"properties":{"source":"bus_stop","name":"Костомаровка"},"geometry":{"type":"Point","coordinates":[36.077125,52.995363]}},{"type":"Feature","id":315,"properties":{"source":"bus_stop","name":"Микрорайон Болховский"},"geometry":{"type":"Point","coordinates":[36.075671,52.999083]}},{"type":"Feature","id":316,"properties":{"source":"bus_stop","name":"Микрорайон Болховский"},"geometry":{"type":"Point","coordinates":[36.074007,52.999947]}},{"type":"Feature","id":317,"properties":{"source":"bus_stop","name":"Микрорайон Болховский"},"geometry":{"type":"Point","coordinates":[36.074052,53.000214]}},{"type":"Feature","id":318,"properties":{"source":"bus_stop","name":"Мясокомбинат"},"geometry":{"type":"Point","coordinates":[36.090292,53.00074]}},{"type":"Feature","id":319,"properties":{"source":"bus_stop","name":"Мясокомбинат"},"geometry":{"type":"Point","coordinates":[36.09144,53.001814]}},{"type":"Feature","id":320,"properties":{"source":"bus_stop","name":"Школа № 49"},"geometry":{"type":"Point","coordinates":[36.104125,53.006284]}},{"type":"Feature","id":321,"properties":{"source":"bus_stop","name":"Школа № 49"},"geometry":{"type":"Point","coordinates":[36.104907,53.007035]}},{"type":"Feature","id":322,"properties":{"source":"bus_stop","name":"Силикатный завод"},"geometry":{"type":"Point","coordinates":[36.105133,53.008248]}},{"type":"Feature","id":323,"properties":{"source":"bus_stop","name":"Силикатный завод"},"geometry":{"type":"Point","coordinates":[36.105093,53.009206]}},{"type":"Feature","id":324,"properties":{"source":"bus_stop","name":"Улица Бурова"},"geometry":{"type":"Point","coordinates":[36.124769,53.00992]}},{"type":"Feature","id":325,"properties":{"source":"bus_stop","name":"Улица Бурова"},"geometry":{"type":"Point","coordinates":[36.126816,53.00974]}},{"type":"Feature","id":326,"properties":{"source":"bus_stop","name":"Улица Бурова"},"geometry":{"type":"Point","coordinates":[36.126795,53.010809]}},{"type":"Feature","id":327,"properties":{"source":"bus_stop","name":"909-й квартал"},"geometry":{"type":"Point","coordinates":[36.013446,52.925782]}},{"type":"Feature","id":328,"properties":{"source":"bus_stop","name":"Улица Матвеева"},"geometry":{"type":"Point","coordinates":[36.064127,52.989972]}},{"type":"Feature","id":329,"properties":{"source":"bus_stop","name":"Школа № 3"},"geometry":{"type":"Point","coordinates":[36.090072,52.995166]}},{"type":"Feature","id":330,"properties":{"source":"bus_stop","name":"Школа № 3"},"geometry":{"type":"Point","coordinates":[36.090332,52.995494]}},{"type":"Feature","id":331,"properties":{"source":"bus_stop","name":"Хлебная база"},"geometry":{"type":"Point","coordinates":[36.090157,52.997805]}},{"type":"Feature","id":332,"properties":{"source":"bus_stop","name":"Хлебная база"},"geometry":{"type":"Point","coordinates":[36.09061,52.997863]}},{"type":"Feature","id":333,"properties":{"source":"bus_stop","name":"Универсам Москва"},"geometry":{"type":"Point","coordinates":[36.066876,52.95688]}},{"type":"Feature","id":334,"properties":{"source":"bus_stop","name":"Школа №50"},"geometry":{"type":"Point","coordinates":[36.044972,52.992651]}},{"type":"Feature","id":335,"properties":{"source":"bus_stop","name":"Обувная фабрика"},"geometry":{"type":"Point","coordinates":[36.092519,52.962938]}},{"type":"Feature","id":336,"properties":{"source":"bus_stop","name":"Обувная фабрика"},"geometry":{"type":"Point","coordinates":[36.092049,52.963061]}},{"type":"Feature","id":337,"properties":{"source":"bus_stop","name":"Женский монастырь"},"geometry":{"type":"Point","coordinates":[36.096182,52.957845]}},{"type":"Feature","id":338,"properties":{"source":"bus_stop","name":"Молдавская улица"},"geometry":{"type":"Point","coordinates":[36.102603,52.94964]}},{"type":"Feature","id":339,"properties":{"source":"bus_stop","name":"Школа №35"},"geometry":{"type":"Point","coordinates":[36.101604,52.947529]}},{"type":"Feature","id":340,"properties":{"source":"bus_stop","name":"Ростовская улица"},"geometry":{"type":"Point","coordinates":[36.105857,52.9455]}},{"type":"Feature","id":341,"properties":{"source":"bus_stop","name":"Винзавод"},"geometry":{"type":"Point","coordinates":[36.11047,52.952142]}},{"type":"Feature","id":342,"properties":{"source":"bus_stop","name":"Спорткомплекс Сталь"},"geometry":{"type":"Point","coordinates":[36.149253,53.016069]}},{"type":"Feature","id":343,"properties":{"source":"bus_stop","name":"Спорткомплекс Сталь"},"geometry":{"type":"Point","coordinates":[36.147716,53.017018]}},{"type":"Feature","id":344,"properties":{"source":"bus_stop","name":"Общежитие"},"geometry":{"type":"Point","coordinates":[36.034686,52.967781]}},{"type":"Feature","id":345,"properties":{"source":"bus_stop","name":"Завод Живмаш"},"geometry":{"type":"Point","coordinates":[36.006489,52.916859]}},{"type":"Feature","id":346,"properties":{"source":"bus_stop","name":"Высоковольтная улица"},"geometry":{"type":"Point","coordinates":[36.005665,52.915903]}},{"type":"Feature","id":347,"properties":{"source":"bus_stop","name":"Высоковольтная улица"},"geometry":{"type":"Point","coordinates":[36.006051,52.915813]}},{"type":"Feature","id":348,"properties":{"source":"bus_stop","name":"Дом обороны"},"geometry":{"type":"Point","coordinates":[36.038078,52.971146]}},{"type":"Feature","id":349,"properties":{"source":"bus_stop","name":"Поворот на станцию Стальной Конь"},"geometry":{"type":"Point","coordinates":[36.133376,53.039461]}},{"type":"Feature","id":350,"properties":{"source":"bus_stop","name":"Поворот на станцию Стальной Конь"},"geometry":{"type":"Point","coordinates":[36.133701,53.03943]}},{"type":"Feature","id":351,"properties":{"source":"bus_stop","name":"Карачевские дачи"},"geometry":{"type":"Point","coordinates":[36.010674,52.947528]}},{"type":"Feature","id":352,"properties":{"source":"bus_stop","name":"Лес"},"geometry":{"type":"Point","coordinates":[36.072262,52.923057]}},{"type":"Feature","id":353,"properties":{"source":"bus_stop","name":"Лес"},"geometry":{"type":"Point","coordinates":[36.072477,52.922786]}},{"type":"Feature","id":354,"properties":{"source":"bus_stop","name":"СНТ Буревестник"},"geometry":{"type":"Point","coordinates":[36.195738,53.025772]}},{"type":"Feature","id":355,"properties":{"source":"bus_stop","name":"СНТ Буревестник"},"geometry":{"type":"Point","coordinates":[36.195533,53.025655]}},{"type":"Feature","id":356,"properties":{"source":"bus_stop","name":"Завод Монолит"},"geometry":{"type":"Point","coordinates":[36.076878,52.928354]}},{"type":"Feature","id":357,"properties":{"source":"bus_stop","name":"Завод Монолит"},"geometry":{"type":"Point","coordinates":[36.076926,52.928517]}},{"type":"Feature","id":358,"properties":{"source":"bus_stop","name":"Автовокзал \"Орёл\""},"geometry":{"type":"Point","coordinates":[36.0494,52.939477]}},{"type":"Feature","id":359,"properties":{"source":"bus_stop","name":"Посёлок Куликовский"},"geometry":{"type":"Point","coordinates":[36.132357,52.942021]}},{"type":"Feature","id":360,"properties":{"source":"bus_stop","name":"Малая Гать"},"geometry":{"type":"Point","coordinates":[36.016976,52.896388]}},{"type":"Feature","id":361,"properties":{"source":"bus_stop","name":"Малая Гать"},"geometry":{"type":"Point","coordinates":[36.017183,52.897823]}},{"type":"Feature","id":362,"properties":{"source":"bus_stop","name":"Инсулиновый завод"},"geometry":{"type":"Point","coordinates":[36.135839,52.937343]}},{"type":"Feature","id":363,"properties":{"source":"bus_stop","name":"Инсулиновый завод"},"geometry":{"type":"Point","coordinates":[36.136154,52.937371]}},{"type":"Feature","id":364,"properties":{"source":"bus_stop","name":"Телецентр"},"geometry":{"type":"Point","coordinates":[36.145215,52.925613]}},{"type":"Feature","id":365,"properties":{"source":"bus_stop","name":"Телецентр"},"geometry":{"type":"Point","coordinates":[36.146637,52.924884]}},{"type":"Feature","id":366,"properties":{"source":"bus_stop","name":"Телецентр"},"geometry":{"type":"Point","coordinates":[36.145896,52.924363]}},{"type":"Feature","id":367,"properties":{"source":"bus_stop","name":"Грачёвка"},"geometry":{"type":"Point","coordinates":[36.15182,52.916602]}},{"type":"Feature","id":368,"properties":{"source":"bus_stop","name":"Грачёвка"},"geometry":{"type":"Point","coordinates":[36.151808,52.916137]}},{"type":"Feature","id":369,"properties":{"source":"bus_stop","name":"Поворот на Малую Куликовку"},"geometry":{"type":"Point","coordinates":[36.154788,52.906136]}},{"type":"Feature","id":370,"properties":{"source":"bus_stop","name":"Магазин Пятёрочка"},"geometry":{"type":"Point","coordinates":[36.155057,52.908736]}},{"type":"Feature","id":371,"properties":{"source":"bus_stop","name":"Магазин Пятёрочка"},"geometry":{"type":"Point","coordinates":[36.155572,52.908175]}},{"type":"Feature","id":372,"properties":{"source":"bus_stop","name":"Новая улица"},"geometry":{"type":"Point","coordinates":[36.171397,52.898094]}},{"type":"Feature","id":373,"properties":{"source":"bus_stop","name":"Новая улица"},"geometry":{"type":"Point","coordinates":[36.171041,52.898423]}},{"type":"Feature","id":374,"properties":{"source":"bus_stop","name":"Малая Куликовка"},"geometry":{"type":"Point","coordinates":[36.173789,52.896835]}},{"type":"Feature","id":375,"properties":{"source":"bus_stop","name":"Малая Куликовка"},"geometry":{"type":"Point","coordinates":[36.173795,52.896997]}},{"type":"Feature","id":376,"properties":{"source":"bus_stop","name":"Кромское шоссе"},"geometry":{"type":"Point","coordinates":[35.994299,52.910334]}},{"type":"Feature","id":377,"properties":{"source":"bus_stop","name":"Кромское шоссе"},"geometry":{"type":"Point","coordinates":[35.995083,52.910467]}},{"type":"Feature","id":378,"properties":{"source":"bus_stop","name":"Победа"},"geometry":{"type":"Point","coordinates":[36.188859,52.949326]}},{"type":"Feature","id":379,"properties":{"source":"bus_stop","name":"Победа"},"geometry":{"type":"Point","coordinates":[36.189182,52.948935]}},{"type":"Feature","id":380,"properties":{"source":"bus_stop","name":"Автодром"},"geometry":{"type":"Point","coordinates":[36.119433,52.949958]}},{"type":"Feature","id":381,"properties":{"source":"bus_stop","name":"Мочёные дворы"},"geometry":{"type":"Point","coordinates":[35.9878,53.01189]}},{"type":"Feature","id":382,"properties":{"source":"bus_stop","name":"Мочёные дворы"},"geometry":{"type":"Point","coordinates":[35.987022,53.012134]}},{"type":"Feature","id":383,"properties":{"source":"bus_stop","name":"Поворот на ИЗБК"},"geometry":{"type":"Point","coordinates":[35.973779,53.018168]}},{"type":"Feature","id":384,"properties":{"source":"bus_stop","name":"Поворот на ИЗБК"},"geometry":{"type":"Point","coordinates":[35.973916,53.017758]}},{"type":"Feature","id":385,"properties":{"source":"bus_stop","name":"Поворот на ИЗБК"},"geometry":{"type":"Point","coordinates":[35.974463,53.017791]}},{"type":"Feature","id":386,"properties":{"source":"bus_stop","name":"Институт ЗБК"},"geometry":{"type":"Point","coordinates":[35.974019,53.014053]}},{"type":"Feature","id":387,"properties":{"source":"bus_stop","name":"Никуличи"},"geometry":{"type":"Point","coordinates":[36.002412,53.007904]}},{"type":"Feature","id":388,"properties":{"source":"bus_stop","name":"Никуличи"},"geometry":{"type":"Point","coordinates":[36.002718,53.007653]}},{"type":"Feature","id":389,"properties":{"source":"bus_stop","name":"Троллейбусное депо"},"geometry":{"type":"Point","coordinates":[36.15204,53.009547]}},{"type":"Feature","id":390,"properties":{"source":"bus_stop","name":"Дом ребёнка (По требованию)"},"geometry":{"type":"Point","coordinates":[36.030431,52.965888]}},{"type":"Feature","id":391,"properties":{"source":"bus_stop","name":"ул. Трудовые Резервов"},"geometry":{"type":"Point","coordinates":[36.026117,52.966537]}},{"type":"Feature","id":392,"properties":{"source":"bus_stop","name":"Часовая"},"geometry":{"type":"Point","coordinates":[36.02791,52.968285]}},{"type":"Feature","id":1,"properties":{"source":"tram_stop","name":"Завод Химмаш"},"geometry":{"type":"Point","coordinates":[35.988792,52.918277]}},{"type":"Feature","id":2,"properties":{"source":"tram_stop","name":"По требованию"},"geometry":{"type":"Point","coordinates":[35.993085,52.91829]}},{"type":"Feature","id":3,"properties":{"source":"tram_stop","name":"Железнодорожный вокзал"},"geometry":{"type":"Point","coordinates":[36.112273,52.977341]}},{"type":"Feature","id":4,"properties":{"source":"tram_stop","name":"Школа-интернат"},"geometry":{"type":"Point","coordinates":[36.106432,52.968024]}},{"type":"Feature","id":5,"properties":{"source":"tram_stop","name":"улица Пушкина"},"geometry":{"type":"Point","coordinates":[36.111968,52.967643]}},{"type":"Feature","id":6,"properties":{"source":"tram_stop","name":"Школа №35"},"geometry":{"type":"Point","coordinates":[36.102061,52.947684]}},{"type":"Feature","id":7,"properties":{"source":"tram_stop","name":"Автовокзал"},"geometry":{"type":"Point","coordinates":[36.04747,52.94023]}},{"type":"Feature","id":8,"properties":{"source":"tram_stop","name":"Сквер Героев-Десантников"},"geometry":{"type":"Point","coordinates":[36.024089,52.927175]}},{"type":"Feature","id":9,"properties":{"source":"tram_stop","name":"Южный рынок"},"geometry":{"type":"Point","coordinates":[36.028378,52.929569]}},{"type":"Feature","id":10,"properties":{"source":"tram_stop","name":"Ботаника"},"geometry":{"type":"Point","coordinates":[36.035962,52.933797]}},{"type":"Feature","id":11,"properties":{"source":"tram_stop","name":"магазин Уют"},"geometry":{"type":"Point","coordinates":[36.040337,52.936245]}},{"type":"Feature","id":12,"properties":{"source":"tram_stop","name":"улица Гоголя"},"geometry":{"type":"Point","coordinates":[36.042289,52.945444]}},{"type":"Feature","id":13,"properties":{"source":"tram_stop","name":"сквер Танкистов"},"geometry":{"type":"Point","coordinates":[36.076519,52.967268]}},{"type":"Feature","id":14,"properties":{"source":"tram_stop","name":"площадь Карла Маркса"},"geometry":{"type":"Point","coordinates":[36.066563,52.962857]}},{"type":"Feature","id":15,"properties":{"source":"tram_stop","name":"1-я Посадская улица"},"geometry":{"type":"Point","coordinates":[36.063142,52.960137]}},{"type":"Feature","id":16,"properties":{"source":"tram_stop","name":"улица Панчука"},"geometry":{"type":"Point","coordinates":[36.059863,52.957209]}},{"type":"Feature","id":17,"properties":{"source":"tram_stop","name":"Женский монастырь"},"geometry":{"type":"Point","coordinates":[36.096036,52.957546]}},{"type":"Feature","id":18,"properties":{"source":"tram_stop","name":"Пятницкий проезд"},"geometry":{"type":"Point","coordinates":[36.098545,52.954077]}},{"type":"Feature","id":19,"properties":{"source":"tram_stop","name":"Молдавская улица"},"geometry":{"type":"Point","coordinates":[36.10178,52.949643]}},{"type":"Feature","id":20,"properties":{"source":"tram_stop","name":"Речной переулок"},"geometry":{"type":"Point","coordinates":[36.090291,52.965789]}},{"type":"Feature","id":21,"properties":{"source":"tram_stop","name":"Завод имени Медведева"},"geometry":{"type":"Point","coordinates":[36.093043,52.97364]}},{"type":"Feature","id":22,"properties":{"source":"tram_stop","name":"улица Пугачева"},"geometry":{"type":"Point","coordinates":[36.094567,52.968612]}},{"type":"Feature","id":23,"properties":{"source":"tram_stop","name":"Железнодорожный техникум"},"geometry":{"type":"Point","coordinates":[36.100293,52.968341]}},{"type":"Feature","id":24,"properties":{"source":"tram_stop","name":"Железнодорожный вокзал"},"geometry":{"type":"Point","coordinates":[36.111708,52.97706]}},{"type":"Feature","id":25,"properties":{"source":"tram_stop","name":"улица Гоголя"},"geometry":{"type":"Point","coordinates":[36.042506,52.945489]}},{"type":"Feature","id":26,"properties":{"source":"tram_stop","name":"Трамвайно-троллейбусное предприятие"},"geometry":{"type":"Point","coordinates":[36.049129,52.950127]}},{"type":"Feature","id":27,"properties":{"source":"tram_stop","name":"3-я Курская улица"},"geometry":{"type":"Point","coordinates":[36.083317,52.968077]}},{"type":"Feature","id":28,"properties":{"source":"tram_stop","name":"Старо-Московская улица"},"geometry":{"type":"Point","coordinates":[36.088057,52.968689]}},{"type":"Feature","id":29,"properties":{"source":"tram_stop","name":"Молдавская улица"},"geometry":{"type":"Point","coordinates":[36.101815,52.949693]}},{"type":"Feature","id":30,"properties":{"source":"tram_stop","name":"Завод имени Медведева"},"geometry":{"type":"Point","coordinates":[36.092118,52.973458]}},{"type":"Feature","id":31,"properties":{"source":"tram_stop","name":"Железнодорожный техникум"},"geometry":{"type":"Point","coordinates":[36.099764,52.968326]}},{"type":"Feature","id":32,"properties":{"source":"tram_stop","name":"Старо-Московская улица"},"geometry":{"type":"Point","coordinates":[36.089344,52.969307]}},{"type":"Feature","id":33,"properties":{"source":"tram_stop","name":"Обувная фабрика"},"geometry":{"type":"Point","coordinates":[36.092167,52.963073]}},{"type":"Feature","id":34,"properties":{"source":"tram_stop","name":"Обувная фабрика"},"geometry":{"type":"Point","coordinates":[36.092349,52.962894]}},{"type":"Feature","id":35,"properties":{"source":"tram_stop","name":"Речной переулок"},"geometry":{"type":"Point","coordinates":[36.089936,52.966199]}},{"type":"Feature","id":36,"properties":{"source":"tram_stop","name":"Кольцо ТМК Гринн"},"geometry":{"type":"Point","coordinates":[36.005767,52.917431]}},{"type":"Feature","id":37,"properties":{"source":"tram_stop","name":"улица Машиностроительная"},"geometry":{"type":"Point","coordinates":[36.002457,52.918041]}},{"type":"Feature","id":38,"properties":{"source":"tram_stop","name":"улица Машиностроительная"},"geometry":{"type":"Point","coordinates":[36.002605,52.917994]}},{"type":"Feature","id":39,"properties":{"source":"tram_stop","name":"улица Ляшко"},"geometry":{"type":"Point","coordinates":[36.10692,52.973052]}},{"type":"Feature","id":40,"properties":{"source":"tram_stop","name":"Гаражный переулок"},"geometry":{"type":"Point","coordinates":[36.100414,52.972963]}},{"type":"Feature","id":41,"properties":{"source":"tram_stop","name":"Грузовой двор"},"geometry":{"type":"Point","coordinates":[36.11231,52.973788]}},{"type":"Feature","id":42,"properties":{"source":"tram_stop","name":"Грузовой двор"},"geometry":{"type":"Point","coordinates":[36.112293,52.973659]}},{"type":"Feature","id":43,"properties":{"source":"tram_stop","name":"Соляной Переулок"},"geometry":{"type":"Point","coordinates":[36.056719,52.954325]}},{"type":"Feature","id":44,"properties":{"source":"tram_stop","name":"Завод Химмаш"},"geometry":{"type":"Point","coordinates":[35.988299,52.918317]}},{"type":"Feature","id":45,"properties":{"source":"tram_stop","name":"По требованию"},"geometry":{"type":"Point","coordinates":[35.992978,52.91832]}},{"type":"Feature","id":46,"properties":{"source":"tram_stop","name":"Гаражный переулок"},"geometry":{"type":"Point","coordinates":[36.100362,52.972991]}},{"type":"Feature","id":47,"properties":{"source":"tram_stop","name":"улица Ляшко"},"geometry":{"type":"Point","coordinates":[36.107734,52.973085]}},{"type":"Feature","id":48,"properties":{"source":"tram_stop","name":"1-я Курская улица"},"geometry":{"type":"Point","coordinates":[36.089279,52.968311]}},{"type":"Feature","id":49,"properties":{"source":"tram_stop","name":"Женский монастырь"},"geometry":{"type":"Point","coordinates":[36.096002,52.957688]}},{"type":"Feature","id":50,"properties":{"source":"tram_stop","name":"Пятницкий проезд"},"geometry":{"type":"Point","coordinates":[36.098574,52.954159]}},{"type":"Feature","id":51,"properties":{"source":"tram_stop","name":"Соляной Переулок"},"geometry":{"type":"Point","coordinates":[36.056948,52.954587]}},{"type":"Feature","id":52,"properties":{"source":"tram_stop","name":"Кольцо ТМК Гринн"},"geometry":{"type":"Point","coordinates":[36.006563,52.917266]}},{"type":"Feature","id":53,"properties":{"source":"tram_stop","name":"Кольцо ТМК Гринн"},"geometry":{"type":"Point","coordinates":[36.006435,52.917265]}},{"type":"Feature","id":54,"properties":{"source":"tram_stop","name":"Завод Живмаш"},"geometry":{"type":"Point","coordinates":[36.007804,52.917956]}},{"type":"Feature","id":55,"properties":{"source":"tram_stop","name":"Завод Живмаш"},"geometry":{"type":"Point","coordinates":[36.007754,52.917988]}},{"type":"Feature","id":56,"properties":{"source":"tram_stop","name":"МегаГринн"},"geometry":{"type":"Point","coordinates":[36.011524,52.920105]}},{"type":"Feature","id":57,"properties":{"source":"tram_stop","name":"МегаГринн"},"geometry":{"type":"Point","coordinates":[36.011833,52.920236]}},{"type":"Feature","id":58,"properties":{"source":"tram_stop","name":"Завод Дормаш"},"geometry":{"type":"Point","coordinates":[36.019669,52.923953]}},{"type":"Feature","id":59,"properties":{"source":"tram_stop","name":"Завод Дормаш"},"geometry":{"type":"Point","coordinates":[36.019794,52.924062]}},{"type":"Feature","id":60,"properties":{"source":"tram_stop","name":"Сквер Героев-Десантников"},"geometry":{"type":"Point","coordinates":[36.023937,52.927049]}},{"type":"Feature","id":61,"properties":{"source":"tram_stop","name":"Южный рынок"},"geometry":{"type":"Point","coordinates":[36.028203,52.929428]}},{"type":"Feature","id":62,"properties":{"source":"tram_stop","name":"Ботаника"},"geometry":{"type":"Point","coordinates":[36.035793,52.933656]}},{"type":"Feature","id":63,"properties":{"source":"tram_stop","name":"магазин Уют"},"geometry":{"type":"Point","coordinates":[36.039911,52.935941]}},{"type":"Feature","id":64,"properties":{"source":"tram_stop","name":"Автовокзал"},"geometry":{"type":"Point","coordinates":[36.047424,52.940262]}},{"type":"Feature","id":65,"properties":{"source":"tram_stop","name":"Трамвайно-троллейбусное предприятие"},"geometry":{"type":"Point","coordinates":[36.048963,52.950134]}},{"type":"Feature","id":66,"properties":{"source":"tram_stop","name":"Щепной рынок"},"geometry":{"type":"Point","coordinates":[36.05351,52.951496]}},{"type":"Feature","id":67,"properties":{"source":"tram_stop","name":"Щепной рынок"},"geometry":{"type":"Point","coordinates":[36.05378,52.951768]}},{"type":"Feature","id":68,"properties":{"source":"tram_stop","name":"Садово-Пушкарная улица"},"geometry":{"type":"Point","coordinates":[36.055447,52.953173]}},{"type":"Feature","id":69,"properties":{"source":"tram_stop","name":"Садово-Пушкарная улица"},"geometry":{"type":"Point","coordinates":[36.055678,52.953428]}},{"type":"Feature","id":70,"properties":{"source":"tram_stop","name":"улица Панчука"},"geometry":{"type":"Point","coordinates":[36.060575,52.957816]}},{"type":"Feature","id":71,"properties":{"source":"tram_stop","name":"1-я Посадская улица"},"geometry":{"type":"Point","coordinates":[36.062986,52.960055]}},{"type":"Feature","id":72,"properties":{"source":"tram_stop","name":"площадь Карла Маркса"},"geometry":{"type":"Point","coordinates":[36.066987,52.963051]}},{"type":"Feature","id":73,"properties":{"source":"tram_stop","name":"сквер Танкистов"},"geometry":{"type":"Point","coordinates":[36.076508,52.967309]}},{"type":"Feature","id":74,"properties":{"source":"tram_stop","name":"3-я Курская улица"},"geometry":{"type":"Point","coordinates":[36.082706,52.967976]}},{"type":"Feature","id":75,"properties":{"source":"tram_stop","name":"Школа №32"},"geometry":{"type":"Point","coordinates":[36.090557,52.968747]}},{"type":"Feature","id":76,"properties":{"source":"tram_stop","name":"по требованию"},"geometry":{"type":"Point","coordinates":[36.100392,52.95154]}},{"type":"Feature","id":77,"properties":{"source":"tram_stop","name":"по требованию"},"geometry":{"type":"Point","coordinates":[36.100465,52.951564]}},{"type":"Feature","id":78,"properties":{"source":"tram_stop","name":"улица Пугачева"},"geometry":{"type":"Point","coordinates":[36.094472,52.968582]}},{"type":"Feature","id":79,"properties":{"source":"tram_stop","name":"Школа-интернат"},"geometry":{"type":"Point","coordinates":[36.105834,52.968025]}}]}