{"type":"FeatureCollection","name":"water_site","xy_coordinate_resolution":0.000001,"features":[{"type":"Feature","properties":{"full_id":"r13807181","osm_id":"13807181","osm_type":"relation","natural":"water","intermittent":null,"name":null,"water":null,"type":"multipolygon"},"geometry":{"type":"Polygon","coordinates":[[[36.002809,52.947443],[36.00233,52.947123],[36.001775,52.946752],[36.000898,52.946165],[36.000441,52.946004],[36.000379,52.945924],[36.000479,52.945852],[36.001217,52.946086],[36.002241,52.946566],[36.002425,52.946614],[36.003204,52.946945],[36.003618,52.947364],[36.003373,52.94759],[36.002997,52.947647],[36.002809,52.947443]]]}},{"type":"Feature","properties":{"full_id":"w36737557","osm_id":"36737557","osm_type":"way","natural":"water","intermittent":null,"name":"Силикатный пруд","water":null,"type":null},"geometry":{"type":"Polygon","coordinates":[[[36.123888,53.00343],[36.123983,53.003384],[36.124061,53.003351],[36.124122,53.00333],[36.124167,53.003323],[36.124197,53.003325],[36.124214,53.003335],[36.124217,53.003355],[36.124205,53.003383],[36.124188,53.003432],[36.124164,53.003501],[36.124133,53.00359],[36.124097,53.003699],[36.124073,53.003791],[36.124063,53.003867],[36.124066,53.003925],[36.124082,53.003966],[36.12409,53.004017],[36.124092,53.004079],[36.124086,53.004151],[36.124072,53.004233],[36.124061,53.004339],[36.124052,53.004468],[36.124045,53.00462],[36.12404,53.004796],[36.12401,53.004972],[36.123954,53.005148],[36.123872,53.005326],[36.123765,53.005503],[36.123695,53.005661],[36.123662,53.005798],[36.123667,53.005915],[36.123708,53.006011],[36.123732,53.006116],[36.123736,53.00623],[36.123723,53.006351],[36.123691,53.006481],[36.123665,53.006598],[36.123645,53.006703],[36.123632,53.006796],[36.123624,53.006876],[36.123672,53.006945],[36.123774,53.007003],[36.12393,53.007051],[36.124141,53.007087],[36.124297,53.007125],[36.124399,53.007164],[36.124446,53.007204],[36.124439,53.007244],[36.124444,53.007278],[36.12446,53.007305],[36.124489,53.007325],[36.124529,53.007338],[36.124559,53.007358],[36.124579,53.007386],[36.124588,53.007422],[36.124587,53.007465],[36.124548,53.007491],[36.124472,53.007501],[36.124358,53.007495],[36.124207,53.007472],[36.124063,53.007459],[36.123926,53.007457],[36.123797,53.007466],[36.123674,53.007485],[36.123582,53.007501],[36.123522,53.007515],[36.123493,53.007526],[36.123495,53.007535],[36.123493,53.007542],[36.123487,53.007547],[36.123477,53.007549],[36.123464,53.00755],[36.123452,53.007549],[36.123442,53.007546],[36.123433,53.007541],[36.123426,53.007534],[36.12341,53.007531],[36.123383,53.007531],[36.123346,53.007534],[36.123299,53.007541],[36.123243,53.007544],[36.123178,53.007542],[36.123103,53.007536],[36.123018,53.007527],[36.122936,53.007522],[36.122856,53.007523],[36.122779,53.00753],[36.122703,53.007542],[36.122642,53.007553],[36.122596,53.007564],[36.122564,53.007574],[36.122546,53.007584],[36.122525,53.007591],[36.122501,53.007597],[36.122473,53.0076],[36.122442,53.007602],[36.122413,53.007601],[36.122386,53.007597],[36.122362,53.007591],[36.12234,53.007582],[36.122321,53.007574],[36.122303,53.007567],[36.122287,53.00756],[36.122273,53.007554],[36.122258,53.007549],[36.122241,53.007544],[36.122224,53.00754],[36.122205,53.007537],[36.122186,53.007535],[36.122166,53.007534],[36.122146,53.007534],[36.122125,53.007535],[36.122106,53.007537],[36.122088,53.007539],[36.122072,53.007543],[36.122058,53.007547],[36.122042,53.007548],[36.122025,53.007548],[36.122006,53.007545],[36.121986,53.00754],[36.121967,53.007536],[36.121949,53.007531],[36.121933,53.007526],[36.121918,53.007522],[36.121896,53.007509],[36.121867,53.007488],[36.121832,53.007458],[36.121791,53.00742],[36.121761,53.00739],[36.121744,53.007367],[36.121738,53.007352],[36.121744,53.007344],[36.121747,53.007336],[36.121747,53.007326],[36.121745,53.007316],[36.12174,53.007305],[36.121733,53.007293],[36.121724,53.007283],[36.121713,53.007272],[36.121701,53.007261],[36.121686,53.007251],[36.121671,53.007241],[36.121653,53.007232],[36.121635,53.007223],[36.121617,53.007216],[36.121601,53.007212],[36.121586,53.007209],[36.121573,53.007209],[36.12156,53.007208],[36.121547,53.007206],[36.121534,53.007204],[36.121522,53.007201],[36.121511,53.007196],[36.121502,53.00719],[36.121494,53.007183],[36.121488,53.007175],[36.121481,53.007166],[36.121472,53.007158],[36.121462,53.007149],[36.121451,53.007141],[36.12144,53.007133],[36.121428,53.007126],[36.121416,53.00712],[36.121405,53.007115],[36.121394,53.007103],[36.121386,53.007086],[36.121379,53.007064],[36.121374,53.007035],[36.121353,53.007001],[36.121314,53.006962],[36.121259,53.006917],[36.121187,53.006867],[36.121155,53.006828],[36.121162,53.006799],[36.121209,53.006782],[36.121296,53.006774],[36.121381,53.00678],[36.121466,53.006798],[36.121549,53.006829],[36.121632,53.006872],[36.121696,53.006906],[36.121744,53.00693],[36.121773,53.006945],[36.121785,53.00695],[36.121798,53.006954],[36.121812,53.006957],[36.121827,53.006959],[36.121842,53.00696],[36.121857,53.006961],[36.121872,53.006961],[36.121886,53.006962],[36.121899,53.006962],[36.121912,53.006962],[36.121925,53.00696],[36.121938,53.006958],[36.12195,53.006955],[36.121971,53.006941],[36.122001,53.006916],[36.122039,53.006879],[36.122085,53.006832],[36.122129,53.006802],[36.122171,53.00679],[36.122211,53.006796],[36.122248,53.00682],[36.122279,53.006837],[36.122305,53.006848],[36.122325,53.006853],[36.122338,53.006852],[36.122351,53.00685],[36.122364,53.006848],[36.122375,53.006846],[36.122386,53.006845],[36.122396,53.006841],[36.122406,53.006836],[36.122416,53.006829],[36.122425,53.006821],[36.122431,53.006812],[36.122436,53.0068],[36.122438,53.006787],[36.122438,53.006773],[36.122438,53.006759],[36.122437,53.006745],[36.122435,53.006731],[36.122433,53.006718],[36.122434,53.006704],[36.122438,53.00669],[36.122445,53.006675],[36.122456,53.006661],[36.122466,53.006643],[36.122477,53.006623],[36.122488,53.006599],[36.122499,53.006572],[36.122508,53.006547],[36.122516,53.006522],[36.122521,53.006499],[36.122525,53.006477],[36.122525,53.006459],[36.122521,53.006443],[36.122513,53.00643],[36.122502,53.00642],[36.122494,53.00641],[36.122491,53.006401],[36.122492,53.006392],[36.122496,53.006383],[36.122505,53.006376],[36.12252,53.00637],[36.12254,53.006365],[36.122565,53.006361],[36.122586,53.006354],[36.122604,53.006344],[36.122618,53.00633],[36.122629,53.006314],[36.122636,53.006299],[36.122638,53.006287],[36.122637,53.006276],[36.122631,53.006268],[36.122626,53.00626],[36.122621,53.006252],[36.122616,53.006245],[36.122611,53.006239],[36.122606,53.006233],[36.122598,53.006228],[36.122589,53.006223],[36.122578,53.00622],[36.122566,53.006213],[36.122551,53.006204],[36.122535,53.006193],[36.122518,53.006179],[36.122501,53.006168],[36.122484,53.006161],[36.122468,53.006157],[36.122453,53.006156],[36.122441,53.006153],[36.122432,53.006148],[36.122425,53.00614],[36.122421,53.00613],[36.122416,53.006118],[36.122411,53.006104],[36.122405,53.006088],[36.122398,53.006071],[36.122394,53.006056],[36.122392,53.006046],[36.122392,53.006039],[36.122395,53.006035],[36.122399,53.006033],[36.122405,53.006031],[36.122411,53.00603],[36.122419,53.006031],[36.122441,53.006035],[36.122476,53.006044],[36.122525,53.006056],[36.122587,53.006073],[36.122636,53.006086],[36.122672,53.006095],[36.122694,53.0061],[36.122702,53.006102],[36.12271,53.006103],[36.122717,53.006102],[36.122722,53.0061],[36.122727,53.006096],[36.122735,53.00609],[36.122745,53.00608],[36.122757,53.006068],[36.122772,53.006052],[36.12278,53.006036],[36.122782,53.006021],[36.122778,53.006005],[36.122767,53.005989],[36.12276,53.005964],[36.122755,53.005928],[36.122753,53.005884],[36.122755,53.005829],[36.122736,53.005777],[36.122697,53.005726],[36.122638,53.005678],[36.122559,53.005633],[36.122512,53.005597],[36.122498,53.005572],[36.122516,53.005558],[36.122566,53.005554],[36.122646,53.005507],[36.122757,53.005416],[36.122898,53.005281],[36.123069,53.005103],[36.123199,53.004935],[36.12329,53.004776],[36.12334,53.004627],[36.123351,53.004488],[36.123363,53.004357],[36.123376,53.004234],[36.123391,53.004119],[36.123408,53.004013],[36.123431,53.003916],[36.123462,53.003828],[36.1235,53.00375],[36.123544,53.003682],[36.123605,53.003616],[36.123683,53.003552],[36.123777,53.00349],[36.123888,53.00343]]]}},{"type":"Feature","properties":{"full_id":"w36737558","osm_id":"36737558","osm_type":"way","natural":"water","intermittent":null,"name":"Северный пруд","water":null,"type":null},"geometry":{"type":"Polygon","coordinates":[[[36.12068,53.00948],[36.121158,53.009496],[36.120888,53.009798],[36.120509,53.009998],[36.12051,53.010111],[36.120326,53.010157],[36.120127,53.010357],[36.119866,53.01058],[36.119675,53.010614],[36.119509,53.010538],[36.119135,53.010535],[36.11916,53.010634],[36.118621,53.010526],[36.118601,53.010406],[36.118691,53.010293],[36.11917,53.009893],[36.119676,53.009639],[36.119946,53.009718],[36.120304,53.009669],[36.12068,53.00948]]]}},{"type":"Feature","properties":{"full_id":"w36737559","osm_id":"36737559","osm_type":"way","natural":"water","intermittent":null,"name":null,"water":null,"type":null},"geometry":{"type":"Polygon","coordinates":[[[36.144672,52.965801],[36.144737,52.965996],[36.144173,52.966058],[36.144024,52.96581],[36.14439,52.965723],[36.144672,52.965801]]]}},{"type":"Feature","properties":{"full_id":"w36737560","osm_id":"36737560","osm_type":"way","natural":"water","intermittent":null,"name":null,"water":null,"type":null},"geometry":{"type":"Polygon","coordinates":[[[36.082554,52.999474],[36.082389,52.999288],[36.082285,52.999001],[36.082337,52.998652],[36.08265,52.998334],[36.083185,52.998096],[36.083662,52.998092],[36.08393,52.99828],[36.083915,52.998576],[36.08382,52.998775],[36.083612,52.998904],[36.083812,52.998972],[36.0839,52.999108],[36.083786,52.999274],[36.083485,52.999337],[36.083317,52.999446],[36.083179,52.999557],[36.082956,52.999486],[36.082554,52.999474]]]}},{"type":"Feature","properties":{"full_id":"w36737564","osm_id":"36737564","osm_type":"way","natural":"water","intermittent":null,"name":null,"water":null,"type":null},"geometry":{"type":"Polygon","coordinates":[[[36.039652,52.913657],[36.039495,52.913676],[36.039418,52.91368],[36.039364,52.913626],[36.039312,52.913618],[36.039271,52.9136],[36.039242,52.913597],[36.039192,52.91357],[36.039139,52.913545],[36.039095,52.913515],[36.039011,52.913454],[36.038983,52.913435],[36.038965,52.913415],[36.038963,52.913397],[36.038943,52.913396],[36.038938,52.913392],[36.038941,52.913378],[36.038924,52.913375],[36.038902,52.913375],[36.0389,52.913366],[36.038905,52.913344],[36.038872,52.913291],[36.038889,52.913267],[36.038897,52.913229],[36.038842,52.913198],[36.038807,52.913177],[36.03881,52.913155],[36.038766,52.913155],[36.038769,52.913126],[36.038716,52.913084],[36.038677,52.913085],[36.038634,52.913088],[36.038604,52.913075],[36.038601,52.913052],[36.038616,52.913027],[36.038596,52.912977],[36.03859,52.912931],[36.038476,52.912885],[36.038461,52.912808],[36.038365,52.912828],[36.038346,52.912824],[36.038339,52.912813],[36.038362,52.912771],[36.038336,52.912739],[36.038281,52.912713],[36.038223,52.912702],[36.038215,52.912675],[36.038212,52.912622],[36.038227,52.912594],[36.038186,52.912593],[36.0382,52.912578],[36.038245,52.912567],[36.03828,52.912577],[36.038303,52.912563],[36.038343,52.912551],[36.038372,52.912517],[36.038346,52.912485],[36.038297,52.912457],[36.038167,52.912404],[36.038124,52.912381],[36.038125,52.912363],[36.038152,52.91235],[36.038253,52.912356],[36.038303,52.912335],[36.038361,52.912256],[36.038388,52.912207],[36.038442,52.912203],[36.038472,52.912192],[36.038468,52.91216],[36.038516,52.912181],[36.038535,52.912204],[36.038559,52.912201],[36.038575,52.912216],[36.038588,52.91224],[36.038587,52.91226],[36.03862,52.912275],[36.038597,52.912295],[36.038612,52.912304],[36.038653,52.912291],[36.038678,52.9123],[36.038749,52.912281],[36.03881,52.91233],[36.038842,52.912329],[36.038845,52.912297],[36.038869,52.912289],[36.038955,52.912281],[36.039033,52.912233],[36.039116,52.912245],[36.039159,52.912224],[36.039251,52.912247],[36.039277,52.912235],[36.039265,52.912185],[36.039286,52.912175],[36.039303,52.912188],[36.039328,52.912244],[36.03936,52.912267],[36.039414,52.912281],[36.039451,52.912304],[36.039479,52.912357],[36.039459,52.91239],[36.039417,52.912412],[36.039398,52.912439],[36.039369,52.912449],[36.039343,52.91247],[36.039354,52.912507],[36.039325,52.912519],[36.039328,52.912545],[36.039365,52.912563],[36.039397,52.912574],[36.039374,52.912595],[36.039315,52.912621],[36.03924,52.912646],[36.03925,52.912665],[36.039281,52.912676],[36.03933,52.912671],[36.039348,52.912676],[36.039284,52.912719],[36.039291,52.91274],[36.039323,52.912761],[36.039366,52.912769],[36.039446,52.91282],[36.039616,52.912937],[36.039741,52.913101],[36.039775,52.913161],[36.039841,52.913213],[36.039862,52.913278],[36.039885,52.913304],[36.039915,52.913313],[36.039916,52.913342],[36.039903,52.913382],[36.039897,52.913413],[36.039908,52.913431],[36.039947,52.913427],[36.039983,52.913437],[36.040022,52.913455],[36.040078,52.91345],[36.040155,52.913441],[36.040222,52.913455],[36.040285,52.913485],[36.040313,52.913494],[36.04035,52.91353],[36.040392,52.91358],[36.040397,52.913623],[36.040368,52.913639],[36.040359,52.91367],[36.040316,52.913706],[36.040308,52.913758],[36.040308,52.913805],[36.040261,52.913871],[36.040156,52.913916],[36.040081,52.913905],[36.04005,52.91389],[36.040061,52.913868],[36.040025,52.913867],[36.039979,52.913852],[36.039944,52.913838],[36.039937,52.913795],[36.039898,52.913809],[36.039841,52.913808],[36.039807,52.913793],[36.039801,52.913773],[36.039701,52.91371],[36.039708,52.913665],[36.039652,52.913657]]]}},{"type":"Feature","properties":{"full_id":"w36737589","osm_id":"36737589","osm_type":"way","natural":"water","intermittent":null,"name":null,"water":null,"type":null},"geometry":{"type":"Polygon","coordinates":[[[36.100091,52.9263],[36.100448,52.926588],[36.100096,52.926721],[36.099653,52.926889],[36.099536,52.92687],[36.099435,52.9268],[36.099372,52.92676],[36.099363,52.926702],[36.0994,52.926639],[36.099451,52.926599],[36.099585,52.926524],[36.099767,52.926431],[36.099889,52.926379],[36.100091,52.9263]]]}},{"type":"Feature","properties":{"full_id":"w36737590","osm_id":"36737590","osm_type":"way","natural":"water","intermittent":null,"name":null,"water":null,"type":null},"geometry":{"type":"Polygon","coordinates":[[[36.101671,52.92338],[36.101128,52.923193],[36.10078,52.923073],[36.100576,52.923027],[36.100509,52.922725],[36.100709,52.922435],[36.10068,52.922217],[36.101176,52.922292],[36.101342,52.922562],[36.101142,52.92282],[36.101457,52.92307],[36.101671,52.92338]]]}},{"type":"Feature","properties":{"full_id":"w50991369","osm_id":"50991369","osm_type":"way","natural":"water","intermittent":null,"name":null,"water":null,"type":null},"geometry":{"type":"Polygon","coordinates":[[[36.165021,52.945349],[36.165502,52.944783],[36.165787,52.944598],[36.166021,52.94452],[36.166107,52.944616],[36.165682,52.945047],[36.165306,52.945296],[36.165021,52.945349]]]}},{"type":"Feature","properties":{"full_id":"w50991371","osm_id":"50991371","osm_type":"way","natural":"water","intermittent":null,"name":null,"water":null,"type":null},"geometry":{"type":"Polygon","coordinates":[[[36.18327,52.948393],[36.182739,52.948043],[36.18251,52.947565],[36.181267,52.947514],[36.181682,52.947025],[36.182366,52.946666],[36.181995,52.94604],[36.181894,52.945109],[36.182136,52.945002],[36.182679,52.945536],[36.182979,52.945991],[36.183568,52.946478],[36.184026,52.947014],[36.183977,52.947243],[36.184988,52.947946],[36.185229,52.947855],[36.185559,52.947575],[36.186205,52.947387],[36.186276,52.94766],[36.186144,52.947874],[36.18612,52.948551],[36.184905,52.948862],[36.184034,52.948961],[36.183449,52.948858],[36.18327,52.948393]]]}},{"type":"Feature","properties":{"full_id":"w51007264","osm_id":"51007264","osm_type":"way","natural":"water","intermittent":null,"name":null,"water":null,"type":null},"geometry":{"type":"Polygon","coordinates":[[[36.109174,52.997571],[36.109057,52.997382],[36.109094,52.997263],[36.10934,52.997182],[36.109599,52.997159],[36.109821,52.997215],[36.109926,52.997341],[36.109765,52.997437],[36.10955,52.997526],[36.109328,52.99756],[36.109174,52.997571]]]}},{"type":"Feature","properties":{"full_id":"w115951504","osm_id":"115951504","osm_type":"way","natural":"water","intermittent":null,"name":"Весёлое","water":"lake","type":null},"geometry":{"type":"Polygon","coordinates":[[[36.04272,52.972123],[36.042854,52.972239],[36.042951,52.972298],[36.042988,52.972441],[36.042975,52.972511],[36.042956,52.972598],[36.042841,52.972625],[36.042683,52.972634],[36.042441,52.972805],[36.042339,52.972941],[36.042262,52.973012],[36.042136,52.973086],[36.042039,52.973302],[36.04206,52.973532],[36.041739,52.973809],[36.041572,52.974078],[36.0411,52.974481],[36.040902,52.974788],[36.040467,52.974866],[36.040017,52.97547],[36.039523,52.975728],[36.039668,52.975835],[36.039732,52.976093],[36.0397,52.976407],[36.039566,52.976319],[36.039373,52.975896],[36.039282,52.975815],[36.038778,52.975932],[36.038745,52.975851],[36.039228,52.975667],[36.039791,52.97526],[36.040135,52.97483],[36.040103,52.974727],[36.040623,52.974611],[36.041226,52.973667],[36.040634,52.97336],[36.040556,52.973133],[36.04077,52.973256],[36.040869,52.973352],[36.041366,52.973465],[36.041626,52.973192],[36.041511,52.973055],[36.041781,52.972718],[36.041918,52.972659],[36.042058,52.972454],[36.042111,52.972264],[36.042404,52.972049],[36.04272,52.972123]]]}},{"type":"Feature","properties":{"full_id":"w140990965","osm_id":"140990965","osm_type":"way","natural":"water","intermittent":null,"name":null,"water":null,"type":null},"geometry":{"type":"Polygon","coordinates":[[[36.095646,52.989316],[36.095778,52.989271],[36.095876,52.989401],[36.095703,52.990112],[36.095503,52.990311],[36.095131,52.990391],[36.094657,52.990171],[36.094644,52.990094],[36.095646,52.989316]]]}},{"type":"Feature","properties":{"full_id":"w140990968","osm_id":"140990968","osm_type":"way","natural":"water","intermittent":null,"name":null,"water":"reservoir","type":null},"geometry":{"type":"Polygon","coordinates":[[[36.093869,52.989471],[36.095028,52.9886],[36.095196,52.988611],[36.095706,52.988897],[36.095723,52.989],[36.094609,52.989911],[36.094422,52.989906],[36.093843,52.989619],[36.093869,52.989471]]]}},{"type":"Feature","properties":{"full_id":"w140990971","osm_id":"140990971","osm_type":"way","natural":"water","intermittent":null,"name":null,"water":"reservoir","type":null},"geometry":{"type":"Polygon","coordinates":[[[36.092814,52.989041],[36.094064,52.988104],[36.094251,52.988099],[36.094855,52.988383],[36.094855,52.988457],[36.093613,52.989425],[36.093452,52.989425],[36.092863,52.989141],[36.092814,52.989041]]]}},{"type":"Feature","properties":{"full_id":"w156768164","osm_id":"156768164","osm_type":"way","natural":"water","intermittent":null,"name":null,"water":"reservoir","type":null},"geometry":{"type":"Polygon","coordinates":[[[36.1083,52.96099],[36.108268,52.960928],[36.108278,52.960851],[36.108396,52.960789],[36.108498,52.960802],[36.108531,52.960876],[36.10849,52.961017],[36.1083,52.96099]]]}},{"type":"Feature","properties":{"full_id":"w156769201","osm_id":"156769201","osm_type":"way","natural":"water","intermittent":null,"name":null,"water":"reservoir","type":null},"geometry":{"type":"Polygon","coordinates":[[[36.108763,52.96093],[36.108718,52.960875],[36.108697,52.96081],[36.108838,52.960745],[36.108984,52.960762],[36.109065,52.960872],[36.108937,52.960937],[36.108763,52.96093]]]}},{"type":"Feature","properties":{"full_id":"w156841206","osm_id":"156841206","osm_type":"way","natural":"water","intermittent":null,"name":null,"water":null,"type":null},"geometry":{"type":"Polygon","coordinates":[[[36.084949,52.946466],[36.085175,52.946143],[36.085586,52.946079],[36.085711,52.946356],[36.08569,52.946634],[36.085747,52.946699],[36.085668,52.94686],[36.085507,52.946912],[36.085357,52.947003],[36.085239,52.947009],[36.085132,52.946938],[36.085099,52.946712],[36.084975,52.946648],[36.084949,52.946466]]]}},{"type":"Feature","properties":{"full_id":"w158535730","osm_id":"158535730","osm_type":"way","natural":"water","intermittent":null,"name":null,"water":null,"type":null},"geometry":{"type":"Polygon","coordinates":[[[36.118704,52.946592],[36.118664,52.94659],[36.118628,52.946636],[36.118651,52.946682],[36.118605,52.946713],[36.118597,52.946682],[36.118584,52.946634],[36.118546,52.946589],[36.118581,52.946484],[36.118613,52.946416],[36.118651,52.946388],[36.118721,52.946395],[36.11877,52.946376],[36.118812,52.946399],[36.118881,52.946535],[36.118861,52.946565],[36.118771,52.946577],[36.118745,52.946605],[36.118704,52.946592]]]}},{"type":"Feature","properties":{"full_id":"w158536795","osm_id":"158536795","osm_type":"way","natural":"water","intermittent":null,"name":null,"water":"reservoir","type":null},"geometry":{"type":"Polygon","coordinates":[[[36.107624,52.942641],[36.107813,52.94258],[36.108019,52.942513],[36.10902,52.942867],[36.109607,52.943071],[36.109995,52.943146],[36.110605,52.943211],[36.110794,52.943256],[36.110389,52.943282],[36.109716,52.943154],[36.109343,52.943144],[36.108965,52.943015],[36.108598,52.942844],[36.10841,52.942828],[36.107624,52.942641]]]}},{"type":"Feature","properties":{"full_id":"w158539939","osm_id":"158539939","osm_type":"way","natural":"water","intermittent":null,"name":null,"water":"reservoir","type":null},"geometry":{"type":"Polygon","coordinates":[[[36.105119,52.94184],[36.105067,52.941475],[36.105193,52.941399],[36.105464,52.941211],[36.105405,52.941326],[36.105209,52.941509],[36.105175,52.941638],[36.105366,52.941761],[36.105373,52.941803],[36.105493,52.941809],[36.10576,52.941879],[36.106153,52.941905],[36.106217,52.941935],[36.10659,52.942058],[36.106731,52.942173],[36.106551,52.942098],[36.106389,52.942091],[36.105999,52.941973],[36.105701,52.941981],[36.105371,52.941889],[36.105209,52.9419],[36.105119,52.94184]]]}},{"type":"Feature","properties":{"full_id":"w159230233","osm_id":"159230233","osm_type":"way","natural":"water","intermittent":null,"name":null,"water":null,"type":null},"geometry":{"type":"Polygon","coordinates":[[[36.145406,52.943741],[36.14552,52.94374],[36.145557,52.943792],[36.145513,52.943844],[36.145502,52.943915],[36.145412,52.943989],[36.145529,52.944054],[36.145502,52.944103],[36.145525,52.944215],[36.145567,52.944226],[36.145567,52.94431],[36.145577,52.944446],[36.145647,52.944578],[36.14574,52.944745],[36.145776,52.94493],[36.145803,52.945014],[36.145825,52.945088],[36.145867,52.945221],[36.145915,52.945331],[36.145986,52.945392],[36.146028,52.945444],[36.146012,52.945503],[36.145965,52.945502],[36.145725,52.945421],[36.145422,52.945318],[36.145422,52.945254],[36.145427,52.945166],[36.145368,52.945069],[36.145257,52.944975],[36.145246,52.944933],[36.145262,52.944839],[36.145245,52.944733],[36.145273,52.944635],[36.14525,52.9445],[36.145191,52.9445],[36.145155,52.944458],[36.145196,52.944407],[36.14523,52.944331],[36.145257,52.94416],[36.145262,52.94396],[36.145289,52.94384],[36.145406,52.943741]]]}},{"type":"Feature","properties":{"full_id":"w159230237","osm_id":"159230237","osm_type":"way","natural":"water","intermittent":null,"name":null,"water":null,"type":null},"geometry":{"type":"Polygon","coordinates":[[[36.14599,52.953563],[36.146082,52.953618],[36.146131,52.953563],[36.146178,52.953499],[36.146237,52.953389],[36.146371,52.953295],[36.1465,52.953224],[36.146645,52.953234],[36.146786,52.953233],[36.146892,52.953221],[36.147042,52.953201],[36.147166,52.953201],[36.147326,52.953201],[36.147433,52.953282],[36.147499,52.953401],[36.147535,52.953534],[36.147546,52.953644],[36.147492,52.95377],[36.147348,52.953803],[36.147208,52.953812],[36.147074,52.95379],[36.146925,52.953808],[36.146768,52.953861],[36.146677,52.953896],[36.14657,52.953883],[36.146437,52.953805],[36.146249,52.953708],[36.146103,52.953673],[36.145878,52.953654],[36.14599,52.953563]]]}},{"type":"Feature","properties":{"full_id":"w187976689","osm_id":"187976689","osm_type":"way","natural":"water","intermittent":null,"name":null,"water":null,"type":null},"geometry":{"type":"Polygon","coordinates":[[[36.012009,52.951288],[36.012015,52.951235],[36.012025,52.951159],[36.012111,52.951078],[36.012234,52.951039],[36.01233,52.951078],[36.012384,52.951204],[36.012304,52.951353],[36.012084,52.951353],[36.012009,52.951288]]]}},{"type":"Feature","properties":{"full_id":"w297003157","osm_id":"297003157","osm_type":"way","natural":"water","intermittent":"no","name":null,"water":"basin","type":null},"geometry":{"type":"Polygon","coordinates":[[[36.061649,52.972133],[36.061791,52.972059],[36.061858,52.972106],[36.061716,52.97218],[36.061649,52.972133]]]}},{"type":"Feature","properties":{"full_id":"w784562692","osm_id":"784562692","osm_type":"way","natural":"water","intermittent":null,"name":"озеро Светлая Жизнь","water":"lake","type":null},"geometry":{"type":"Polygon","coordinates":[[[36.047111,52.916618],[36.04712,52.916686],[36.047126,52.916747],[36.047129,52.9168],[36.047128,52.916846],[36.047124,52.916885],[36.047119,52.916919],[36.047112,52.916947],[36.047103,52.91697],[36.047093,52.916988],[36.047081,52.917004],[36.047068,52.917019],[36.047054,52.917034],[36.047038,52.917047],[36.047021,52.917059],[36.047001,52.91707],[36.04698,52.91708],[36.046957,52.91709],[36.046935,52.917098],[36.046915,52.917105],[36.046895,52.917111],[36.046878,52.917115],[36.046859,52.917122],[36.046841,52.91713],[36.046823,52.917141],[36.046804,52.917154],[36.046787,52.917168],[36.046771,52.917181],[36.046757,52.917195],[36.046745,52.917209],[36.046735,52.917222],[36.046729,52.917233],[36.046726,52.917244],[36.046726,52.917254],[36.046728,52.917263],[36.046732,52.917271],[36.046739,52.917278],[36.046748,52.917284],[36.046755,52.91729],[36.04676,52.917296],[36.046764,52.917303],[36.046765,52.91731],[36.046765,52.917318],[36.046763,52.917325],[36.04676,52.917332],[36.046754,52.917339],[36.046744,52.917347],[36.046727,52.917355],[36.046705,52.917364],[36.046678,52.917373],[36.046656,52.917383],[36.04664,52.917392],[36.04663,52.917401],[36.046625,52.91741],[36.046625,52.917417],[36.046628,52.917423],[36.046635,52.917426],[36.046646,52.917428],[36.046656,52.917431],[36.046666,52.917436],[36.046674,52.917441],[36.046682,52.917449],[36.046686,52.917457],[36.046688,52.917466],[36.046686,52.917477],[36.046682,52.917489],[36.046676,52.9175],[36.046671,52.917511],[36.046664,52.917522],[36.046656,52.917533],[36.046645,52.917545],[36.046629,52.917557],[36.046609,52.91757],[36.046586,52.917583],[36.046566,52.917596],[36.04655,52.917608],[36.046538,52.917619],[36.046529,52.91763],[36.046522,52.917644],[36.046514,52.91766],[36.046507,52.917679],[36.0465,52.9177],[36.046491,52.917722],[36.04648,52.917744],[36.046466,52.917766],[36.046449,52.917788],[36.046436,52.917809],[36.046425,52.917831],[36.046417,52.917852],[36.046412,52.917873],[36.046409,52.9179],[36.04641,52.917931],[36.046414,52.917968],[36.046421,52.918009],[36.046424,52.918046],[36.046425,52.918076],[36.046423,52.918102],[36.046418,52.918121],[36.046417,52.918138],[36.046419,52.918152],[36.046427,52.918162],[36.046438,52.91817],[36.046447,52.91818],[36.046455,52.918192],[36.046461,52.918207],[36.046466,52.918224],[36.046471,52.918238],[36.046477,52.91825],[36.046485,52.918258],[36.046493,52.918263],[36.046502,52.918304],[36.046511,52.918381],[36.046522,52.918492],[36.046533,52.91864],[36.046539,52.918755],[36.046541,52.918839],[36.046538,52.918892],[36.046529,52.918912],[36.046518,52.918935],[36.046504,52.91896],[36.046487,52.918987],[36.046467,52.919016],[36.046452,52.91904],[36.046442,52.919058],[36.046437,52.919071],[36.046437,52.919079],[36.046433,52.91909],[36.046426,52.919105],[36.046415,52.919123],[36.046401,52.919144],[36.046387,52.919165],[36.046374,52.919185],[36.046361,52.919204],[36.046348,52.919223],[36.046331,52.919244],[36.046307,52.919267],[36.046279,52.919293],[36.046246,52.919322],[36.046202,52.919356],[36.046149,52.919394],[36.046086,52.919437],[36.046013,52.919485],[36.045895,52.919551],[36.045733,52.919633],[36.045526,52.919733],[36.045274,52.919849],[36.045075,52.919941],[36.044927,52.920007],[36.044833,52.920049],[36.04479,52.920065],[36.044747,52.920079],[36.044703,52.920091],[36.044657,52.9201],[36.044611,52.920107],[36.044566,52.920116],[36.044521,52.920126],[36.044477,52.920137],[36.044434,52.920149],[36.044383,52.920163],[36.044325,52.920177],[36.04426,52.920192],[36.044187,52.920208],[36.04412,52.920224],[36.044061,52.920241],[36.044009,52.920259],[36.043964,52.920277],[36.043926,52.920292],[36.043898,52.920303],[36.043878,52.920309],[36.043866,52.920313],[36.043853,52.920315],[36.043838,52.920317],[36.043823,52.920317],[36.043807,52.920317],[36.04379,52.920319],[36.043772,52.920322],[36.043753,52.920327],[36.043734,52.920334],[36.043712,52.920339],[36.043689,52.920343],[36.043663,52.920345],[36.043636,52.920345],[36.043608,52.920347],[36.043581,52.920349],[36.043553,52.920351],[36.043526,52.920355],[36.043489,52.920361],[36.043443,52.920369],[36.043388,52.920379],[36.043324,52.920392],[36.043272,52.920401],[36.043231,52.920408],[36.043202,52.920412],[36.043185,52.920413],[36.043166,52.920413],[36.043145,52.920412],[36.043122,52.92041],[36.043096,52.920408],[36.043063,52.920403],[36.043022,52.920396],[36.042973,52.920387],[36.042917,52.920377],[36.042868,52.920366],[36.042827,52.920355],[36.042794,52.920345],[36.042768,52.920335],[36.042747,52.920325],[36.04273,52.920317],[36.042716,52.92031],[36.042706,52.920303],[36.042699,52.920297],[36.042694,52.920291],[36.042692,52.920285],[36.042692,52.920279],[36.04269,52.920274],[36.042685,52.920269],[36.042678,52.920265],[36.042669,52.920261],[36.042659,52.920258],[36.042648,52.920256],[36.042635,52.920255],[36.042621,52.920256],[36.042607,52.920255],[36.042593,52.920254],[36.04258,52.920252],[36.042568,52.92025],[36.042557,52.920247],[36.042547,52.920244],[36.042539,52.920241],[36.042532,52.920238],[36.042526,52.920234],[36.042522,52.92023],[36.042519,52.920225],[36.042516,52.920219],[36.042503,52.920212],[36.042479,52.920203],[36.042444,52.920193],[36.042398,52.92018],[36.042358,52.92017],[36.042324,52.920163],[36.042296,52.920158],[36.042274,52.920155],[36.042253,52.920152],[36.042231,52.920148],[36.042209,52.920142],[36.042188,52.920135],[36.042164,52.920126],[36.042137,52.920113],[36.042109,52.920098],[36.042077,52.92008],[36.042049,52.920063],[36.042023,52.920047],[36.041999,52.920031],[36.041978,52.920016],[36.041954,52.920003],[36.041928,52.919993],[36.041898,52.919984],[36.041865,52.919977],[36.041826,52.919971],[36.041782,52.919966],[36.041731,52.919962],[36.041674,52.919958],[36.041625,52.919954],[36.041582,52.919949],[36.041547,52.919943],[36.041519,52.919937],[36.041489,52.919931],[36.041459,52.919926],[36.041427,52.919922],[36.041394,52.919919],[36.041364,52.919914],[36.041337,52.919909],[36.041312,52.919904],[36.041289,52.919897],[36.041258,52.91989],[36.041219,52.919883],[36.041171,52.919874],[36.041114,52.919864],[36.041062,52.919855],[36.041015,52.919846],[36.040971,52.919836],[36.040933,52.919827],[36.040889,52.919815],[36.040839,52.9198],[36.040785,52.919782],[36.040726,52.919762],[36.040669,52.919743],[36.040614,52.919726],[36.040562,52.919711],[36.040513,52.919697],[36.040445,52.91968],[36.040359,52.919659],[36.040254,52.919636],[36.04013,52.919609],[36.040028,52.919588],[36.039946,52.919573],[36.039885,52.919564],[36.039845,52.919561],[36.039809,52.919559],[36.039775,52.919559],[36.039745,52.919559],[36.039717,52.919562],[36.039677,52.919563],[36.039623,52.919564],[36.039556,52.919564],[36.039476,52.919563],[36.039409,52.91956],[36.039354,52.919554],[36.039313,52.919546],[36.039285,52.919535],[36.039263,52.919525],[36.039248,52.919516],[36.03924,52.919508],[36.039239,52.919501],[36.039229,52.919496],[36.039211,52.919492],[36.039186,52.919489],[36.039153,52.919489],[36.039118,52.919484],[36.039083,52.919477],[36.039046,52.919465],[36.039009,52.91945],[36.038978,52.919439],[36.038952,52.919432],[36.038934,52.919429],[36.038921,52.91943],[36.038911,52.919432],[36.038905,52.919434],[36.038903,52.919438],[36.038903,52.919442],[36.038903,52.919446],[36.038901,52.91945],[36.038899,52.919453],[36.038896,52.919457],[36.038892,52.919459],[36.038887,52.919461],[36.038882,52.919462],[36.038876,52.919462],[36.038873,52.91946],[36.038871,52.919455],[36.038871,52.919447],[36.038874,52.919437],[36.038874,52.919428],[36.038873,52.919422],[36.03887,52.919418],[36.038866,52.919415],[36.038854,52.919414],[36.038835,52.919412],[36.038809,52.919411],[36.038776,52.919411],[36.038748,52.91941],[36.038727,52.919408],[36.038713,52.919407],[36.038704,52.919404],[36.038693,52.9194],[36.038681,52.919395],[36.038667,52.919388],[36.038651,52.919379],[36.038637,52.919368],[36.038627,52.919355],[36.038619,52.919339],[36.038614,52.919321],[36.038608,52.919307],[36.038603,52.919296],[36.038598,52.919289],[36.038593,52.919286],[36.038584,52.919282],[36.038572,52.919279],[36.038557,52.919275],[36.038539,52.919272],[36.038512,52.91927],[36.038476,52.919271],[36.03843,52.919273],[36.038375,52.919277],[36.038332,52.919279],[36.038301,52.919279],[36.038283,52.919277],[36.038277,52.919273],[36.038271,52.919267],[36.038267,52.91926],[36.038263,52.91925],[36.03826,52.91924],[36.038255,52.919232],[36.038248,52.919226],[36.038239,52.919223],[36.038229,52.919222],[36.038219,52.919221],[36.03821,52.91922],[36.038202,52.919218],[36.038194,52.919216],[36.038188,52.919213],[36.038183,52.91921],[36.03818,52.919207],[36.038178,52.919203],[36.038174,52.919199],[36.038167,52.919194],[36.038156,52.919188],[36.038143,52.919181],[36.038131,52.919176],[36.03812,52.919171],[36.038109,52.919168],[36.038099,52.919166],[36.038087,52.919165],[36.038073,52.919164],[36.038057,52.919163],[36.038039,52.919163],[36.038024,52.919162],[36.038012,52.91916],[36.038003,52.919156],[36.037998,52.919151],[36.037992,52.919147],[36.037987,52.919143],[36.037982,52.919141],[36.037976,52.919139],[36.037971,52.919135],[36.037967,52.91913],[36.037964,52.919122],[36.03796,52.919113],[36.037958,52.919103],[36.037957,52.919092],[36.037957,52.919081],[36.037958,52.919069],[36.037963,52.919056],[36.037971,52.919043],[36.037984,52.919029],[36.038001,52.919014],[36.038013,52.919002],[36.038022,52.918992],[36.038027,52.918985],[36.038027,52.918981],[36.038026,52.918977],[36.038022,52.918972],[36.038017,52.918966],[36.03801,52.91896],[36.038016,52.918941],[36.038036,52.918908],[36.038069,52.918863],[36.038117,52.918804],[36.03817,52.918744],[36.03823,52.918683],[36.038296,52.91862],[36.038369,52.918556],[36.038441,52.918498],[36.038511,52.918444],[36.038581,52.918396],[36.038649,52.918353],[36.03874,52.918287],[36.038856,52.918199],[36.038996,52.918088],[36.039159,52.917954],[36.039316,52.917831],[36.039467,52.917718],[36.039612,52.917615],[36.039751,52.917523],[36.039861,52.917443],[36.039945,52.917374],[36.04,52.917318],[36.040028,52.917274],[36.040055,52.917242],[36.040082,52.917223],[36.040108,52.917216],[36.040134,52.917221],[36.040157,52.917224],[36.040178,52.917225],[36.040195,52.917224],[36.04021,52.917221],[36.040225,52.917218],[36.040239,52.917214],[36.040252,52.917209],[36.040265,52.917204],[36.040275,52.917199],[36.040281,52.917192],[36.040283,52.917186],[36.040283,52.917179],[36.04028,52.917173],[36.040275,52.917168],[36.040267,52.917164],[36.040258,52.917161],[36.04025,52.917156],[36.040244,52.917149],[36.040239,52.91714],[36.040236,52.91713],[36.040235,52.917119],[36.040234,52.91711],[36.040235,52.917101],[36.040237,52.917092],[36.040243,52.917081],[36.040255,52.917068],[36.040271,52.917052],[36.040291,52.917034],[36.040312,52.917016],[36.040334,52.916999],[36.040357,52.916982],[36.04038,52.916966],[36.040402,52.916956],[36.040424,52.91695],[36.040445,52.916949],[36.040465,52.916954],[36.040491,52.916948],[36.040523,52.916932],[36.040561,52.916906],[36.040605,52.91687],[36.040642,52.916841],[36.040672,52.916818],[36.040695,52.916801],[36.04071,52.916792],[36.040722,52.916783],[36.040731,52.916775],[36.040737,52.916769],[36.04074,52.916763],[36.040741,52.916758],[36.040741,52.916754],[36.040739,52.916751],[36.040735,52.916748],[36.040733,52.916746],[36.040732,52.916742],[36.040732,52.916739],[36.040734,52.916735],[36.040737,52.916732],[36.040739,52.916729],[36.040742,52.916726],[36.040745,52.916723],[36.04075,52.916721],[36.040756,52.91672],[36.040763,52.916719],[36.040772,52.916719],[36.040786,52.916711],[36.040804,52.916695],[36.040827,52.91667],[36.040855,52.916637],[36.040881,52.916611],[36.040904,52.916591],[36.040926,52.916578],[36.040946,52.916572],[36.040964,52.916565],[36.040982,52.916558],[36.040998,52.91655],[36.041012,52.916542],[36.041023,52.916533],[36.041029,52.916525],[36.041031,52.916516],[36.041029,52.916507],[36.041025,52.916497],[36.04102,52.916488],[36.041013,52.91648],[36.041005,52.916471],[36.040998,52.916463],[36.040993,52.916456],[36.04099,52.916449],[36.040988,52.916443],[36.040989,52.916437],[36.040993,52.916432],[36.041,52.916427],[36.041009,52.916423],[36.041016,52.916419],[36.041022,52.916416],[36.041025,52.916413],[36.041026,52.91641],[36.041026,52.916405],[36.041024,52.916399],[36.041021,52.916392],[36.041016,52.916384],[36.041015,52.916376],[36.041017,52.91637],[36.041023,52.916363],[36.041031,52.916358],[36.041035,52.916352],[36.041034,52.916345],[36.041028,52.916338],[36.041018,52.916329],[36.041011,52.916323],[36.041009,52.916318],[36.041011,52.916314],[36.041017,52.916312],[36.041022,52.916308],[36.041024,52.916302],[36.041026,52.916294],[36.041025,52.916284],[36.041023,52.916276],[36.041019,52.916269],[36.041013,52.916264],[36.041005,52.916262],[36.040997,52.916259],[36.040989,52.916258],[36.040981,52.916257],[36.040972,52.916258],[36.040965,52.916257],[36.040959,52.916254],[36.040955,52.916251],[36.040952,52.916246],[36.040948,52.916242],[36.04094,52.916239],[36.040931,52.916238],[36.04092,52.916237],[36.04091,52.916235],[36.040903,52.916232],[36.040899,52.916228],[36.040897,52.916222],[36.040896,52.916216],[36.040896,52.916211],[36.040898,52.916205],[36.040902,52.916199],[36.040903,52.916193],[36.040903,52.916187],[36.040901,52.91618],[36.040897,52.916173],[36.040892,52.916166],[36.040887,52.916157],[36.040881,52.916149],[36.040875,52.91614],[36.040868,52.916132],[36.04086,52.916127],[36.040851,52.916123],[36.040842,52.916121],[36.040834,52.916119],[36.040828,52.916116],[36.040822,52.916112],[36.040818,52.916109],[36.040814,52.916103],[36.040812,52.916095],[36.04081,52.916086],[36.04081,52.916074],[36.040811,52.916065],[36.040812,52.916059],[36.040815,52.916054],[36.040818,52.916052],[36.040821,52.91605],[36.040822,52.916047],[36.040823,52.916044],[36.040823,52.91604],[36.040821,52.916036],[36.040819,52.916033],[36.040815,52.916029],[36.040811,52.916025],[36.040802,52.916021],[36.04079,52.916017],[36.040774,52.916013],[36.040755,52.916009],[36.040739,52.916004],[36.040729,52.915997],[36.040723,52.915989],[36.040721,52.91598],[36.040716,52.915967],[36.040707,52.915952],[36.040694,52.915933],[36.040678,52.915911],[36.040663,52.915893],[36.040649,52.91588],[36.040637,52.915872],[36.040626,52.915868],[36.040616,52.915862],[36.040607,52.915855],[36.040599,52.915847],[36.040591,52.915837],[36.040572,52.915824],[36.040541,52.915805],[36.040497,52.915783],[36.040442,52.915756],[36.040398,52.915735],[36.040365,52.91572],[36.040343,52.915711],[36.040333,52.915708],[36.040324,52.915701],[36.040317,52.915688],[36.040311,52.915671],[36.040305,52.915649],[36.040302,52.915629],[36.040301,52.915611],[36.040302,52.915594],[36.040305,52.91558],[36.040305,52.915564],[36.0403,52.915547],[36.040292,52.915528],[36.04028,52.915508],[36.04027,52.915488],[36.040262,52.915468],[36.040255,52.915449],[36.040249,52.915429],[36.04024,52.91541],[36.040227,52.915391],[36.040211,52.915372],[36.04019,52.915352],[36.040169,52.915335],[36.040146,52.915318],[36.040123,52.915303],[36.040098,52.915289],[36.040083,52.915277],[36.04008,52.915266],[36.040087,52.915258],[36.040104,52.915251],[36.040135,52.915244],[36.040178,52.915236],[36.040234,52.915228],[36.040303,52.915219],[36.04036,52.91521],[36.040405,52.915202],[36.040438,52.915194],[36.04046,52.915187],[36.040483,52.91518],[36.040507,52.915173],[36.040533,52.915167],[36.040561,52.915161],[36.040584,52.915153],[36.040603,52.915142],[36.040618,52.915129],[36.040628,52.915113],[36.040641,52.915095],[36.040658,52.915074],[36.040678,52.91505],[36.040701,52.915024],[36.040721,52.915005],[36.040739,52.914991],[36.040754,52.914985],[36.040767,52.914985],[36.040779,52.914989],[36.04079,52.914996],[36.040801,52.915007],[36.040812,52.915021],[36.040821,52.915036],[36.040828,52.915051],[36.040834,52.915066],[36.040838,52.915082],[36.040844,52.915098],[36.040853,52.915114],[36.040864,52.915131],[36.040878,52.915149],[36.040898,52.915167],[36.040923,52.915185],[36.040956,52.915203],[36.040994,52.915221],[36.041034,52.915236],[36.041076,52.915248],[36.041119,52.915257],[36.041165,52.915263],[36.041205,52.915268],[36.041241,52.915271],[36.041273,52.915272],[36.0413,52.915272],[36.041324,52.915273],[36.041346,52.915276],[36.041365,52.915279],[36.041382,52.915283],[36.041395,52.91529],[36.041404,52.915298],[36.04141,52.915308],[36.041413,52.91532],[36.041414,52.915333],[36.041413,52.915345],[36.04141,52.915357],[36.041405,52.915369],[36.041404,52.91538],[36.041407,52.915391],[36.041414,52.915402],[36.041425,52.915412],[36.04144,52.91542],[36.041458,52.915427],[36.04148,52.915431],[36.041506,52.915434],[36.04153,52.915438],[36.041554,52.915442],[36.041576,52.915447],[36.041597,52.915454],[36.041618,52.915461],[36.041638,52.915469],[36.041657,52.915478],[36.041675,52.915488],[36.041692,52.9155],[36.041708,52.915514],[36.041724,52.91553],[36.041739,52.915547],[36.041756,52.915565],[36.041777,52.915583],[36.041801,52.915602],[36.041828,52.915621],[36.041859,52.915639],[36.041893,52.915657],[36.041931,52.915673],[36.041972,52.915689],[36.04201,52.915705],[36.042043,52.915721],[36.042074,52.915737],[36.0421,52.915752],[36.042122,52.915767],[36.04214,52.915781],[36.042154,52.915793],[36.042164,52.915805],[36.042184,52.915813],[36.042214,52.915819],[36.042255,52.915821],[36.042305,52.91582],[36.042351,52.915825],[36.042392,52.915835],[36.042429,52.91585],[36.04246,52.91587],[36.042497,52.915898],[36.042537,52.915935],[36.042582,52.91598],[36.042632,52.916033],[36.042673,52.91608],[36.042705,52.916119],[36.042729,52.91615],[36.042743,52.916175],[36.042757,52.916199],[36.042769,52.916224],[36.04278,52.916248],[36.042789,52.916272],[36.042802,52.916295],[36.042819,52.916318],[36.042838,52.916339],[36.042862,52.91636],[36.042885,52.916377],[36.042909,52.916389],[36.042934,52.916397],[36.042958,52.916401],[36.042982,52.916407],[36.043004,52.916414],[36.043024,52.916422],[36.043044,52.916431],[36.043064,52.916443],[36.043086,52.916457],[36.04311,52.916472],[36.043134,52.91649],[36.043163,52.916509],[36.043196,52.916528],[36.043233,52.916549],[36.043273,52.91657],[36.043313,52.91659],[36.043352,52.916608],[36.04339,52.916625],[36.043427,52.91664],[36.04347,52.916654],[36.043517,52.916667],[36.04357,52.916679],[36.043627,52.916689],[36.043685,52.916697],[36.043744,52.916702],[36.043803,52.916703],[36.043863,52.916701],[36.04392,52.916696],[36.043974,52.916688],[36.044024,52.916676],[36.044071,52.916661],[36.044115,52.916651],[36.044153,52.916646],[36.044187,52.916646],[36.044217,52.916651],[36.04425,52.916656],[36.044285,52.916659],[36.044322,52.916661],[36.044362,52.916662],[36.044398,52.916662],[36.044428,52.91666],[36.044454,52.916658],[36.044475,52.916654],[36.044493,52.916648],[36.044507,52.916639],[36.044519,52.916628],[36.044527,52.916615],[36.04454,52.916601],[36.044558,52.916587],[36.04458,52.916574],[36.044606,52.91656],[36.044652,52.91655],[36.044716,52.916545],[36.044799,52.916543],[36.044901,52.916546],[36.044982,52.916548],[36.045041,52.916551],[36.045079,52.916554],[36.045096,52.916557],[36.045121,52.916564],[36.045155,52.916576],[36.045197,52.916593],[36.045249,52.916614],[36.045302,52.916629],[36.045358,52.916639],[36.045416,52.916642],[36.045477,52.91664],[36.045527,52.916632],[36.045569,52.916619],[36.0456,52.916601],[36.045622,52.916577],[36.045653,52.916552],[36.045694,52.916524],[36.045743,52.916494],[36.045801,52.916462],[36.045869,52.916427],[36.045945,52.916392],[36.04603,52.916354],[36.046124,52.916314],[36.046215,52.916281],[36.046304,52.916256],[36.046389,52.916237],[36.046472,52.916225],[36.046539,52.916217],[36.046589,52.916214],[36.046624,52.916214],[36.046642,52.916219],[36.046659,52.916226],[36.046674,52.916234],[36.046688,52.916244],[36.0467,52.916256],[36.04672,52.916266],[36.046749,52.916275],[36.046786,52.916281],[36.046831,52.916286],[36.04687,52.916294],[36.046902,52.916306],[36.046929,52.91632],[36.046949,52.916338],[36.046968,52.916355],[36.046987,52.916369],[36.047004,52.916382],[36.04702,52.916393],[36.047035,52.916408],[36.04705,52.916427],[36.047064,52.916449],[36.047078,52.916476],[36.04709,52.916513],[36.047101,52.916561],[36.047111,52.916618]]]}},{"type":"Feature","properties":{"full_id":"w1126367092","osm_id":"1126367092","osm_type":"way","natural":"water","intermittent":null,"name":null,"water":"pond","type":null},"geometry":{"type":"Polygon","coordinates":[[[36.012702,52.946563],[36.01266,52.946501],[36.012804,52.946313],[36.012921,52.946301],[36.013103,52.94609],[36.013225,52.946062],[36.013024,52.946422],[36.013005,52.946529],[36.012875,52.946574],[36.012702,52.946563]]]}},{"type":"Feature","properties":{"full_id":"w1126776270","osm_id":"1126776270","osm_type":"way","natural":"water","intermittent":null,"name":null,"water":"pond","type":null},"geometry":{"type":"Polygon","coordinates":[[[36.034615,52.92257],[36.034703,52.922555],[36.034977,52.922589],[36.034878,52.922699],[36.034658,52.922628],[36.034615,52.92257]]]}},{"type":"Feature","properties":{"full_id":"w1134602865","osm_id":"1134602865","osm_type":"way","natural":"water","intermittent":null,"name":null,"water":"pond","type":null},"geometry":{"type":"Polygon","coordinates":[[[36.105233,52.991415],[36.105127,52.991325],[36.105148,52.991052],[36.105276,52.990912],[36.105467,52.990895],[36.105587,52.990925],[36.105806,52.991142],[36.105884,52.991278],[36.105813,52.991334],[36.105495,52.991406],[36.105233,52.991415]]]}},{"type":"Feature","properties":{"full_id":"w1153350319","osm_id":"1153350319","osm_type":"way","natural":"water","intermittent":null,"name":null,"water":null,"type":null},"geometry":{"type":"Polygon","coordinates":[[[36.067806,52.972929],[36.067897,52.972885],[36.068055,52.972996],[36.068067,52.973025],[36.068054,52.97305],[36.068009,52.973056],[36.067964,52.973048],[36.067806,52.972929]]]}},{"type":"Feature","properties":{"full_id":"w1156243152","osm_id":"1156243152","osm_type":"way","natural":"water","intermittent":null,"name":null,"water":"pond","type":null},"geometry":{"type":"Polygon","coordinates":[[[36.123898,53.008957],[36.12388,53.008886],[36.123965,53.008864],[36.124129,53.008898],[36.124293,53.008864],[36.124531,53.00893],[36.124569,53.009085],[36.124558,53.009178],[36.1244,53.009185],[36.123898,53.008957]]]}},{"type":"Feature","properties":{"full_id":"w1156928670","osm_id":"1156928670","osm_type":"way","natural":"water","intermittent":null,"name":null,"water":null,"type":null},"geometry":{"type":"Polygon","coordinates":[[[36.093068,52.973911],[36.093168,52.973825],[36.093294,52.973875],[36.093199,52.973964],[36.093068,52.973911]]]}},{"type":"Feature","properties":{"full_id":"w1157373174","osm_id":"1157373174","osm_type":"way","natural":"water","intermittent":null,"name":null,"water":null,"type":null},"geometry":{"type":"Polygon","coordinates":[[[36.184468,52.988181],[36.184249,52.988166],[36.18398,52.988132],[36.183934,52.988062],[36.184008,52.987992],[36.184454,52.987936],[36.184461,52.988052],[36.184468,52.988181]]]}},{"type":"Feature","properties":{"full_id":"w1167733443","osm_id":"1167733443","osm_type":"way","natural":"water","intermittent":null,"name":null,"water":"pond","type":null},"geometry":{"type":"Polygon","coordinates":[[[36.168126,53.006169],[36.167719,53.005145],[36.168762,53.004979],[36.168126,53.006169]]]}},{"type":"Feature","properties":{"full_id":"w1444156174","osm_id":"1444156174","osm_type":"way","natural":"water","intermittent":null,"name":null,"water":null,"type":null},"geometry":{"type":"Polygon","coordinates":[[[36.15432,53.01401],[36.15407,53.014128],[36.153816,53.013933],[36.154067,53.013815],[36.15432,53.01401]]]}},{"type":"Feature","properties":{"full_id":"w36737569","osm_id":"36737569","osm_type":"way","natural":"water","intermittent":null,"name":null,"water":"river","type":null},"geometry":{"type":"MultiPolygon","coordinates":[[[[36.089181,52.94516],[36.089146,52.945219],[36.089119,52.945288],[36.089071,52.945478],[36.088887,52.946596],[36.088853,52.946864],[36.088833,52.947151],[36.088826,52.947414],[36.088855,52.948416],[36.088851,52.948786],[36.088836,52.949098],[36.088786,52.94962],[36.088686,52.950464],[36.088604,52.951087],[36.088536,52.951488],[36.088463,52.951819],[36.088376,52.952138],[36.088274,52.952447],[36.088138,52.952792],[36.087987,52.953123],[36.087825,52.953438],[36.087649,52.953738],[36.087434,52.954063],[36.087263,52.954292],[36.087063,52.954545],[36.08689,52.954748],[36.086686,52.954969],[36.08654,52.955117],[36.085982,52.955651],[36.085378,52.956242],[36.085201,52.956406],[36.085023,52.956558],[36.084854,52.956685],[36.084696,52.956781],[36.084414,52.956932],[36.083832,52.957218],[36.083538,52.957374],[36.083152,52.957599],[36.082705,52.957883],[36.081965,52.958385],[36.081127,52.958981],[36.080642,52.959343],[36.08047,52.959481],[36.08029,52.959637],[36.080006,52.959847],[36.079414,52.960247],[36.078387,52.960918],[36.078188,52.961059],[36.07803,52.961185],[36.07787,52.961331],[36.077508,52.961721],[36.077261,52.961975],[36.075778,52.963417],[36.075288,52.963909],[36.074515,52.964723],[36.072544,52.966906],[36.07153,52.968062],[36.071313,52.968334],[36.071161,52.968553],[36.07111,52.968642],[36.07104,52.968792],[36.07098,52.968934],[36.07094,52.969051],[36.070861,52.969395],[36.070792,52.969804],[36.070754,52.970176],[36.070743,52.970504],[36.070763,52.970792],[36.070814,52.971121],[36.07081,52.971177],[36.07087,52.971325],[36.070926,52.971419],[36.070944,52.971436],[36.070979,52.971451],[36.071015,52.971487],[36.071181,52.971707],[36.071295,52.971838],[36.071582,52.972109],[36.071821,52.972307],[36.072106,52.972511],[36.072328,52.972649],[36.072741,52.972886],[36.073068,52.973067],[36.073283,52.97318],[36.073742,52.973402],[36.073848,52.973464],[36.074032,52.973542],[36.074176,52.973596],[36.074249,52.973612],[36.074342,52.973645],[36.075177,52.973976],[36.075595,52.974129],[36.075864,52.974215],[36.076565,52.97441],[36.076942,52.974509],[36.077319,52.974598],[36.078642,52.974876],[36.08094,52.975379],[36.081264,52.975459],[36.081526,52.975543],[36.081659,52.975575],[36.081766,52.975584],[36.081918,52.975575],[36.08213,52.975578],[36.082313,52.975592],[36.082535,52.975617],[36.086033,52.976086],[36.0873,52.976247],[36.088873,52.976433],[36.089314,52.976493],[36.089601,52.97654],[36.089774,52.976576],[36.089889,52.97661],[36.090049,52.976666],[36.090169,52.976718],[36.090264,52.976771],[36.090368,52.976848],[36.090428,52.97691],[36.090477,52.976982],[36.090512,52.977012],[36.090584,52.977046],[36.090681,52.977069],[36.090746,52.977075],[36.090822,52.977074],[36.090897,52.977062],[36.090962,52.977045],[36.091086,52.976994],[36.09121,52.976932],[36.091273,52.976888],[36.091364,52.97681],[36.091388,52.976796],[36.091417,52.976787],[36.091452,52.976784],[36.091535,52.976791],[36.091864,52.976864],[36.09256,52.977029],[36.093064,52.977153],[36.093371,52.977233],[36.093677,52.977329],[36.094258,52.977521],[36.094466,52.977598],[36.094657,52.977679],[36.094803,52.97775],[36.094937,52.977823],[36.095036,52.977884],[36.095148,52.977963],[36.095238,52.978036],[36.095332,52.978126],[36.095538,52.978354],[36.095676,52.978529],[36.095824,52.978729],[36.096132,52.979188],[36.096381,52.979609],[36.096543,52.979935],[36.096636,52.980181],[36.097016,52.981478],[36.097016,52.983063],[36.096986,52.983117],[36.096957,52.983146],[36.096927,52.983167],[36.096848,52.983202],[36.096716,52.983241],[36.096648,52.983266],[36.096595,52.983295],[36.096567,52.983322],[36.09656,52.983342],[36.096561,52.983366],[36.096617,52.983475],[36.096656,52.983568],[36.096683,52.983666],[36.096698,52.983763],[36.096694,52.983844],[36.096677,52.983922],[36.09665,52.983997],[36.0966,52.984097],[36.096507,52.984256],[36.096391,52.984438],[36.096155,52.984757],[36.095838,52.985146],[36.095013,52.986115],[36.094962,52.986202],[36.094956,52.986231],[36.094963,52.986288],[36.094948,52.986312],[36.094795,52.986371],[36.094425,52.986529],[36.094224,52.986606],[36.094134,52.986624],[36.093951,52.986634],[36.093897,52.986645],[36.093846,52.986663],[36.093819,52.986677],[36.093792,52.986706],[36.093761,52.986725],[36.093589,52.986791],[36.093442,52.986858],[36.093169,52.986993],[36.092903,52.987132],[36.092653,52.987277],[36.092384,52.987461],[36.092297,52.987509],[36.092221,52.987544],[36.092109,52.987578],[36.09205,52.987587],[36.091968,52.987591],[36.091895,52.987602],[36.091773,52.987629],[36.091638,52.987666],[36.091411,52.987736],[36.091197,52.987808],[36.090998,52.987882],[36.09088,52.987934],[36.090665,52.98805],[36.090432,52.988199],[36.090101,52.988438],[36.089681,52.988773],[36.089457,52.98894],[36.089186,52.989125],[36.088955,52.989257],[36.088773,52.989344],[36.088581,52.989424],[36.086842,52.990073],[36.08594,52.990423],[36.085495,52.990605],[36.084646,52.990967],[36.084018,52.991222],[36.083872,52.991286],[36.083721,52.991361],[36.083565,52.991448],[36.083404,52.991546],[36.083196,52.991685],[36.083024,52.99181],[36.082802,52.991981],[36.082624,52.992128],[36.082464,52.992271],[36.082295,52.992442],[36.082157,52.992604],[36.082053,52.992758],[36.081981,52.992903],[36.081946,52.993013],[36.081915,52.993218],[36.08188,52.993525],[36.081861,52.993818],[36.081836,52.993965],[36.081799,52.994098],[36.081754,52.994217],[36.081698,52.994337],[36.081637,52.994441],[36.081537,52.99458],[36.081433,52.994704],[36.081014,52.995136],[36.08051,52.995687],[36.080411,52.995785],[36.080307,52.995876],[36.080081,52.996038],[36.079956,52.996163],[36.079868,52.996277],[36.07969,52.996549],[36.079539,52.996799],[36.079424,52.997013],[36.079242,52.997388],[36.079091,52.997731],[36.078987,52.99801],[36.078925,52.99823],[36.078891,52.998416],[36.078873,52.998629],[36.07887,52.99887],[36.07888,52.999173],[36.078872,52.999337],[36.07883,52.99958],[36.078792,52.999726],[36.078741,52.999877],[36.078663,53.000074],[36.078568,53.000278],[36.078468,53.000465],[36.078374,53.000617],[36.078285,53.000734],[36.078201,53.000817],[36.078122,53.000865],[36.078077,53.000877],[36.078048,53.000878],[36.078008,53.000869],[36.077976,53.00085],[36.077961,53.000831],[36.077947,53.000794],[36.077946,53.000708],[36.077974,53.000593],[36.078017,53.000479],[36.078078,53.000347],[36.0783,52.999931],[36.078407,52.999714],[36.078477,52.999546],[36.078511,52.999427],[36.078514,52.99938],[36.078466,52.998855],[36.078457,52.99863],[36.078468,52.998456],[36.078515,52.998212],[36.078582,52.997947],[36.078664,52.997697],[36.078777,52.997412],[36.078917,52.997097],[36.079087,52.996755],[36.079241,52.996484],[36.079431,52.996196],[36.079628,52.995938],[36.079777,52.995772],[36.080013,52.995535],[36.080773,52.994824],[36.081063,52.994545],[36.081184,52.994409],[36.081273,52.994284],[36.081331,52.994184],[36.081379,52.994082],[36.081428,52.993951],[36.081461,52.993835],[36.081489,52.993691],[36.081592,52.992933],[36.081613,52.992842],[36.081658,52.992715],[36.081705,52.992617],[36.081763,52.992516],[36.081886,52.992341],[36.08204,52.992159],[36.082226,52.991968],[36.08253,52.991694],[36.082838,52.991452],[36.083012,52.99133],[36.083141,52.991246],[36.083312,52.991146],[36.083439,52.991079],[36.083648,52.990982],[36.084145,52.99079],[36.084517,52.990641],[36.085761,52.990115],[36.086263,52.989915],[36.087634,52.98938],[36.088128,52.989179],[36.088356,52.989079],[36.088688,52.98891],[36.088867,52.988808],[36.089044,52.988698],[36.089217,52.988583],[36.089533,52.988358],[36.090078,52.987955],[36.090179,52.987889],[36.090293,52.987823],[36.090477,52.987729],[36.09073,52.987615],[36.091014,52.987495],[36.091488,52.987304],[36.091767,52.987182],[36.092075,52.987034],[36.092308,52.986909],[36.092437,52.986831],[36.092552,52.986754],[36.092965,52.986431],[36.093433,52.986097],[36.093827,52.985831],[36.09401,52.985689],[36.094236,52.98548],[36.094588,52.985128],[36.094789,52.9849],[36.094981,52.984655],[36.095134,52.984415],[36.09527,52.98415],[36.095601,52.983382],[36.095817,52.982828],[36.095922,52.982515],[36.095984,52.982264],[36.09601,52.982056],[36.096002,52.981865],[36.09596,52.98161],[36.095872,52.981185],[36.095775,52.980831],[36.095692,52.980596],[36.095593,52.980352],[36.095495,52.980138],[36.095355,52.979859],[36.095217,52.979605],[36.095079,52.979377],[36.094944,52.979176],[36.09478,52.978959],[36.094642,52.978797],[36.094513,52.978668],[36.094365,52.978546],[36.094213,52.978444],[36.094113,52.978387],[36.093997,52.978329],[36.09386,52.978272],[36.093731,52.978226],[36.093474,52.978151],[36.093162,52.978091],[36.092321,52.97796],[36.090219,52.97766],[36.089094,52.977494],[36.088351,52.977375],[36.087177,52.977171],[36.086991,52.977146],[36.086834,52.977137],[36.086669,52.977113],[36.085739,52.976939],[36.085469,52.976898],[36.085167,52.976862],[36.085016,52.976836],[36.084828,52.97679],[36.084532,52.976685],[36.084421,52.976654],[36.084388,52.976652],[36.084358,52.976655],[36.084272,52.976685],[36.084174,52.976701],[36.084095,52.976702],[36.083968,52.976692],[36.083688,52.976659],[36.082321,52.976471],[36.081771,52.97639],[36.081215,52.976294],[36.081015,52.976254],[36.080862,52.976218],[36.080769,52.976189],[36.080718,52.976168],[36.080695,52.976152],[36.080665,52.976113],[36.080606,52.976079],[36.080524,52.97605],[36.080409,52.976021],[36.080337,52.97601],[36.080265,52.976007],[36.080213,52.976014],[36.080121,52.976038],[36.080066,52.97604],[36.080013,52.976037],[36.079943,52.976027],[36.079331,52.975902],[36.078291,52.975662],[36.076962,52.975339],[36.076188,52.975138],[36.07564,52.974978],[36.075191,52.974834],[36.074561,52.974625],[36.074002,52.974434],[36.073726,52.974334],[36.073522,52.974252],[36.073357,52.97418],[36.072556,52.973798],[36.072254,52.973643],[36.072002,52.973506],[36.071425,52.973162],[36.071335,52.973097],[36.071224,52.97299],[36.071142,52.972925],[36.071075,52.972882],[36.070991,52.972846],[36.070905,52.972793],[36.070774,52.972701],[36.070719,52.972645],[36.070608,52.972583],[36.070327,52.972389],[36.070259,52.972327],[36.070178,52.97224],[36.06992,52.971927],[36.069681,52.9716],[36.069538,52.971364],[36.069474,52.97123],[36.069412,52.971075],[36.069352,52.970893],[36.069319,52.970762],[36.06929,52.970521],[36.069262,52.969832],[36.069251,52.969744],[36.069228,52.969668],[36.069129,52.96941],[36.069018,52.969192],[36.068834,52.968899],[36.068747,52.968772],[36.06866,52.968658],[36.06857,52.968517],[36.068514,52.968381],[36.068467,52.968214],[36.068443,52.967978],[36.068436,52.967592],[36.068479,52.966022],[36.068466,52.96594],[36.068422,52.965835],[36.068371,52.965747],[36.068292,52.965646],[36.068221,52.965569],[36.068108,52.965481],[36.067887,52.96533],[36.067568,52.965127],[36.066948,52.964747],[36.066309,52.964363],[36.066025,52.9642],[36.06573,52.964043],[36.065489,52.963925],[36.064696,52.963552],[36.06431,52.963382],[36.064129,52.963321],[36.063899,52.963258],[36.063676,52.963208],[36.063408,52.963158],[36.062606,52.963021],[36.062127,52.962949],[36.061599,52.962885],[36.061444,52.962872],[36.061289,52.962865],[36.061101,52.962866],[36.060943,52.962872],[36.060753,52.962889],[36.060562,52.962914],[36.060397,52.962944],[36.060222,52.962982],[36.060039,52.96303],[36.059847,52.963087],[36.059563,52.963181],[36.059263,52.963293],[36.058516,52.963581],[36.057848,52.963847],[36.05759,52.963958],[36.057345,52.964075],[36.057111,52.964195],[36.05689,52.96432],[36.056581,52.964514],[36.056217,52.964763],[36.055956,52.964956],[36.055619,52.965224],[36.055433,52.965359],[36.055213,52.965505],[36.054906,52.965694],[36.054732,52.965815],[36.054587,52.965926],[36.054445,52.966045],[36.054056,52.966412],[36.053865,52.966578],[36.0537,52.966699],[36.053612,52.966751],[36.053534,52.96679],[36.053384,52.966846],[36.053208,52.966888],[36.052955,52.966926],[36.05263,52.966958],[36.051871,52.967022],[36.051749,52.967028],[36.051621,52.967027],[36.051488,52.967021],[36.051351,52.967008],[36.05119,52.966986],[36.050984,52.966949],[36.050778,52.966899],[36.049897,52.966643],[36.04972,52.966587],[36.049543,52.966523],[36.049188,52.966378],[36.048796,52.966191],[36.048471,52.966016],[36.048372,52.965955],[36.048293,52.965896],[36.048135,52.965746],[36.047974,52.965563],[36.047803,52.965339],[36.047661,52.965123],[36.04756,52.964947],[36.047481,52.964791],[36.047101,52.963951],[36.046892,52.963524],[36.046779,52.963322],[36.046645,52.963106],[36.046521,52.962923],[36.046392,52.962758],[36.046244,52.962594],[36.046108,52.962468],[36.045951,52.962346],[36.045785,52.962239],[36.04561,52.962145],[36.045407,52.962055],[36.045176,52.961972],[36.044974,52.961917],[36.044784,52.961887],[36.044564,52.961871],[36.044391,52.961872],[36.044236,52.961893],[36.044147,52.961914],[36.044038,52.961947],[36.043801,52.962035],[36.043559,52.962139],[36.043347,52.962247],[36.04311,52.962388],[36.042861,52.962549],[36.042638,52.962707],[36.042515,52.96281],[36.042443,52.962883],[36.042375,52.962963],[36.042134,52.9633],[36.041883,52.963617],[36.041708,52.963802],[36.04162,52.963881],[36.041531,52.963952],[36.041382,52.964052],[36.041202,52.96416],[36.041036,52.96425],[36.040856,52.964338],[36.040667,52.964421],[36.040485,52.964493],[36.040289,52.964561],[36.040134,52.964604],[36.040018,52.964628],[36.039917,52.964643],[36.039594,52.964676],[36.03944,52.964684],[36.039297,52.964682],[36.039114,52.964669],[36.038968,52.964652],[36.038844,52.964629],[36.038733,52.964598],[36.038602,52.964552],[36.037986,52.964316],[36.037693,52.964195],[36.037276,52.96401],[36.036869,52.963838],[36.036604,52.963701],[36.036287,52.96351],[36.036001,52.963324],[36.035477,52.962964],[36.034971,52.96264],[36.034854,52.962554],[36.034749,52.962464],[36.034644,52.962357],[36.034567,52.962263],[36.034492,52.962152],[36.03442,52.962028],[36.034362,52.961908],[36.034319,52.961792],[36.03429,52.961679],[36.034278,52.961581],[36.034278,52.961483],[36.03429,52.961385],[36.034318,52.961274],[36.034358,52.961164],[36.03441,52.961056],[36.034472,52.960949],[36.03464,52.960717],[36.034878,52.960443],[36.034968,52.960316],[36.034991,52.960262],[36.034999,52.960217],[36.034995,52.960175],[36.034976,52.960119],[36.034944,52.960061],[36.034893,52.959994],[36.034827,52.959922],[36.034737,52.959836],[36.034601,52.959729],[36.034397,52.959597],[36.034304,52.95953],[36.034205,52.959445],[36.034111,52.959345],[36.034024,52.959234],[36.033947,52.959111],[36.03387,52.958961],[36.033774,52.958718],[36.03373,52.958649],[36.033678,52.958597],[36.033613,52.958554],[36.033532,52.958515],[36.033437,52.958482],[36.033331,52.958455],[36.033214,52.958436],[36.03309,52.958423],[36.032964,52.958418],[36.032836,52.95842],[36.032709,52.958432],[36.032586,52.958455],[36.0325,52.95848],[36.032309,52.958546],[36.032141,52.958609],[36.032034,52.958658],[36.031954,52.958706],[36.031896,52.958758],[36.031829,52.958843],[36.03177,52.95894],[36.031728,52.959046],[36.031704,52.959151],[36.031699,52.959228],[36.031706,52.959295],[36.03172,52.959352],[36.031761,52.959462],[36.031778,52.959545],[36.031777,52.959625],[36.031758,52.959714],[36.031718,52.959819],[36.031659,52.959933],[36.031562,52.960092],[36.031447,52.960262],[36.031301,52.960458],[36.031144,52.960652],[36.031044,52.960756],[36.030929,52.960858],[36.030764,52.960982],[36.030512,52.961146],[36.030199,52.961338],[36.029995,52.96145],[36.02975,52.96157],[36.02948,52.961694],[36.028924,52.961935],[36.028582,52.962076],[36.028412,52.962135],[36.028245,52.962182],[36.02808,52.962218],[36.027881,52.962249],[36.027682,52.962271],[36.027464,52.962286],[36.02729,52.962289],[36.027067,52.962283],[36.02675,52.962261],[36.026185,52.962205],[36.025763,52.962169],[36.024586,52.962083],[36.024263,52.962067],[36.023981,52.962066],[36.02378,52.962082],[36.023587,52.962118],[36.023186,52.962232],[36.022781,52.962341],[36.022548,52.962416],[36.022444,52.962457],[36.022343,52.962504],[36.02213,52.962615],[36.022016,52.962684],[36.021946,52.962745],[36.021887,52.962815],[36.02183,52.962899],[36.021789,52.962984],[36.021763,52.963065],[36.021746,52.963153],[36.021726,52.963483],[36.021709,52.963601],[36.021664,52.963816],[36.021654,52.963962],[36.021662,52.964041],[36.021682,52.96412],[36.021707,52.964187],[36.021774,52.964315],[36.021814,52.96441],[36.021832,52.964469],[36.021834,52.964527],[36.021817,52.964592],[36.021778,52.964657],[36.021701,52.964747],[36.021583,52.964862],[36.021457,52.964976],[36.02134,52.965072],[36.021241,52.965144],[36.021131,52.965213],[36.021038,52.965261],[36.020897,52.965319],[36.020773,52.96536],[36.020666,52.965387],[36.020536,52.965405],[36.020403,52.965405],[36.020317,52.965396],[36.020161,52.965367],[36.020041,52.965351],[36.019871,52.965338],[36.019561,52.965324],[36.019495,52.965315],[36.019466,52.965303],[36.019469,52.965295],[36.01949,52.965285],[36.019561,52.965268],[36.019659,52.965255],[36.019787,52.965246],[36.019934,52.965241],[36.020072,52.965243],[36.020203,52.965251],[36.020364,52.96527],[36.020465,52.965274],[36.020595,52.965265],[36.020716,52.965238],[36.020803,52.965208],[36.020892,52.965168],[36.020982,52.965118],[36.021073,52.965059],[36.021175,52.964983],[36.021276,52.9649],[36.021388,52.964798],[36.021467,52.964715],[36.02152,52.964649],[36.021561,52.964581],[36.021579,52.964528],[36.021583,52.964471],[36.021573,52.964409],[36.021553,52.96435],[36.021475,52.964196],[36.021445,52.964118],[36.02139,52.963896],[36.021362,52.9637],[36.021354,52.963584],[36.021358,52.963448],[36.021377,52.963316],[36.02141,52.963187],[36.021459,52.963063],[36.021565,52.962859],[36.02165,52.962719],[36.021719,52.962639],[36.021807,52.962583],[36.021919,52.962521],[36.022394,52.962295],[36.02255,52.96223],[36.022716,52.962171],[36.022936,52.962109],[36.023322,52.962018],[36.023483,52.961984],[36.023634,52.961966],[36.02392,52.961949],[36.024232,52.961947],[36.024643,52.961958],[36.025046,52.961978],[36.0253,52.961997],[36.025582,52.962025],[36.026385,52.962128],[36.026814,52.962176],[36.027019,52.962192],[36.027212,52.962196],[36.027352,52.962191],[36.027485,52.962179],[36.027704,52.96215],[36.027886,52.962117],[36.028017,52.962086],[36.028162,52.962044],[36.028516,52.96192],[36.028941,52.961744],[36.029661,52.961418],[36.029881,52.961305],[36.030168,52.961143],[36.030383,52.961009],[36.030608,52.960845],[36.030819,52.960664],[36.03101,52.960473],[36.031156,52.960298],[36.031288,52.960104],[36.031392,52.959903],[36.031447,52.959744],[36.031461,52.959631],[36.031451,52.959482],[36.031427,52.959385],[36.031381,52.959283],[36.031356,52.959209],[36.031337,52.959115],[36.031327,52.95901],[36.03133,52.958934],[36.031346,52.958863],[36.031373,52.958812],[36.031418,52.958767],[36.031479,52.958723],[36.031559,52.958675],[36.031792,52.958562],[36.032125,52.958423],[36.032382,52.958331],[36.032518,52.958296],[36.032633,52.958278],[36.032813,52.958271],[36.033035,52.958279],[36.033133,52.958288],[36.033232,52.958305],[36.033416,52.958352],[36.033626,52.958431],[36.033714,52.958475],[36.033773,52.958512],[36.033834,52.958569],[36.033905,52.958657],[36.033976,52.958764],[36.034184,52.95911],[36.034242,52.959186],[36.034313,52.959262],[36.034429,52.959362],[36.034567,52.959462],[36.035048,52.959757],[36.035138,52.959817],[36.035232,52.959895],[36.035264,52.959931],[36.03529,52.959972],[36.03531,52.960045],[36.035311,52.960129],[36.035292,52.960211],[36.035252,52.960313],[36.035147,52.960496],[36.034741,52.961099],[36.034674,52.96124],[36.034624,52.9614],[36.034608,52.961495],[36.034602,52.961589],[36.034606,52.961683],[36.034623,52.961778],[36.034649,52.961849],[36.034682,52.961909],[36.034733,52.961981],[36.034797,52.962055],[36.034947,52.962191],[36.035199,52.962402],[36.035447,52.962598],[36.035691,52.962778],[36.035921,52.962937],[36.036181,52.963106],[36.036501,52.963305],[36.036794,52.963479],[36.03699,52.963587],[36.037196,52.963692],[36.037657,52.9639],[36.038554,52.964276],[36.038802,52.964372],[36.038959,52.964424],[36.039151,52.964469],[36.039317,52.964487],[36.039514,52.964485],[36.039742,52.964463],[36.039944,52.964424],[36.040162,52.96436],[36.040385,52.964281],[36.040465,52.964244],[36.040536,52.964205],[36.040658,52.964125],[36.040812,52.964013],[36.040905,52.963937],[36.041003,52.963845],[36.041454,52.963339],[36.04187,52.962852],[36.042057,52.962663],[36.0423,52.962444],[36.042519,52.962266],[36.042703,52.962135],[36.043311,52.961791],[36.043412,52.961739],[36.043566,52.961677],[36.043732,52.961627],[36.043911,52.961591],[36.044102,52.961566],[36.044365,52.961548],[36.044579,52.961546],[36.044773,52.961559],[36.044969,52.961587],[36.045226,52.961636],[36.045468,52.961699],[36.045681,52.961772],[36.045927,52.961876],[36.046156,52.96199],[36.046355,52.962109],[36.046507,52.96222],[36.046675,52.962369],[36.046823,52.962524],[36.046979,52.962703],[36.047098,52.962858],[36.047239,52.963059],[36.047404,52.963318],[36.047692,52.963799],[36.048065,52.964469],[36.048163,52.964618],[36.048302,52.964808],[36.048562,52.965124],[36.048807,52.965386],[36.048979,52.965545],[36.049367,52.965878],[36.04943,52.965924],[36.049512,52.965974],[36.049628,52.966034],[36.049766,52.966097],[36.04992,52.96616],[36.050145,52.966237],[36.0504,52.9663],[36.051313,52.966497],[36.051636,52.966559],[36.051898,52.966605],[36.052101,52.966633],[36.052271,52.966648],[36.052431,52.966652],[36.052579,52.966646],[36.052717,52.966631],[36.052851,52.96661],[36.052964,52.966587],[36.05305,52.966564],[36.05318,52.966517],[36.053322,52.966457],[36.053429,52.966407],[36.05353,52.966347],[36.053688,52.966231],[36.053862,52.96608],[36.054216,52.965735],[36.054925,52.965023],[36.055151,52.964814],[36.055307,52.964689],[36.055596,52.964512],[36.055735,52.964386],[36.05601,52.964187],[36.056178,52.964079],[36.056343,52.963982],[36.056562,52.963866],[36.05679,52.963758],[36.05712,52.963616],[36.057485,52.963466],[36.058468,52.963084],[36.059432,52.962738],[36.0596,52.962683],[36.059773,52.962635],[36.059951,52.962592],[36.060099,52.962564],[36.060274,52.962541],[36.060457,52.962527],[36.060977,52.962518],[36.061898,52.962553],[36.062239,52.962584],[36.062626,52.962632],[36.062952,52.962688],[36.063291,52.962761],[36.063644,52.962852],[36.064003,52.962961],[36.064288,52.96306],[36.064571,52.96317],[36.065516,52.963576],[36.065712,52.963678],[36.066043,52.963865],[36.06732,52.964622],[36.067783,52.964907],[36.068237,52.965196],[36.068499,52.965368],[36.068597,52.965445],[36.068709,52.965566],[36.068788,52.965676],[36.068817,52.965757],[36.068837,52.965882],[36.068837,52.966245],[36.068788,52.967885],[36.068795,52.968044],[36.068817,52.968157],[36.068862,52.968272],[36.068918,52.968361],[36.069045,52.968531],[36.069258,52.968792],[36.069286,52.968811],[36.069321,52.968828],[36.069422,52.968858],[36.069501,52.968863],[36.069595,52.968851],[36.0697,52.96882],[36.069726,52.968806],[36.069747,52.968786],[36.070176,52.968134],[36.070543,52.967623],[36.070923,52.967125],[36.071288,52.966664],[36.072214,52.965553],[36.072301,52.96542],[36.072311,52.96539],[36.072307,52.965351],[36.072327,52.96531],[36.072386,52.965225],[36.072484,52.965109],[36.072658,52.964919],[36.072787,52.964793],[36.072852,52.964746],[36.072869,52.964741],[36.072899,52.964743],[36.072932,52.964727],[36.072974,52.964695],[36.07302,52.964648],[36.073066,52.964594],[36.073087,52.964559],[36.073087,52.964531],[36.073068,52.964507],[36.07307,52.964501],[36.073259,52.964277],[36.073742,52.96374],[36.07439,52.963035],[36.074799,52.962601],[36.07505,52.962348],[36.075629,52.961812],[36.075796,52.961677],[36.075876,52.961626],[36.075949,52.961591],[36.076015,52.961572],[36.076107,52.961561],[36.076167,52.961549],[36.076217,52.96153],[36.07625,52.961505],[36.076268,52.961481],[36.076276,52.961452],[36.076272,52.961424],[36.076252,52.961372],[36.076246,52.961324],[36.076252,52.961243],[36.076269,52.961184],[36.076307,52.961125],[36.076372,52.961052],[36.076553,52.960881],[36.076784,52.960687],[36.077068,52.960463],[36.077422,52.960197],[36.077766,52.959947],[36.080536,52.958006],[36.081601,52.957273],[36.082061,52.956969],[36.082289,52.956829],[36.082451,52.956737],[36.082635,52.956644],[36.082905,52.95654],[36.083098,52.956453],[36.083318,52.956338],[36.083546,52.956202],[36.083712,52.956089],[36.083899,52.955936],[36.084037,52.955838],[36.08428,52.955686],[36.084705,52.955437],[36.084939,52.955282],[36.085069,52.955187],[36.085226,52.955061],[36.085378,52.954928],[36.085526,52.954788],[36.085725,52.954582],[36.085917,52.954369],[36.086102,52.95415],[36.086281,52.953924],[36.086453,52.953692],[36.086595,52.953485],[36.08673,52.953268],[36.086859,52.953043],[36.086981,52.952808],[36.087098,52.952564],[36.08717,52.952396],[36.087252,52.952179],[36.087325,52.951953],[36.087387,52.951719],[36.08744,52.951477],[36.087483,52.951227],[36.087562,52.950561],[36.087634,52.94983],[36.087674,52.94932],[36.087685,52.948947],[36.087681,52.948664],[36.087666,52.948377],[36.087561,52.947328],[36.087519,52.946643],[36.087513,52.946252],[36.087527,52.945925],[36.087558,52.945622],[36.087616,52.945248],[36.087632,52.944962],[36.087624,52.944766],[36.087602,52.944565],[36.087565,52.944359],[36.087523,52.944192],[36.08746,52.944002],[36.087398,52.943855],[36.087325,52.943716],[36.087225,52.943561],[36.087131,52.943442],[36.086925,52.94321],[36.086724,52.943],[36.086532,52.942811],[36.086352,52.942644],[36.086207,52.94252],[36.086009,52.942364],[36.085787,52.9422],[36.085539,52.942028],[36.085219,52.941818],[36.084942,52.941647],[36.084725,52.941521],[36.084403,52.941352],[36.084148,52.941237],[36.083915,52.94115],[36.0836,52.941059],[36.083143,52.940949],[36.082578,52.940833],[36.081917,52.940712],[36.08131,52.940615],[36.080619,52.940521],[36.079918,52.940441],[36.078543,52.940312],[36.076901,52.940168],[36.075859,52.94006],[36.073689,52.939797],[36.071105,52.939497],[36.070222,52.939381],[36.069605,52.939287],[36.06894,52.939165],[36.068118,52.938999],[36.067145,52.938791],[36.066449,52.938632],[36.065845,52.938481],[36.065388,52.938354],[36.065038,52.938243],[36.064723,52.938123],[36.064443,52.938003],[36.064149,52.937864],[36.063839,52.937706],[36.063514,52.93753],[36.063178,52.937337],[36.062788,52.937102],[36.062419,52.936868],[36.06207,52.936635],[36.061795,52.93644],[36.061534,52.936245],[36.061077,52.935887],[36.060743,52.935615],[36.060516,52.935414],[36.060159,52.935034],[36.060042,52.934933],[36.059976,52.934891],[36.059909,52.934856],[36.059797,52.934807],[36.05967,52.934761],[36.059591,52.934719],[36.059372,52.934577],[36.059042,52.934347],[36.058216,52.933744],[36.056956,52.932799],[36.055751,52.931922],[36.054551,52.931015],[36.053982,52.930608],[36.053432,52.930238],[36.052914,52.929907],[36.052521,52.929668],[36.052069,52.929411],[36.051627,52.929179],[36.051255,52.928998],[36.05095,52.928861],[36.050355,52.92861],[36.04961,52.928309],[36.048342,52.927822],[36.047261,52.927394],[36.045805,52.926804],[36.043797,52.925977],[36.043162,52.92573],[36.042602,52.925528],[36.040216,52.924739],[36.039601,52.924527],[36.039514,52.924492],[36.039199,52.924342],[36.038127,52.923868],[36.037688,52.923667],[36.037335,52.923499],[36.036951,52.923307],[36.036117,52.922861],[36.035616,52.922603],[36.035201,52.922399],[36.03445,52.922041],[36.0338,52.921714],[36.031155,52.920307],[36.03078,52.920099],[36.030485,52.919923],[36.030205,52.919745],[36.029942,52.919565],[36.029695,52.919383],[36.029463,52.919199],[36.02915,52.918934],[36.028886,52.918699],[36.028581,52.918414],[36.028238,52.918075],[36.027865,52.917686],[36.027316,52.917102],[36.026918,52.916666],[36.026788,52.916493],[36.026675,52.916303],[36.026595,52.916138],[36.02651,52.915915],[36.026453,52.915724],[36.026417,52.915573],[36.026354,52.915197],[36.026267,52.914482],[36.026205,52.91376],[36.026174,52.913152],[36.026162,52.912518],[36.026171,52.911966],[36.026206,52.911318],[36.026253,52.910738],[36.026315,52.910129],[36.026371,52.909704],[36.026443,52.909274],[36.026517,52.908934],[36.026612,52.908594],[36.026726,52.908261],[36.026862,52.907925],[36.027002,52.907624],[36.027202,52.907232],[36.027484,52.906702],[36.027785,52.906159],[36.028314,52.905242],[36.028981,52.904156],[36.029305,52.903606],[36.029667,52.90296],[36.030181,52.902],[36.030714,52.900973],[36.030976,52.90043],[36.031109,52.900127],[36.031225,52.899841],[36.031338,52.899529],[36.031401,52.899319],[36.031435,52.899155],[36.031452,52.899035],[36.031459,52.898801],[36.031446,52.898651],[36.031426,52.89854],[36.031388,52.898396],[36.031349,52.898291],[36.031284,52.898152],[36.031182,52.897973],[36.031084,52.897825],[36.030941,52.897633],[36.03081,52.897474],[36.030664,52.89731],[36.03017,52.896805],[36.030079,52.896694],[36.03001,52.896592],[36.029953,52.896472],[36.02994,52.896419],[36.029938,52.896347],[36.02995,52.896304],[36.029985,52.896248],[36.030021,52.896217],[36.030094,52.896177],[36.030156,52.896156],[36.030256,52.896132],[36.030466,52.896091],[36.030617,52.896076],[36.030742,52.896079],[36.030827,52.896095],[36.030893,52.896123],[36.031005,52.896208],[36.03109,52.896295],[36.03114,52.896362],[36.031244,52.896532],[36.031368,52.896712],[36.032076,52.89768],[36.032166,52.89782],[36.032243,52.89796],[36.032295,52.898073],[36.032347,52.898216],[36.032405,52.898446],[36.032421,52.898562],[36.032425,52.898682],[36.032416,52.898806],[36.0324,52.898902],[36.032346,52.899103],[36.032244,52.899351],[36.032146,52.899537],[36.031855,52.900039],[36.031591,52.900546],[36.031368,52.901012],[36.030668,52.902531],[36.030365,52.903159],[36.030163,52.903554],[36.029894,52.904045],[36.029637,52.904482],[36.028537,52.906232],[36.028381,52.90649],[36.028123,52.906956],[36.027901,52.907411],[36.027695,52.907892],[36.027513,52.90835],[36.027367,52.90875],[36.027289,52.909018],[36.027228,52.909317],[36.027178,52.909699],[36.027152,52.910067],[36.027137,52.910568],[36.027131,52.911206],[36.027137,52.911757],[36.027158,52.912348],[36.027196,52.913041],[36.02725,52.913781],[36.027307,52.914409],[36.027411,52.91525],[36.027439,52.915672],[36.027482,52.915866],[36.027526,52.915994],[36.027598,52.916165],[36.027691,52.916358],[36.027785,52.916533],[36.027873,52.916677],[36.027973,52.916825],[36.028177,52.917092],[36.028456,52.917409],[36.02874,52.917697],[36.02921,52.918136],[36.029634,52.918503],[36.030098,52.918871],[36.030319,52.919033],[36.030559,52.919199],[36.030817,52.919369],[36.031094,52.919543],[36.031704,52.919903],[36.033061,52.920658],[36.033715,52.921011],[36.034236,52.921286],[36.034812,52.921582],[36.035389,52.921869],[36.035812,52.922072],[36.036239,52.922267],[36.036887,52.922547],[36.039986,52.923827],[36.041623,52.924468],[36.042349,52.924746],[36.043676,52.925243],[36.045512,52.92595],[36.046648,52.926381],[36.048397,52.92703],[36.050011,52.927615],[36.050667,52.927867],[36.051326,52.928139],[36.051787,52.928344],[36.052307,52.928595],[36.052965,52.928933],[36.053783,52.929377],[36.054422,52.929744],[36.054998,52.930095],[36.055511,52.930431],[36.055799,52.930633],[36.056792,52.931353],[36.058216,52.932351],[36.059059,52.93296],[36.059338,52.933175],[36.059574,52.933366],[36.059883,52.933629],[36.060411,52.934099],[36.060599,52.934251],[36.060789,52.934392],[36.060979,52.93452],[36.061131,52.934615],[36.061595,52.934867],[36.06184,52.935011],[36.062272,52.935289],[36.062638,52.935548],[36.064267,52.936753],[36.064625,52.937001],[36.064844,52.937139],[36.06506,52.937265],[36.065272,52.937378],[36.065522,52.937497],[36.065822,52.93762],[36.066242,52.937769],[36.066747,52.937928],[36.06726,52.938077],[36.067912,52.938252],[36.068442,52.938383],[36.068911,52.938486],[36.069322,52.938561],[36.069578,52.938598],[36.070154,52.938662],[36.070885,52.938752],[36.073011,52.939031],[36.073627,52.939105],[36.074214,52.93917],[36.07495,52.939243],[36.075635,52.939299],[36.076641,52.939376],[36.077819,52.939456],[36.078202,52.939486],[36.07889,52.939554],[36.079563,52.939634],[36.080285,52.939732],[36.081031,52.939842],[36.081883,52.93998],[36.082671,52.940116],[36.083086,52.940195],[36.083456,52.940276],[36.08378,52.940358],[36.084059,52.940441],[36.084292,52.940525],[36.08441,52.940576],[36.084512,52.940628],[36.084863,52.940839],[36.085257,52.941096],[36.085776,52.941459],[36.086306,52.941848],[36.086862,52.942277],[36.087274,52.942615],[36.0876,52.942908],[36.087904,52.943214],[36.088317,52.943682],[36.088687,52.944124],[36.088923,52.944386],[36.088991,52.944474],[36.089038,52.944551],[36.089061,52.94461],[36.089079,52.944701],[36.0891,52.94475],[36.08913,52.94479],[36.089163,52.944816],[36.089199,52.944834],[36.089242,52.944845],[36.08934,52.944853],[36.089498,52.944839],[36.089651,52.944809],[36.089714,52.944787],[36.08976,52.944758],[36.089791,52.944722],[36.089808,52.944674],[36.089824,52.944649],[36.089851,52.944625],[36.089889,52.944604],[36.089947,52.944582],[36.090021,52.944563],[36.090133,52.944543],[36.090233,52.944531],[36.09032,52.944527],[36.090394,52.94453],[36.090499,52.944547],[36.090595,52.944568],[36.090649,52.944584],[36.090698,52.944606],[36.090741,52.944635],[36.090778,52.94467],[36.090797,52.944715],[36.090781,52.944753],[36.090722,52.944793],[36.090638,52.944826],[36.090254,52.944917],[36.090115,52.944945],[36.090005,52.944958],[36.089884,52.944957],[36.089791,52.944964],[36.089655,52.944983],[36.089489,52.945014],[36.089385,52.945042],[36.089299,52.945075],[36.089225,52.945118],[36.089181,52.94516]]],[[[36.06855,52.969102],[36.068548,52.96912],[36.068525,52.969135],[36.068478,52.969147],[36.068436,52.969149],[36.068406,52.969142],[36.068376,52.969127],[36.068352,52.969103],[36.068347,52.969084],[36.068355,52.96907],[36.068377,52.969056],[36.068413,52.969043],[36.068442,52.969039],[36.068525,52.969073],[36.06855,52.969102]]]]}}]}