{"type":"FeatureCollection","features":[{"type":"Feature","id":1,"properties":{"source":"dtp","injured":1,"dead":0,"severity":1,"date":"22.12.2024","time":"18:28:00","address":"г Димитровград, ул 50 лет Октября 106","type":"Наезд на пешехода"},"geometry":{"type":"Point","coordinates":[49.597677,54.230638]}},{"type":"Feature","id":2,"properties":{"source":"dtp","injured":1,"dead":0,"severity":1,"date":"22.12.2024","time":"16:30:00","address":"г Димитровград, ул Гоголя 72","type":"Столкновение"},"geometry":{"type":"Point","coordinates":[49.572773,54.227627]}},{"type":"Feature","id":3,"properties":{"source":"dtp","injured":1,"dead":0,"severity":1,"date":"05.12.2024","time":"21:05:00","address":"г Димитровград, ул Гвардейская 23","type":"Наезд на пешехода"},"geometry":{"type":"Point","coordinates":[49.57086,54.238754]}},{"type":"Feature","id":4,"properties":{"source":"dtp","injured":1,"dead":0,"severity":1,"date":"28.11.2024","time":"13:00:00","address":"г Димитровград","type":"Наезд на пешехода"},"geometry":{"type":"Point","coordinates":[49.600632,54.208603]}},{"type":"Feature","id":5,"properties":{"source":"dtp","injured":1,"dead":0,"severity":1,"date":"26.11.2024","time":"12:55:00","address":"г Димитровград, ул Тореза 9","type":"Наезд на пешехода"},"geometry":{"type":"Point","coordinates":[49.561322,54.234961]}},{"type":"Feature","id":6,"properties":{"source":"dtp","injured":2,"dead":0,"severity":2,"date":"22.11.2024","time":"07:55:00","address":"г Димитровград, ул Куйбышева 185","type":"Столкновение"},"geometry":{"type":"Point","coordinates":[49.623227,54.213616]}},{"type":"Feature","id":7,"properties":{"source":"dtp","injured":1,"dead":1,"severity":4,"date":"20.11.2024","time":"06:55:00","address":"г Димитровград, ул Менделеева 1","type":"Столкновение"},"geometry":{"type":"Point","coordinates":[49.546634,54.221157]}},{"type":"Feature","id":8,"properties":{"source":"dtp","injured":1,"dead":0,"severity":1,"date":"05.11.2024","time":"08:40:00","address":"г Димитровград, ул Комарова 2","type":"Столкновение"},"geometry":{"type":"Point","coordinates":[49.658096,54.222763]}},{"type":"Feature","id":9,"properties":{"source":"dtp","injured":0,"dead":1,"severity":3,"date":"30.10.2024","time":"22:17:00","address":"г Димитровград, ул Черемшанская 10","type":"Наезд на пешехода"},"geometry":{"type":"Point","coordinates":[49.629203,54.210724]}},{"type":"Feature","id":10,"properties":{"source":"dtp","injured":1,"dead":0,"severity":1,"date":"29.10.2024","time":"16:35:00","address":"г Димитровград, ул Победы 107","type":"Столкновение"},"geometry":{"type":"Point","coordinates":[49.60413,54.21957]}},{"type":"Feature","id":11,"properties":{"source":"dtp","injured":1,"dead":0,"severity":1,"date":"27.10.2024","time":"17:53:00","address":"г Димитровград, пр-кт Автостроителей 51 В","type":"Наезд на препятствие"},"geometry":{"type":"Point","coordinates":[49.599366,54.209287]}},{"type":"Feature","id":12,"properties":{"source":"dtp","injured":1,"dead":0,"severity":1,"date":"23.10.2024","time":"18:00:00","address":"г Димитровград, ул Циолковского 12","type":"Наезд на пешехода"},"geometry":{"type":"Point","coordinates":[49.616822,54.205328]}},{"type":"Feature","id":13,"properties":{"source":"dtp","injured":1,"dead":0,"severity":1,"date":"23.10.2024","time":"17:45:00","address":"г Димитровград, ул Братская 11А","type":"Столкновение"},"geometry":{"type":"Point","coordinates":[49.582468,54.239231]}},{"type":"Feature","id":14,"properties":{"source":"dtp","injured":1,"dead":0,"severity":1,"date":"20.10.2024","time":"01:24:00","address":"г Димитровград","type":"Наезд на пешехода"},"geometry":{"type":"Point","coordinates":[49.639578,54.190441]}},{"type":"Feature","id":15,"properties":{"source":"dtp","injured":1,"dead":0,"severity":1,"date":"17.10.2024","time":"12:10:00","address":"г Димитровград, ул Кирпичная 25","type":"Наезд на пешехода"},"geometry":{"type":"Point","coordinates":[49.627991,54.204274]}},{"type":"Feature","id":16,"properties":{"source":"dtp","injured":1,"dead":0,"severity":1,"date":"12.10.2024","time":"13:00:00","address":"г Димитровград","type":"Наезд на пешехода"},"geometry":{"type":"Point","coordinates":[49.604205,54.212016]}},{"type":"Feature","id":17,"properties":{"source":"dtp","injured":1,"dead":0,"severity":1,"date":"11.10.2024","time":"10:30:00","address":"г Димитровград, ул Куйбышева 205","type":"Наезд на пешехода"},"geometry":{"type":"Point","coordinates":[49.621575,54.215981]}},{"type":"Feature","id":18,"properties":{"source":"dtp","injured":1,"dead":0,"severity":1,"date":"08.10.2024","time":"08:10:00","address":"г Димитровград, ул Ганенкова 55","type":"Наезд на препятствие"},"geometry":{"type":"Point","coordinates":[49.598916,54.221226]}},{"type":"Feature","id":19,"properties":{"source":"dtp","injured":1,"dead":0,"severity":1,"date":"06.10.2024","time":"02:40:00","address":"г Димитровград, ул Гоголя 197","type":"Наезд на препятствие"},"geometry":{"type":"Point","coordinates":[49.568274,54.226927]}},{"type":"Feature","id":20,"properties":{"source":"dtp","injured":2,"dead":0,"severity":2,"date":"26.09.2024","time":"22:30:00","address":"г Димитровград, ул Гвардейская 21","type":"Столкновение"},"geometry":{"type":"Point","coordinates":[49.570677,54.237532]}},{"type":"Feature","id":21,"properties":{"source":"dtp","injured":2,"dead":0,"severity":2,"date":"22.09.2024","time":"17:11:00","address":"г Димитровград, ул Марфина 31","type":"Столкновение"},"geometry":{"type":"Point","coordinates":[49.642539,54.222744]}},{"type":"Feature","id":22,"properties":{"source":"dtp","injured":1,"dead":0,"severity":1,"date":"17.09.2024","time":"01:10:00","address":"г Димитровград, ул Гоголя 197","type":"Наезд на препятствие"},"geometry":{"type":"Point","coordinates":[49.568349,54.226871]}},{"type":"Feature","id":23,"properties":{"source":"dtp","injured":1,"dead":0,"severity":1,"date":"15.09.2024","time":"16:30:00","address":"г Димитровград","type":"Наезд на пешехода"},"geometry":{"type":"Point","coordinates":[49.632164,54.200157]}},{"type":"Feature","id":24,"properties":{"source":"dtp","injured":1,"dead":0,"severity":1,"date":"30.08.2024","time":"17:00:00","address":"г Димитровград, пр-кт Автостроителей 1б","type":"Наезд на пешехода"},"geometry":{"type":"Point","coordinates":[49.615643,54.208671]}},{"type":"Feature","id":25,"properties":{"source":"dtp","injured":1,"dead":0,"severity":1,"date":"23.08.2024","time":"09:58:00","address":"г Димитровград, пр-кт Димитрова 16","type":"Наезд на пешехода"},"geometry":{"type":"Point","coordinates":[49.565924,54.232051]}},{"type":"Feature","id":26,"properties":{"source":"dtp","injured":1,"dead":0,"severity":1,"date":"21.08.2024","time":"20:45:00","address":"г Димитровград, ул Комсомольская 112","type":"Наезд на пешехода"},"geometry":{"type":"Point","coordinates":[49.62389,54.217463]}},{"type":"Feature","id":27,"properties":{"source":"dtp","injured":1,"dead":0,"severity":1,"date":"12.08.2024","time":"10:54:00","address":"г Димитровград, ул Куйбышева 1в","type":"Столкновение"},"geometry":{"type":"Point","coordinates":[49.651605,54.18808]}},{"type":"Feature","id":28,"properties":{"source":"dtp","injured":2,"dead":0,"severity":2,"date":"06.08.2024","time":"20:10:00","address":"г Димитровград, ул Энгельса 10","type":"Наезд на велосипедиста"},"geometry":{"type":"Point","coordinates":[49.616607,54.210046]}},{"type":"Feature","id":29,"properties":{"source":"dtp","injured":1,"dead":0,"severity":1,"date":"31.07.2024","time":"21:05:00","address":"г Димитровград, пр-кт Автостроителей 27","type":"Столкновение"},"geometry":{"type":"Point","coordinates":[49.60796,54.209319]}},{"type":"Feature","id":30,"properties":{"source":"dtp","injured":1,"dead":0,"severity":1,"date":"30.07.2024","time":"11:40:00","address":"г Димитровград, ул Тореза 2Б","type":"Столкновение"},"geometry":{"type":"Point","coordinates":[49.564658,54.232967]}},{"type":"Feature","id":31,"properties":{"source":"dtp","injured":2,"dead":0,"severity":2,"date":"27.07.2024","time":"21:42:00","address":"г Димитровград, ул Юнг Северного Флота 107","type":"Столкновение"},"geometry":{"type":"Point","coordinates":[49.569465,54.23165]}},{"type":"Feature","id":32,"properties":{"source":"dtp","injured":1,"dead":0,"severity":1,"date":"24.07.2024","time":"17:30:00","address":"г Димитровград, ул Свирская 39","type":"Столкновение"},"geometry":{"type":"Point","coordinates":[49.582393,54.220906]}},{"type":"Feature","id":33,"properties":{"source":"dtp","injured":1,"dead":0,"severity":1,"date":"20.07.2024","time":"10:35:00","address":"г Димитровград, ул Тухачевского 161","type":"Наезд на велосипедиста"},"geometry":{"type":"Point","coordinates":[49.633709,54.218779]}},{"type":"Feature","id":34,"properties":{"source":"dtp","injured":1,"dead":0,"severity":1,"date":"17.07.2024","time":"09:30:00","address":"г Димитровград, ул Куйбышева 9А","type":"Столкновение"},"geometry":{"type":"Point","coordinates":[49.640254,54.193598]}},{"type":"Feature","id":35,"properties":{"source":"dtp","injured":2,"dead":0,"severity":2,"date":"03.07.2024","time":"13:45:00","address":"г Димитровград, ул Октябрьская 24","type":"Наезд на пешехода"},"geometry":{"type":"Point","coordinates":[49.603046,54.217242]}},{"type":"Feature","id":36,"properties":{"source":"dtp","injured":1,"dead":0,"severity":1,"date":"17.06.2024","time":"19:00:00","address":"г Димитровград, ул Комарова 2","type":"Опрокидывание"},"geometry":{"type":"Point","coordinates":[49.691012,54.23624]}},{"type":"Feature","id":37,"properties":{"source":"dtp","injured":3,"dead":0,"severity":3,"date":"12.06.2024","time":"05:40:00","address":"г Димитровград","type":"Наезд на препятствие"},"geometry":{"type":"Point","coordinates":[49.536388,54.21696]}},{"type":"Feature","id":38,"properties":{"source":"dtp","injured":1,"dead":0,"severity":1,"date":"08.06.2024","time":"10:50:00","address":"г Димитровград, ул Юнг Северного Флота 107","type":"Наезд на пешехода"},"geometry":{"type":"Point","coordinates":[49.569443,54.231643]}},{"type":"Feature","id":39,"properties":{"source":"dtp","injured":1,"dead":0,"severity":1,"date":"07.06.2024","time":"01:40:00","address":"г Димитровград, ул Черемшанская 114 корпус 1","type":"Съезд с дороги"},"geometry":{"type":"Point","coordinates":[49.64976,54.215091]}},{"type":"Feature","id":40,"properties":{"source":"dtp","injured":1,"dead":0,"severity":1,"date":"27.05.2024","time":"17:35:00","address":"г Димитровград, ул Куйбышева 75","type":"Наезд на велосипедиста"},"geometry":{"type":"Point","coordinates":[49.632218,54.201362]}},{"type":"Feature","id":41,"properties":{"source":"dtp","injured":1,"dead":0,"severity":1,"date":"25.05.2024","time":"13:55:00","address":"г Димитровград, ул Победы 2а","type":"Наезд на пешехода"},"geometry":{"type":"Point","coordinates":[49.609344,54.204493]}},{"type":"Feature","id":42,"properties":{"source":"dtp","injured":1,"dead":0,"severity":1,"date":"21.05.2024","time":"22:30:00","address":"г Димитровград, ул Куйбышева 165","type":"Съезд с дороги"},"geometry":{"type":"Point","coordinates":[49.625351,54.211088]}},{"type":"Feature","id":43,"properties":{"source":"dtp","injured":3,"dead":1,"severity":6,"date":"15.05.2024","time":"18:00:00","address":"г Димитровград, ул Шишкина 73","type":"Столкновение"},"geometry":{"type":"Point","coordinates":[49.566976,54.281631]}},{"type":"Feature","id":44,"properties":{"source":"dtp","injured":0,"dead":1,"severity":3,"date":"15.05.2024","time":"03:30:00","address":"г Димитровград, сад Восход 199 201","type":"Съезд с дороги"},"geometry":{"type":"Point","coordinates":[49.638988,54.188607]}},{"type":"Feature","id":45,"properties":{"source":"dtp","injured":1,"dead":0,"severity":1,"date":"03.05.2024","time":"15:45:00","address":"г Димитровград, ул Куйбышева 205","type":"Столкновение"},"geometry":{"type":"Point","coordinates":[49.621596,54.215906]}},{"type":"Feature","id":46,"properties":{"source":"dtp","injured":2,"dead":0,"severity":2,"date":"28.04.2024","time":"08:45:00","address":"г Димитровград, ул Свирская 29","type":"Столкновение"},"geometry":{"type":"Point","coordinates":[49.587318,54.218811]}},{"type":"Feature","id":47,"properties":{"source":"dtp","injured":1,"dead":0,"severity":1,"date":"19.04.2024","time":"13:20:00","address":"г Димитровград, пр-кт Димитрова 1б","type":"Наезд на препятствие"},"geometry":{"type":"Point","coordinates":[49.547932,54.215906]}},{"type":"Feature","id":48,"properties":{"source":"dtp","injured":2,"dead":0,"severity":2,"date":"14.04.2024","time":"22:48:00","address":"г Димитровград, пр-кт Ленина 23Б","type":"Столкновение"},"geometry":{"type":"Point","coordinates":[49.555925,54.232496]}},{"type":"Feature","id":49,"properties":{"source":"dtp","injured":2,"dead":0,"severity":2,"date":"06.04.2024","time":"20:15:00","address":"г Димитровград","type":"Съезд с дороги"},"geometry":{"type":"Point","coordinates":[49.516904,54.203665]}},{"type":"Feature","id":50,"properties":{"source":"dtp","injured":1,"dead":0,"severity":1,"date":"19.03.2024","time":"05:40:00","address":"г Димитровград, ул Свирская 41в","type":"Наезд на стоящее ТС"},"geometry":{"type":"Point","coordinates":[49.586524,54.219589]}},{"type":"Feature","id":51,"properties":{"source":"dtp","injured":1,"dead":0,"severity":1,"date":"12.03.2024","time":"14:00:00","address":"г Димитровград, ш Мулловское 7а","type":"Столкновение"},"geometry":{"type":"Point","coordinates":[49.547943,54.215875]}},{"type":"Feature","id":52,"properties":{"source":"dtp","injured":0,"dead":1,"severity":3,"date":"01.03.2024","time":"22:26:00","address":"г Димитровград, ул Черемшанская 33","type":"Наезд на пешехода"},"geometry":{"type":"Point","coordinates":[49.637132,54.212431]}},{"type":"Feature","id":53,"properties":{"source":"dtp","injured":1,"dead":0,"severity":1,"date":"15.01.2024","time":"20:00:00","address":"г Димитровград, ул Куйбышева 306А","type":"Столкновение"},"geometry":{"type":"Point","coordinates":[49.5982,54.2464]}},{"type":"Feature","id":54,"properties":{"source":"dtp","injured":1,"dead":0,"severity":1,"date":"13.01.2024","time":"09:15:00","address":"г Димитровград, ул 50 лет Октября 106","type":"Столкновение"},"geometry":{"type":"Point","coordinates":[49.597049,54.230678]}},{"type":"Feature","id":55,"properties":{"source":"dtp","injured":1,"dead":0,"severity":1,"date":"12.01.2024","time":"06:40:00","address":"г Димитровград, пр-кт Автостроителей 23","type":"Наезд на пешехода"},"geometry":{"type":"Point","coordinates":[49.609376,54.209325]}},{"type":"Feature","id":56,"properties":{"source":"dtp","injured":1,"dead":0,"severity":1,"date":"07.01.2024","time":"19:15:00","address":"г Димитровград, ул Куйбышева 240","type":"Наезд на пешехода"},"geometry":{"type":"Point","coordinates":[49.610578,54.228501]}},{"type":"Feature","id":57,"properties":{"source":"dtp","injured":1,"dead":0,"severity":1,"date":"01.01.2024","time":"12:05:00","address":"г Димитровград, ул Свирская 45","type":"Наезд на пешехода"},"geometry":{"type":"Point","coordinates":[49.5761,54.222]}},{"type":"Feature","id":58,"properties":{"source":"dtp","injured":1,"dead":0,"severity":1,"date":"29.12.2025","time":"16:40:00","address":"г Димитровград, ул Гагарина 54","type":"Столкновение"},"geometry":{"type":"Point","coordinates":[49.636606,54.219187]}},{"type":"Feature","id":59,"properties":{"source":"dtp","injured":1,"dead":0,"severity":1,"date":"28.12.2025","time":"14:41:00","address":"г Димитровград, ш Мулловское 59","type":"Столкновение"},"geometry":{"type":"Point","coordinates":[49.563349,54.224657]}},{"type":"Feature","id":60,"properties":{"source":"dtp","injured":1,"dead":0,"severity":1,"date":"25.12.2025","time":"12:45:00","address":"г Димитровград, ул Жуковского 2в","type":"Столкновение"},"geometry":{"type":"Point","coordinates":[49.569712,54.221822]}},{"type":"Feature","id":61,"properties":{"source":"dtp","injured":1,"dead":0,"severity":1,"date":"20.12.2025","time":"19:20:00","address":"г Димитровград, ул Куйбышева 83","type":"Наезд на пешехода"},"geometry":{"type":"Point","coordinates":[49.631349,54.202316]}},{"type":"Feature","id":62,"properties":{"source":"dtp","injured":1,"dead":0,"severity":1,"date":"04.12.2025","time":"16:15:00","address":"г Димитровград, пр-кт Автостроителей 37","type":"Наезд на пешехода"},"geometry":{"type":"Point","coordinates":[49.603615,54.209287]}},{"type":"Feature","id":63,"properties":{"source":"dtp","injured":1,"dead":0,"severity":1,"date":"03.12.2025","time":"07:35:00","address":"г Димитровград, ул Мелекесская 28","type":"Наезд на пешехода"},"geometry":{"type":"Point","coordinates":[49.617702,54.218027]}},{"type":"Feature","id":64,"properties":{"source":"dtp","injured":1,"dead":0,"severity":1,"date":"28.11.2025","time":"17:50:00","address":"г Димитровград, ул 50 лет Октября 74","type":"Наезд на пешехода"},"geometry":{"type":"Point","coordinates":[49.604237,54.227379]}},{"type":"Feature","id":65,"properties":{"source":"dtp","injured":1,"dead":0,"severity":1,"date":"14.11.2025","time":"16:00:00","address":"г Димитровград","type":"Наезд на пешехода"},"geometry":{"type":"Point","coordinates":[49.597414,54.211044]}},{"type":"Feature","id":66,"properties":{"source":"dtp","injured":1,"dead":0,"severity":1,"date":"13.11.2025","time":"16:20:00","address":"г Димитровград, ул Западная 13а","type":"Наезд на пешехода"},"geometry":{"type":"Point","coordinates":[49.597768,54.21186]}},{"type":"Feature","id":67,"properties":{"source":"dtp","injured":1,"dead":0,"severity":1,"date":"07.11.2025","time":"18:10:00","address":"г Димитровград, пр-кт Ленина 14","type":"Наезд на пешехода"},"geometry":{"type":"Point","coordinates":[49.552181,54.229662]}},{"type":"Feature","id":68,"properties":{"source":"dtp","injured":1,"dead":0,"severity":1,"date":"07.11.2025","time":"19:45:00","address":"г Димитровград, ул Гвардейская 34","type":"Наезд на пешехода"},"geometry":{"type":"Point","coordinates":[49.571149,54.240171]}},{"type":"Feature","id":69,"properties":{"source":"dtp","injured":0,"dead":1,"severity":3,"date":"30.10.2025","time":"07:05:00","address":"г Димитровград, ул Курчатова 3","type":"Наезд на пешехода"},"geometry":{"type":"Point","coordinates":[49.547267,54.229028]}},{"type":"Feature","id":70,"properties":{"source":"dtp","injured":1,"dead":0,"severity":1,"date":"29.10.2025","time":"18:15:00","address":"г Димитровград, ул Октябрьская 72","type":"Наезд на пешехода"},"geometry":{"type":"Point","coordinates":[49.587253,54.215599]}},{"type":"Feature","id":71,"properties":{"source":"dtp","injured":1,"dead":0,"severity":1,"date":"24.10.2025","time":"10:19:00","address":"г Димитровград, ул Свирская 45","type":"Наезд на пешехода"},"geometry":{"type":"Point","coordinates":[49.577329,54.221972]}},{"type":"Feature","id":72,"properties":{"source":"dtp","injured":1,"dead":0,"severity":1,"date":"24.10.2025","time":"12:01:00","address":"г Димитровград, ул Октябрьская 7","type":"Столкновение"},"geometry":{"type":"Point","coordinates":[49.605289,54.217613]}},{"type":"Feature","id":73,"properties":{"source":"dtp","injured":1,"dead":0,"severity":1,"date":"18.10.2025","time":"17:30:00","address":"г Димитровград, ул Октябрьская 39","type":"Опрокидывание"},"geometry":{"type":"Point","coordinates":[49.595622,54.215981]}},{"type":"Feature","id":74,"properties":{"source":"dtp","injured":1,"dead":0,"severity":1,"date":"14.10.2025","time":"07:36:00","address":"г Димитровград, ул Юнг Северного Флота 107","type":"Наезд на пешехода"},"geometry":{"type":"Point","coordinates":[49.569497,54.231631]}},{"type":"Feature","id":75,"properties":{"source":"dtp","injured":1,"dead":0,"severity":1,"date":"13.10.2025","time":"06:25:00","address":"г Димитровград, пр-кт Автостроителей 51В","type":"Наезд на пешехода"},"geometry":{"type":"Point","coordinates":[49.598926,54.209344]}},{"type":"Feature","id":76,"properties":{"source":"dtp","injured":1,"dead":0,"severity":1,"date":"11.10.2025","time":"16:25:00","address":"г Димитровград, ул 3 Интернационала 165","type":"Столкновение"},"geometry":{"type":"Point","coordinates":[49.620824,54.231004]}},{"type":"Feature","id":77,"properties":{"source":"dtp","injured":1,"dead":0,"severity":1,"date":"06.10.2025","time":"19:45:00","address":"г Димитровград, ул Свирская 47Б","type":"Наезд на пешехода"},"geometry":{"type":"Point","coordinates":[49.571428,54.220975]}},{"type":"Feature","id":78,"properties":{"source":"dtp","injured":1,"dead":0,"severity":1,"date":"06.10.2025","time":"19:15:00","address":"г Димитровград, ул Лермонтова 2В","type":"Столкновение"},"geometry":{"type":"Point","coordinates":[49.601201,54.231286]}},{"type":"Feature","id":79,"properties":{"source":"dtp","injured":1,"dead":0,"severity":1,"date":"28.09.2025","time":"15:25:00","address":"г Димитровград, пр-кт Автостроителей 21А","type":"Столкновение"},"geometry":{"type":"Point","coordinates":[49.611179,54.209356]}},{"type":"Feature","id":80,"properties":{"source":"dtp","injured":1,"dead":0,"severity":1,"date":"23.09.2025","time":"22:14:00","address":"г Димитровград, ул Братская 53","type":"Столкновение"},"geometry":{"type":"Point","coordinates":[49.572641,54.245375]}},{"type":"Feature","id":81,"properties":{"source":"dtp","injured":1,"dead":0,"severity":1,"date":"23.09.2025","time":"16:50:00","address":"г Димитровград, ул Куйбышева 67","type":"Наезд на пешехода"},"geometry":{"type":"Point","coordinates":[49.633076,54.200565]}},{"type":"Feature","id":82,"properties":{"source":"dtp","injured":1,"dead":0,"severity":1,"date":"14.09.2025","time":"18:20:00","address":"г Димитровград, ул Титова 38","type":"Опрокидывание"},"geometry":{"type":"Point","coordinates":[49.633741,54.232208]}},{"type":"Feature","id":83,"properties":{"source":"dtp","injured":2,"dead":0,"severity":2,"date":"13.09.2025","time":"13:45:00","address":"г Димитровград, ул Октябрьская 24","type":"Столкновение"},"geometry":{"type":"Point","coordinates":[49.602467,54.217148]}},{"type":"Feature","id":84,"properties":{"source":"dtp","injured":2,"dead":0,"severity":2,"date":"11.09.2025","time":"08:06:00","address":"г Димитровград, ш Мулловское 30","type":"Столкновение"},"geometry":{"type":"Point","coordinates":[49.559112,54.222298]}},{"type":"Feature","id":85,"properties":{"source":"dtp","injured":1,"dead":0,"severity":1,"date":"31.08.2025","time":"13:27:00","address":"г Димитровград","type":"Наезд на пешехода"},"geometry":{"type":"Point","coordinates":[49.552706,54.230477]}},{"type":"Feature","id":86,"properties":{"source":"dtp","injured":1,"dead":0,"severity":1,"date":"28.08.2025","time":"17:10:00","address":"г Димитровград, ул Куйбышева 256","type":"Наезд на пешехода"},"geometry":{"type":"Point","coordinates":[49.607896,54.230464]}},{"type":"Feature","id":87,"properties":{"source":"dtp","injured":1,"dead":0,"severity":1,"date":"27.08.2025","time":"15:57:00","address":"г Димитровград","type":"Наезд на пешехода"},"geometry":{"type":"Point","coordinates":[49.596137,54.229856]}},{"type":"Feature","id":88,"properties":{"source":"dtp","injured":1,"dead":0,"severity":1,"date":"27.08.2025","time":"13:50:00","address":"г Димитровград, ул Гончарова 11","type":"Наезд на пешехода"},"geometry":{"type":"Point","coordinates":[49.550325,54.227103]}},{"type":"Feature","id":89,"properties":{"source":"dtp","injured":1,"dead":0,"severity":1,"date":"23.08.2025","time":"15:05:00","address":"г Димитровград, ул Промышленная 7","type":"Наезд на препятствие"},"geometry":{"type":"Point","coordinates":[49.573349,54.196341]}},{"type":"Feature","id":90,"properties":{"source":"dtp","injured":1,"dead":0,"severity":1,"date":"19.08.2025","time":"18:10:00","address":"г Димитровград, ул Дрогобычская 43","type":"Наезд на пешехода"},"geometry":{"type":"Point","coordinates":[49.607756,54.203376]}},{"type":"Feature","id":91,"properties":{"source":"dtp","injured":1,"dead":0,"severity":1,"date":"14.08.2025","time":"18:15:00","address":"г Димитровград, ул Куйбышева 2 1","type":"Наезд на пешехода"},"geometry":{"type":"Point","coordinates":[49.64285,54.191853]}},{"type":"Feature","id":92,"properties":{"source":"dtp","injured":1,"dead":0,"severity":1,"date":"01.08.2025","time":"17:50:00","address":"г Димитровград, ул Дрогобычская 49","type":"Наезд на пешехода"},"geometry":{"type":"Point","coordinates":[49.61385,54.202673]}},{"type":"Feature","id":93,"properties":{"source":"dtp","injured":1,"dead":0,"severity":1,"date":"14.07.2025","time":"16:54:00","address":"г Димитровград, пр-кт Димитрова 33","type":"Столкновение"},"geometry":{"type":"Point","coordinates":[49.563457,54.230627]}},{"type":"Feature","id":94,"properties":{"source":"dtp","injured":2,"dead":0,"severity":2,"date":"13.07.2025","time":"12:00:00","address":"г Димитровград, ул Парадизова 15","type":"Столкновение"},"geometry":{"type":"Point","coordinates":[49.634675,54.200841]}},{"type":"Feature","id":95,"properties":{"source":"dtp","injured":1,"dead":0,"severity":1,"date":"12.07.2025","time":"19:10:00","address":"г Димитровград","type":"Столкновение"},"geometry":{"type":"Point","coordinates":[49.540218,54.22132]}},{"type":"Feature","id":96,"properties":{"source":"dtp","injured":2,"dead":0,"severity":2,"date":"11.07.2025","time":"07:41:00","address":"г Димитровград","type":"Столкновение"},"geometry":{"type":"Point","coordinates":[49.521539,54.205334]}},{"type":"Feature","id":97,"properties":{"source":"dtp","injured":1,"dead":0,"severity":1,"date":"11.07.2025","time":"19:50:00","address":"г Димитровград, ул Ганенкова 59","type":"Столкновение"},"geometry":{"type":"Point","coordinates":[49.596201,54.224638]}},{"type":"Feature","id":98,"properties":{"source":"dtp","injured":1,"dead":0,"severity":1,"date":"09.07.2025","time":"08:50:00","address":"г Димитровград, пр-кт Автостроителей 21","type":"Столкновение"},"geometry":{"type":"Point","coordinates":[49.612058,54.209375]}},{"type":"Feature","id":99,"properties":{"source":"dtp","injured":3,"dead":0,"severity":3,"date":"29.06.2025","time":"01:25:00","address":"г Димитровград, ул Шишкина 4","type":"Съезд с дороги"},"geometry":{"type":"Point","coordinates":[49.557736,54.290306]}},{"type":"Feature","id":100,"properties":{"source":"dtp","injured":1,"dead":0,"severity":1,"date":"24.06.2025","time":"20:40:00","address":"г Димитровград, ул Гоголя 197","type":"Наезд на велосипедиста"},"geometry":{"type":"Point","coordinates":[49.56865,54.227103]}},{"type":"Feature","id":101,"properties":{"source":"dtp","injured":1,"dead":0,"severity":1,"date":"07.06.2025","time":"17:00:00","address":"г Димитровград, ул Гагарина 87","type":"Наезд на пешехода"},"geometry":{"type":"Point","coordinates":[49.642936,54.220329]}},{"type":"Feature","id":102,"properties":{"source":"dtp","injured":1,"dead":0,"severity":1,"date":"28.05.2025","time":"18:00:00","address":"г Димитровград, ул Куйбышева 258","type":"Съезд с дороги"},"geometry":{"type":"Point","coordinates":[49.605503,54.232979]}},{"type":"Feature","id":103,"properties":{"source":"dtp","injured":1,"dead":0,"severity":1,"date":"22.05.2025","time":"20:25:00","address":"г Димитровград, пр-кт Автостроителей 60","type":"Столкновение"},"geometry":{"type":"Point","coordinates":[49.6031,54.209262]}},{"type":"Feature","id":104,"properties":{"source":"dtp","injured":1,"dead":0,"severity":1,"date":"21.05.2025","time":"20:45:00","address":"г Димитровград, ул Курчатова 14","type":"Наезд на велосипедиста"},"geometry":{"type":"Point","coordinates":[49.545926,54.234039]}},{"type":"Feature","id":105,"properties":{"source":"dtp","injured":1,"dead":0,"severity":1,"date":"21.05.2025","time":"17:05:00","address":"г Димитровград, ул Западная 32","type":"Наезд на пешехода"},"geometry":{"type":"Point","coordinates":[49.596684,54.213842]}},{"type":"Feature","id":106,"properties":{"source":"dtp","injured":1,"dead":0,"severity":1,"date":"19.05.2025","time":"10:10:00","address":"г Димитровград, ул Жуковского 7а","type":"Столкновение"},"geometry":{"type":"Point","coordinates":[49.568735,54.226915]}},{"type":"Feature","id":107,"properties":{"source":"dtp","injured":1,"dead":0,"severity":1,"date":"13.05.2025","time":"17:10:00","address":"г Димитровград, ул Куйбышева 10","type":"Столкновение"},"geometry":{"type":"Point","coordinates":[49.636552,54.197169]}},{"type":"Feature","id":108,"properties":{"source":"dtp","injured":1,"dead":0,"severity":1,"date":"08.05.2025","time":"10:02:00","address":"г Димитровград","type":"Падение пассажира"},"geometry":{"type":"Point","coordinates":[49.590096,54.214225]}},{"type":"Feature","id":109,"properties":{"source":"dtp","injured":1,"dead":1,"severity":4,"date":"02.05.2025","time":"14:25:00","address":"г Димитровград, ул Свирская 42","type":"Столкновение"},"geometry":{"type":"Point","coordinates":[49.579443,54.221734]}},{"type":"Feature","id":110,"properties":{"source":"dtp","injured":1,"dead":0,"severity":1,"date":"01.05.2025","time":"10:30:00","address":"г Димитровград, ул Осипенко 1","type":"Наезд на препятствие"},"geometry":{"type":"Point","coordinates":[49.597102,54.231035]}},{"type":"Feature","id":111,"properties":{"source":"dtp","injured":1,"dead":0,"severity":1,"date":"19.04.2025","time":"11:40:00","address":"г Димитровград, ул Юнг Северного Флота 6","type":"Столкновение"},"geometry":{"type":"Point","coordinates":[49.567534,54.225058]}},{"type":"Feature","id":112,"properties":{"source":"dtp","injured":1,"dead":0,"severity":1,"date":"06.04.2025","time":"17:28:00","address":"г Димитровград","type":"Наезд на пешехода"},"geometry":{"type":"Point","coordinates":[49.557889,54.231737]}},{"type":"Feature","id":113,"properties":{"source":"dtp","injured":2,"dead":0,"severity":2,"date":"03.04.2025","time":"14:25:00","address":"г Димитровград, ул Гагарина 60","type":"Столкновение"},"geometry":{"type":"Point","coordinates":[49.638827,54.219683]}},{"type":"Feature","id":114,"properties":{"source":"dtp","injured":1,"dead":0,"severity":1,"date":"24.02.2025","time":"07:32:00","address":"г Димитровград, пр-кт Димитрова 33","type":"Наезд на пешехода"},"geometry":{"type":"Point","coordinates":[49.563607,54.230759]}},{"type":"Feature","id":115,"properties":{"source":"dtp","injured":1,"dead":0,"severity":1,"date":"21.02.2025","time":"09:30:00","address":"г Димитровград","type":"Столкновение"},"geometry":{"type":"Point","coordinates":[49.521507,54.205353]}},{"type":"Feature","id":116,"properties":{"source":"dtp","injured":1,"dead":0,"severity":1,"date":"10.02.2025","time":"19:30:00","address":"г Димитровград, ул Прониной 8","type":"Столкновение"},"geometry":{"type":"Point","coordinates":[49.616843,54.219256]}},{"type":"Feature","id":117,"properties":{"source":"dtp","injured":1,"dead":0,"severity":1,"date":"05.02.2025","time":"09:09:00","address":"г Димитровград, пр-кт Автостроителей 78В 12","type":"Наезд на пешехода"},"geometry":{"type":"Point","coordinates":[49.598801,54.209228]}},{"type":"Feature","id":118,"properties":{"source":"dtp","injured":1,"dead":0,"severity":1,"date":"22.01.2025","time":"11:30:00","address":"г Димитровград, ул Гоголя 14","type":"Столкновение"},"geometry":{"type":"Point","coordinates":[49.586588,54.230816]}},{"type":"Feature","id":119,"properties":{"source":"dtp","injured":1,"dead":0,"severity":1,"date":"20.01.2025","time":"09:00:00","address":"г Димитровград, ул Гоголя 93","type":"Столкновение"},"geometry":{"type":"Point","coordinates":[49.58131,54.229417]}},{"type":"Feature","id":120,"properties":{"source":"dtp","injured":1,"dead":0,"severity":1,"date":"12.01.2025","time":"02:00:00","address":"г Димитровград, ул Ульяновская 72","type":"Столкновение"},"geometry":{"type":"Point","coordinates":[49.613292,54.219846]}}]}