{"type":"FeatureCollection","features":[{"type":"Feature","properties":{"address":"433501, Ульяновская обл, г. Димитровград, ул. Земина, д. 142","floors":2,"height":7.2,"pop":19},"geometry":{"type":"Point","coordinates":[49.637525,54.221506]}},{"type":"Feature","properties":{"address":"433501, Ульяновская обл, г. Димитровград, ул. Лесхоза, д. 2а","floors":1,"height":4.1,"pop":7},"geometry":{"type":"Point","coordinates":[49.623924,54.217515]}},{"type":"Feature","properties":{"address":"433502, Ульяновская обл, г. Димитровград, ул. 9 линия, д. 24","floors":9,"height":28.9,"pop":131},"geometry":{"type":"Point","coordinates":[49.587058,54.225138]}},{"type":"Feature","properties":{"address":"433502, Ульяновская обл, г. Димитровград, ул. Миюсовой, д. 2","floors":1,"height":4.1,"pop":11},"geometry":{"type":"Point","coordinates":[49.594029,54.22758]}},{"type":"Feature","properties":{"address":"433502, Ульяновская обл, г. Димитровград, ул. Чехова, д. 2","floors":2,"height":7.2,"pop":47},"geometry":{"type":"Point","coordinates":[49.587803,54.223827]}},{"type":"Feature","properties":{"address":"433503, Ульяновская обл, г. Димитровград, ул. Куйбышева, д. 28в","floors":3,"height":10.3,"pop":37},"geometry":{"type":"Point","coordinates":[49.633788,54.197721]}},{"type":"Feature","properties":{"address":"433504, Ульяновская обл, г. Димитровград, пр-кт. Димитрова, д. 18","floors":9,"height":28.9,"pop":218},"geometry":{"type":"Point","coordinates":[49.567429,54.232048]}},{"type":"Feature","properties":{"address":"433505, Ульяновская обл, г. Димитровград, ул. Свирская, д. 31а","floors":9,"height":28.9,"pop":89},"geometry":{"type":"Point","coordinates":[49.585,54.219532]}},{"type":"Feature","properties":{"address":"433506, Ульяновская обл, г. Димитровград, ул. Славского, д. 18в","floors":10,"height":32,"pop":164},"geometry":{"type":"Point","coordinates":[49.560036,54.239537]}},{"type":"Feature","properties":{"address":"433507, Ульяновская обл, г. Димитровград, пр-кт. Димитрова, д. 11","floors":4,"height":13.4,"pop":54},"geometry":{"type":"Point","coordinates":[49.552257,54.224617]}},{"type":"Feature","properties":{"address":"433507, Ульяновская обл, г. Димитровград, пр-кт. Ленина, д. 18Б","floors":5,"height":16.5,"pop":111},"geometry":{"type":"Point","coordinates":[49.555176,54.229806]}},{"type":"Feature","properties":{"address":"433508, Ульяновская обл, г. Димитровград, ул. III Интернационала, д. 81а","floors":2,"height":7.2,"pop":9},"geometry":{"type":"Point","coordinates":[49.628784,54.21622]}},{"type":"Feature","properties":{"address":"433508, Ульяновская обл, г. Димитровград, ул. Комсомольская, д. 123","floors":2,"height":7.2,"pop":12},"geometry":{"type":"Point","coordinates":[49.622873,54.219637]}},{"type":"Feature","properties":{"address":"433508, Ульяновская обл, г. Димитровград, ул. Хмельницкого, д. 104","floors":2,"height":7.2,"pop":9},"geometry":{"type":"Point","coordinates":[49.625856,54.216425]}},{"type":"Feature","properties":{"address":"433509, Ульяновская обл, г. Димитровград, ул. 989 км, д. 4","floors":1,"height":4.1,"pop":2},"geometry":{"type":"Point","coordinates":[49.616091,54.230233]}},{"type":"Feature","properties":{"address":"433510, Ульяновская обл, г. Димитровград, пр-кт. Ленина, д. 15","floors":9,"height":28.9,"pop":88},"geometry":{"type":"Point","coordinates":[49.550846,54.229996]}},{"type":"Feature","properties":{"address":"433511, Ульяновская обл, г. Димитровград, ул. Власть Труда, д. 41","floors":2,"height":7.2,"pop":12},"geometry":{"type":"Point","coordinates":[49.61089,54.231227]}},{"type":"Feature","properties":{"address":"433511, Ульяновская обл, г. Димитровград, ул. Куйбышева, д. 358","floors":2,"height":7.2,"pop":14},"geometry":{"type":"Point","coordinates":[49.593076,54.254193]}},{"type":"Feature","properties":{"address":"433512, Ульяновская обл, г. Димитровград, пр-кт. Димитрова, д. 29","floors":5,"height":16.5,"pop":83},"geometry":{"type":"Point","coordinates":[49.561824,54.230048]}},{"type":"Feature","properties":{"address":"433512, Ульяновская обл, г. Димитровград, пр-кт. Димитрова, д. 33","floors":5,"height":16.5,"pop":82},"geometry":{"type":"Point","coordinates":[49.563162,54.230817]}},{"type":"Feature","properties":{"address":"433512, Ульяновская обл, г. Димитровград, пр-кт. Ленина, д. 29","floors":5,"height":16.5,"pop":262},"geometry":{"type":"Point","coordinates":[49.558159,54.234916]}},{"type":"Feature","properties":{"address":"433513, Ульяновская обл, г. Димитровград, пр-кт. Автостроителей, д. 45","floors":10,"height":32,"pop":119},"geometry":{"type":"Point","coordinates":[49.601511,54.210202]}},{"type":"Feature","properties":{"address":"433513, Ульяновская обл, г. Димитровград, пр-кт. Автостроителей, д. 55","floors":9,"height":28.9,"pop":208},"geometry":{"type":"Point","coordinates":[49.595493,54.210055]}},{"type":"Feature","properties":{"address":"433513, Ульяновская обл, г. Димитровград, ул. Западная, д. 20","floors":9,"height":28.9,"pop":215},"geometry":{"type":"Point","coordinates":[49.596705,54.210528]}},{"type":"Feature","properties":{"address":"433513, Ульяновская обл, г. Димитровград, ул. Московская, д. 34","floors":9,"height":28.9,"pop":202},"geometry":{"type":"Point","coordinates":[49.605994,54.212224]}},{"type":"Feature","properties":{"address":"433513, Ульяновская обл, г. Димитровград, ул. Московская, д. 48","floors":9,"height":28.9,"pop":135},"geometry":{"type":"Point","coordinates":[49.601377,54.21195]}},{"type":"Feature","properties":{"address":"433513, Ульяновская обл, г. Димитровград, ул. Московская, д. 62","floors":9,"height":28.9,"pop":144},"geometry":{"type":"Point","coordinates":[49.600523,54.211871]}},{"type":"Feature","properties":{"address":"433515, Ульяновская обл, г. Димитровград, ул. Братская, д. 25","floors":9,"height":28.9,"pop":142},"geometry":{"type":"Point","coordinates":[49.580608,54.243293]}},{"type":"Feature","properties":{"address":"433515, Ульяновская обл, г. Димитровград, ул. Гвардейская, д. 38а","floors":9,"height":28.9,"pop":187},"geometry":{"type":"Point","coordinates":[49.569469,54.24171]}},{"type":"Feature","properties":{"address":"433515, Ульяновская обл, г. Димитровград, ул. Гвардейская, д. 55","floors":9,"height":28.9,"pop":131},"geometry":{"type":"Point","coordinates":[49.571876,54.244293]}}]}