{"type":"FeatureCollection","name":"railroad","xy_coordinate_resolution":0.000001,"features":[{"type":"Feature","properties":{"full_id":"w49342489","osm_id":"49342489","osm_type":"way","railway":"rail","level":null,"leisure":null,"abandoned":null,"service":null,"name":null,"usage":"main","seamark:type":"bridge","seamark:bridge:category":"fixed","passenger_lines":"1","operator":"ОАО «Российские железные дороги»","layer":"1","gauge":"1520","electrified":"no","designated_direction":"both","bridge":"yes","branch":"КБШ"},"geometry":{"type":"LineString","coordinates":[]}},{"type":"Feature","properties":{"full_id":"w49342490","osm_id":"49342490","osm_type":"way","railway":"rail","level":null,"leisure":null,"abandoned":null,"service":null,"name":null,"usage":"main","seamark:type":null,"seamark:bridge:category":null,"passenger_lines":"2","operator":"ОАО «Российские железные дороги»","layer":null,"gauge":"1520","electrified":"no","designated_direction":"forward","bridge":null,"branch":"КБШ"},"geometry":{"type":"LineString","coordinates":[[49.621591,54.207634],[49.623258,54.207379],[49.623388,54.207366],[49.62418,54.207283],[49.625948,54.207155],[49.627671,54.207065],[49.627978,54.20705],[49.630312,54.206936],[49.630923,54.206906],[49.633955,54.206749],[49.635962,54.206647],[49.636927,54.206598],[49.637272,54.206572],[49.637852,54.206528],[49.638754,54.206424],[49.639435,54.20633],[49.640375,54.206166],[49.641722,54.205884],[49.642656,54.20567],[49.645643,54.205012],[49.650704,54.203897],[49.651206,54.203786],[49.651936,54.203623]]}},{"type":"Feature","properties":{"full_id":"w59621807","osm_id":"59621807","osm_type":"way","railway":"rail","level":null,"leisure":null,"abandoned":null,"service":null,"name":null,"usage":"main","seamark:type":null,"seamark:bridge:category":null,"passenger_lines":"2","operator":"ОАО «Российские железные дороги»","layer":null,"gauge":"1520","electrified":"no","designated_direction":"forward","bridge":null,"branch":"КБШ"},"geometry":{"type":"LineString","coordinates":[[49.601023,54.225713],[49.602918,54.224694],[49.603467,54.224374],[49.603786,54.224177],[49.604227,54.223847],[49.604576,54.223528],[49.60512,54.223014],[49.605553,54.222572],[49.606118,54.222008],[49.606206,54.221921],[49.606593,54.221536],[49.606872,54.221273],[49.607349,54.220823],[49.607653,54.220486],[49.6079,54.220188],[49.608063,54.219953],[49.608311,54.219508],[49.608457,54.219061],[49.608619,54.218504],[49.608667,54.218325],[49.60884,54.21765],[49.608977,54.217202],[49.609141,54.216833],[49.609386,54.216363],[49.609665,54.21591],[49.610046,54.215404],[49.610336,54.215035],[49.610709,54.21463],[49.611449,54.213889],[49.611621,54.213718],[49.614422,54.21091],[49.614847,54.210493],[49.615314,54.210081],[49.615863,54.209645],[49.61614,54.209452],[49.616611,54.209156],[49.617087,54.208918],[49.61771,54.208632],[49.618433,54.208356],[49.61909,54.208156],[49.619635,54.20801],[49.620413,54.207855],[49.620916,54.207758]]}},{"type":"Feature","properties":{"full_id":"w59621809","osm_id":"59621809","osm_type":"way","railway":"rail","level":null,"leisure":null,"abandoned":null,"service":null,"name":null,"usage":"main","seamark:type":null,"seamark:bridge:category":null,"passenger_lines":"2","operator":"ОАО «Российские железные дороги»","layer":"1","gauge":"1520","electrified":"no","designated_direction":"forward","bridge":"yes","branch":"КБШ"},"geometry":{"type":"LineString","coordinates":[[49.620916,54.207758],[49.621591,54.207634]]}},{"type":"Feature","properties":{"full_id":"w72516898","osm_id":"72516898","osm_type":"way","railway":"rail","level":null,"leisure":null,"abandoned":null,"service":"siding","name":null,"usage":null,"seamark:type":null,"seamark:bridge:category":null,"passenger_lines":null,"operator":null,"layer":null,"gauge":"1520","electrified":"no","designated_direction":null,"bridge":null,"branch":null},"geometry":{"type":"LineString","coordinates":[[49.604409,54.223141],[49.603358,54.223943],[49.603044,54.22415],[49.595209,54.228387],[49.594821,54.228608],[49.594398,54.228927]]}},{"type":"Feature","properties":{"full_id":"w72516912","osm_id":"72516912","osm_type":"way","railway":"rail","level":null,"leisure":null,"abandoned":null,"service":"siding","name":null,"usage":null,"seamark:type":null,"seamark:bridge:category":null,"passenger_lines":null,"operator":null,"layer":null,"gauge":"1520","electrified":"no","designated_direction":null,"bridge":null,"branch":null},"geometry":{"type":"LineString","coordinates":[[49.605178,54.222676],[49.604583,54.223164],[49.603938,54.223656],[49.603508,54.22398],[49.603064,54.224258],[49.602451,54.224615],[49.595323,54.228451],[49.594858,54.22871],[49.594455,54.228953],[49.594007,54.229261]]}},{"type":"Feature","properties":{"full_id":"w72516914","osm_id":"72516914","osm_type":"way","railway":"rail","level":null,"leisure":null,"abandoned":null,"service":"spur","name":null,"usage":"industrial","seamark:type":null,"seamark:bridge:category":null,"passenger_lines":null,"operator":null,"layer":null,"gauge":"1520","electrified":"no","designated_direction":null,"bridge":null,"branch":null},"geometry":{"type":"LineString","coordinates":[[49.555222,54.201178],[49.554983,54.201019],[49.554343,54.200726],[49.553653,54.200398],[49.542698,54.196295],[49.541263,54.195787],[49.538096,54.195233],[49.508655,54.197854],[49.506149,54.197822],[49.504924,54.197496],[49.503745,54.197082],[49.503351,54.196944],[49.500709,54.195938],[49.496786,54.194476],[49.495362,54.193834],[49.493,54.19193],[49.492076,54.191593],[49.487489,54.18992],[49.483686,54.188539],[49.483046,54.188306],[49.479911,54.187149],[49.477435,54.186236],[49.474859,54.185286],[49.473123,54.184646],[49.471585,54.184078],[49.470776,54.183787],[49.4703,54.183615],[49.469836,54.183515],[49.469439,54.18348],[49.468881,54.183499],[49.468363,54.183585],[49.467929,54.183711],[49.467532,54.183903],[49.467047,54.184292],[49.46639,54.184916],[49.466265,54.185049],[49.466085,54.185459],[49.466107,54.185874],[49.466889,54.186715],[49.468625,54.187378],[49.469426,54.18771],[49.470851,54.188234],[49.472447,54.188806]]}},{"type":"Feature","properties":{"full_id":"w72516943","osm_id":"72516943","osm_type":"way","railway":"rail","level":null,"leisure":null,"abandoned":null,"service":"spur","name":null,"usage":null,"seamark:type":null,"seamark:bridge:category":null,"passenger_lines":null,"operator":null,"layer":null,"gauge":"1520","electrified":"no","designated_direction":null,"bridge":null,"branch":null},"geometry":{"type":"LineString","coordinates":[[49.595856,54.227732],[49.59485,54.227931],[49.594327,54.227997],[49.593702,54.228017],[49.592761,54.227973],[49.591771,54.227815],[49.591003,54.22764],[49.590443,54.227545],[49.590165,54.2275],[49.589825,54.227442],[49.588945,54.227286],[49.585616,54.226606],[49.581613,54.225865],[49.581352,54.225817]]}},{"type":"Feature","properties":{"full_id":"w159539440","osm_id":"159539440","osm_type":"way","railway":"rail","level":null,"leisure":null,"abandoned":null,"service":"spur","name":null,"usage":null,"seamark:type":null,"seamark:bridge:category":null,"passenger_lines":null,"operator":null,"layer":null,"gauge":null,"electrified":null,"designated_direction":null,"bridge":null,"branch":null},"geometry":{"type":"LineString","coordinates":[[49.56296,54.208909],[49.561435,54.208568],[49.560168,54.208146],[49.559282,54.207705]]}},{"type":"Feature","properties":{"full_id":"w159540206","osm_id":"159540206","osm_type":"way","railway":"rail","level":null,"leisure":null,"abandoned":null,"service":"spur","name":null,"usage":null,"seamark:type":null,"seamark:bridge:category":null,"passenger_lines":null,"operator":null,"layer":null,"gauge":null,"electrified":null,"designated_direction":null,"bridge":null,"branch":null},"geometry":{"type":"LineString","coordinates":[[49.572492,54.205037],[49.573677,54.204877],[49.574302,54.204805],[49.574708,54.204777],[49.574946,54.204779],[49.575154,54.204799],[49.575359,54.204827],[49.575496,54.204868],[49.575675,54.204956],[49.576034,54.205173],[49.57659,54.205611],[49.576888,54.205867],[49.577412,54.206272],[49.577617,54.206474],[49.577695,54.206612],[49.577766,54.206831],[49.577788,54.207071],[49.577784,54.207584],[49.577773,54.208189]]}},{"type":"Feature","properties":{"full_id":"w159540209","osm_id":"159540209","osm_type":"way","railway":"rail","level":null,"leisure":null,"abandoned":null,"service":"spur","name":null,"usage":null,"seamark:type":null,"seamark:bridge:category":null,"passenger_lines":null,"operator":null,"layer":null,"gauge":null,"electrified":null,"designated_direction":null,"bridge":null,"branch":null},"geometry":{"type":"LineString","coordinates":[[49.55831,54.205936],[49.558674,54.206247],[49.558964,54.206473],[49.559239,54.206667],[49.559611,54.206851],[49.560032,54.206986],[49.56037,54.207058],[49.560795,54.207104],[49.561289,54.207137],[49.561758,54.207121],[49.562677,54.206982],[49.563313,54.206865],[49.563734,54.206773],[49.565013,54.206511],[49.56607,54.206331],[49.568262,54.205894],[49.570051,54.205537],[49.572492,54.205037],[49.573995,54.204749],[49.574477,54.204651],[49.574509,54.204645],[49.575018,54.204508],[49.575465,54.204366],[49.57564,54.204306],[49.576667,54.203979],[49.577513,54.203704],[49.578443,54.203508],[49.579648,54.203291],[49.579987,54.203223],[49.580318,54.203145],[49.580657,54.20301],[49.580887,54.202882],[49.581144,54.20269]]}},{"type":"Feature","properties":{"full_id":"w184544183","osm_id":"184544183","osm_type":"way","railway":"rail","level":null,"leisure":null,"abandoned":null,"service":"spur","name":null,"usage":null,"seamark:type":null,"seamark:bridge:category":null,"passenger_lines":null,"operator":null,"layer":null,"gauge":null,"electrified":null,"designated_direction":null,"bridge":null,"branch":null},"geometry":{"type":"LineString","coordinates":[[49.618795,54.221384],[49.619255,54.22165],[49.619298,54.221676],[49.619388,54.221768],[49.619421,54.221805],[49.619438,54.221824],[49.619493,54.221885],[49.619676,54.22222],[49.61971,54.222332],[49.619713,54.222479],[49.619684,54.22265],[49.619599,54.222887],[49.619442,54.223204],[49.619308,54.223429],[49.619219,54.223549],[49.619028,54.223764],[49.618971,54.223822]]}},{"type":"Feature","properties":{"full_id":"w184544184","osm_id":"184544184","osm_type":"way","railway":"rail","level":null,"leisure":null,"abandoned":null,"service":"spur","name":null,"usage":null,"seamark:type":null,"seamark:bridge:category":null,"passenger_lines":null,"operator":null,"layer":null,"gauge":"1520","electrified":"no","designated_direction":null,"bridge":null,"branch":null},"geometry":{"type":"LineString","coordinates":[[49.618121,54.221114],[49.617866,54.221057],[49.617465,54.220979],[49.617182,54.220913],[49.616796,54.220828],[49.616546,54.220757],[49.616292,54.220664],[49.615875,54.220542],[49.615607,54.220468],[49.615328,54.220372],[49.615074,54.220292],[49.614665,54.22019],[49.614596,54.220178],[49.614344,54.220131],[49.614116,54.220114],[49.613916,54.220105],[49.613614,54.220093],[49.613254,54.220078],[49.613124,54.220081],[49.612499,54.220097],[49.612003,54.22014],[49.611613,54.220185],[49.611371,54.220223],[49.611064,54.220296],[49.610751,54.220367],[49.610465,54.220464],[49.610235,54.22057],[49.610042,54.220677],[49.609868,54.220794],[49.609626,54.220976],[49.609324,54.221205],[49.609218,54.221304],[49.608949,54.221487],[49.608548,54.221746],[49.608032,54.222043],[49.607541,54.222354],[49.607202,54.222558],[49.606681,54.222844],[49.60611,54.223158],[49.605313,54.223584],[49.602918,54.224694]]}},{"type":"Feature","properties":{"full_id":"w243356120","osm_id":"243356120","osm_type":"way","railway":"rail","level":null,"leisure":null,"abandoned":null,"service":"spur","name":null,"usage":null,"seamark:type":null,"seamark:bridge:category":null,"passenger_lines":null,"operator":null,"layer":null,"gauge":"1520","electrified":"no","designated_direction":null,"bridge":null,"branch":null},"geometry":{"type":"LineString","coordinates":[[49.607371,54.218956],[49.607237,54.219636],[49.607048,54.220049],[49.606942,54.220219],[49.606581,54.221075],[49.60639,54.221462],[49.606221,54.221733],[49.605892,54.222092],[49.605742,54.222227],[49.605509,54.222425],[49.605178,54.222676]]}},{"type":"Feature","properties":{"full_id":"w243356121","osm_id":"243356121","osm_type":"way","railway":"rail","level":null,"leisure":null,"abandoned":null,"service":"siding","name":null,"usage":null,"seamark:type":null,"seamark:bridge:category":null,"passenger_lines":null,"operator":null,"layer":null,"gauge":"1520","electrified":"no","designated_direction":null,"bridge":null,"branch":null},"geometry":{"type":"LineString","coordinates":[[49.605817,54.222266],[49.605171,54.222765],[49.605045,54.222862],[49.604616,54.223212],[49.604176,54.223614],[49.603865,54.223883],[49.603429,54.224195],[49.602953,54.224473],[49.594844,54.22886],[49.593993,54.229334],[49.593581,54.229615]]}},{"type":"Feature","properties":{"full_id":"w243356124","osm_id":"243356124","osm_type":"way","railway":"rail","level":null,"leisure":null,"abandoned":null,"service":"siding","name":null,"usage":null,"seamark:type":null,"seamark:bridge:category":null,"passenger_lines":null,"operator":null,"layer":null,"gauge":"1520","electrified":"no","designated_direction":null,"bridge":null,"branch":null},"geometry":{"type":"LineString","coordinates":[[49.596844,54.227356],[49.595667,54.227983],[49.595116,54.22834],[49.594785,54.228596],[49.594398,54.228927],[49.594007,54.229261],[49.593581,54.229615],[49.593468,54.229689],[49.592676,54.230139],[49.591938,54.23051],[49.591338,54.230792],[49.591028,54.230977],[49.590838,54.231091],[49.590096,54.231603],[49.588768,54.232572],[49.588105,54.233188],[49.586403,54.23466]]}},{"type":"Feature","properties":{"full_id":"w243356125","osm_id":"243356125","osm_type":"way","railway":"rail","level":null,"leisure":null,"abandoned":null,"service":null,"name":null,"usage":"main","seamark:type":null,"seamark:bridge:category":null,"passenger_lines":"1","operator":"ОАО «Российские железные дороги»","layer":null,"gauge":"1520","electrified":"no","designated_direction":"both","bridge":null,"branch":"КБШ"},"geometry":{"type":"LineString","coordinates":[]}},{"type":"Feature","properties":{"full_id":"w243356126","osm_id":"243356126","osm_type":"way","railway":"rail","level":null,"leisure":null,"abandoned":null,"service":null,"name":null,"usage":"main","seamark:type":null,"seamark:bridge:category":null,"passenger_lines":"1","operator":"ОАО «Российские железные дороги»","layer":"1","gauge":"1520","electrified":"no","designated_direction":"both","bridge":"yes","branch":"КБШ"},"geometry":{"type":"LineString","coordinates":[]}},{"type":"Feature","properties":{"full_id":"w243356129","osm_id":"243356129","osm_type":"way","railway":"rail","level":null,"leisure":null,"abandoned":null,"service":"spur","name":null,"usage":null,"seamark:type":null,"seamark:bridge:category":null,"passenger_lines":null,"operator":null,"layer":null,"gauge":"1520","electrified":null,"designated_direction":null,"bridge":null,"branch":null},"geometry":{"type":"LineString","coordinates":[[49.593553,54.229726],[49.593074,54.229947],[49.592676,54.230139]]}},{"type":"Feature","properties":{"full_id":"w243356130","osm_id":"243356130","osm_type":"way","railway":"rail","level":null,"leisure":null,"abandoned":null,"service":"siding","name":null,"usage":null,"seamark:type":null,"seamark:bridge:category":null,"passenger_lines":null,"operator":null,"layer":null,"gauge":"1520","electrified":"no","designated_direction":null,"bridge":null,"branch":null},"geometry":{"type":"LineString","coordinates":[[49.593468,54.229689],[49.593074,54.229947],[49.592737,54.230161]]}},{"type":"Feature","properties":{"full_id":"w243356131","osm_id":"243356131","osm_type":"way","railway":"rail","level":null,"leisure":null,"abandoned":null,"service":"spur","name":null,"usage":"industrial","seamark:type":null,"seamark:bridge:category":null,"passenger_lines":null,"operator":null,"layer":null,"gauge":"1520","electrified":null,"designated_direction":null,"bridge":null,"branch":null},"geometry":{"type":"LineString","coordinates":[[49.593744,54.228834],[49.593452,54.229001],[49.592969,54.229345],[49.592036,54.229951]]}},{"type":"Feature","properties":{"full_id":"w243356132","osm_id":"243356132","osm_type":"way","railway":"rail","level":null,"leisure":null,"abandoned":null,"service":"spur","name":null,"usage":"industrial","seamark:type":null,"seamark:bridge:category":null,"passenger_lines":null,"operator":null,"layer":null,"gauge":"1520","electrified":null,"designated_direction":null,"bridge":null,"branch":null},"geometry":{"type":"LineString","coordinates":[[49.593744,54.228834],[49.593136,54.229111],[49.592698,54.22933],[49.591856,54.229817]]}},{"type":"Feature","properties":{"full_id":"w243356136","osm_id":"243356136","osm_type":"way","railway":"rail","level":null,"leisure":null,"abandoned":null,"service":"spur","name":null,"usage":"industrial","seamark:type":null,"seamark:bridge:category":null,"passenger_lines":null,"operator":null,"layer":null,"gauge":"1520","electrified":null,"designated_direction":null,"bridge":null,"branch":null},"geometry":{"type":"LineString","coordinates":[[49.596291,54.227599],[49.595619,54.227833],[49.595261,54.227987],[49.595002,54.228128],[49.593744,54.228834]]}},{"type":"Feature","properties":{"full_id":"w243479729","osm_id":"243479729","osm_type":"way","railway":"rail","level":null,"leisure":null,"abandoned":null,"service":null,"name":null,"usage":"main","seamark:type":null,"seamark:bridge:category":null,"passenger_lines":"2","operator":"ОАО «Российские железные дороги»","layer":null,"gauge":"1520","electrified":"no","designated_direction":"forward","bridge":null,"branch":"КБШ"},"geometry":{"type":"LineString","coordinates":[]}},{"type":"Feature","properties":{"full_id":"w243479730","osm_id":"243479730","osm_type":"way","railway":"rail","level":null,"leisure":null,"abandoned":null,"service":null,"name":null,"usage":"main","seamark:type":null,"seamark:bridge:category":null,"passenger_lines":"2","operator":"ОАО «Российские железные дороги»","layer":null,"gauge":"1520","electrified":"no","designated_direction":"forward","bridge":null,"branch":"КБШ"},"geometry":{"type":"LineString","coordinates":[[49.526882,54.283403],[49.528314,54.283124],[49.528973,54.282972],[49.529626,54.28279],[49.530228,54.282608],[49.530619,54.282462],[49.533221,54.281257],[49.534416,54.280668],[49.535064,54.280323],[49.535457,54.280056],[49.535826,54.279772],[49.536485,54.279181],[49.53674,54.27891],[49.536973,54.278583],[49.537469,54.277753],[49.538132,54.276849],[49.538475,54.276412],[49.538829,54.276016],[49.539167,54.2757],[49.539586,54.275369],[49.540017,54.2751],[49.540575,54.274766],[49.540924,54.274581],[49.541206,54.274464],[49.543126,54.273687],[49.543676,54.273454],[49.544151,54.273208],[49.544671,54.272901],[49.545151,54.272581],[49.545444,54.27235],[49.546028,54.271772],[49.546414,54.271377],[49.546677,54.271065],[49.546948,54.270602],[49.54708,54.270282],[49.547222,54.269817],[49.547313,54.26936],[49.547345,54.268937],[49.54731,54.26854],[49.547254,54.268174],[49.547072,54.267651],[49.546911,54.267283],[49.546731,54.266958],[49.546358,54.266465],[49.54598,54.266023],[49.545731,54.265783],[49.544427,54.264682],[49.544067,54.264357],[49.54363,54.263858],[49.543373,54.263466],[49.543097,54.262988],[49.542911,54.262548],[49.542773,54.262023],[49.542714,54.261588],[49.542757,54.26109],[49.542873,54.260516],[49.543026,54.260048],[49.543289,54.259513],[49.543554,54.259097],[49.54397,54.258611],[49.544345,54.258219],[49.54482,54.25786],[49.545547,54.257397],[49.546019,54.257119],[49.54647,54.25691],[49.54754,54.256476],[49.547905,54.256356],[49.548575,54.256161],[49.549219,54.256012],[49.549559,54.255953],[49.550157,54.255856],[49.550772,54.255769],[49.551472,54.2557],[49.552603,54.255617],[49.553371,54.255574]]}},{"type":"Feature","properties":{"full_id":"w287034533","osm_id":"287034533","osm_type":"way","railway":"rail","level":null,"leisure":null,"abandoned":null,"service":"spur","name":null,"usage":null,"seamark:type":null,"seamark:bridge:category":null,"passenger_lines":null,"operator":null,"layer":null,"gauge":null,"electrified":null,"designated_direction":null,"bridge":null,"branch":null},"geometry":{"type":"LineString","coordinates":[[49.496786,54.194476],[49.49562,54.194113],[49.494834,54.193988],[49.494327,54.193963],[49.49383,54.193964],[49.493069,54.194038],[49.492472,54.194129],[49.491992,54.194254],[49.491602,54.194397],[49.490634,54.194712],[49.490095,54.194857],[49.489641,54.19493],[49.489238,54.194969],[49.488684,54.194989],[49.488119,54.194974],[49.487695,54.19494],[49.487303,54.194873],[49.486691,54.194711],[49.484777,54.194051],[49.483286,54.193488],[49.481233,54.192766],[49.480545,54.19249],[49.4804,54.192439],[49.477246,54.19129],[49.476474,54.191007],[49.474964,54.190502],[49.473207,54.189866]]}},{"type":"Feature","properties":{"full_id":"w288476700","osm_id":"288476700","osm_type":"way","railway":"rail","level":null,"leisure":null,"abandoned":null,"service":"spur","name":null,"usage":null,"seamark:type":null,"seamark:bridge:category":null,"passenger_lines":null,"operator":null,"layer":null,"gauge":null,"electrified":null,"designated_direction":null,"bridge":null,"branch":null},"geometry":{"type":"LineString","coordinates":[[49.520837,54.201996],[49.519281,54.201494],[49.518929,54.201371],[49.518171,54.201086],[49.516545,54.200474],[49.515788,54.200245],[49.514619,54.199987],[49.513519,54.199765],[49.511315,54.199498],[49.510108,54.199319],[49.509566,54.19919],[49.508552,54.198895],[49.505253,54.197703],[49.504924,54.197496]]}},{"type":"Feature","properties":{"full_id":"w312539995","osm_id":"312539995","osm_type":"way","railway":"rail","level":"-1","leisure":"slipway","abandoned":null,"service":"yard","name":null,"usage":null,"seamark:type":null,"seamark:bridge:category":null,"passenger_lines":null,"operator":null,"layer":null,"gauge":null,"electrified":null,"designated_direction":null,"bridge":null,"branch":null},"geometry":{"type":"LineString","coordinates":[[49.552564,54.189596],[49.552539,54.18971]]}},{"type":"Feature","properties":{"full_id":"w312540005","osm_id":"312540005","osm_type":"way","railway":"rail","level":null,"leisure":null,"abandoned":null,"service":"yard","name":null,"usage":null,"seamark:type":null,"seamark:bridge:category":null,"passenger_lines":null,"operator":null,"layer":null,"gauge":null,"electrified":null,"designated_direction":null,"bridge":null,"branch":null},"geometry":{"type":"LineString","coordinates":[[49.552539,54.18971],[49.552524,54.189794],[49.552516,54.189833]]}},{"type":"Feature","properties":{"full_id":"w324737389","osm_id":"324737389","osm_type":"way","railway":"rail","level":null,"leisure":null,"abandoned":null,"service":"spur","name":null,"usage":"industrial","seamark:type":null,"seamark:bridge:category":null,"passenger_lines":null,"operator":null,"layer":null,"gauge":null,"electrified":"no","designated_direction":null,"bridge":null,"branch":null},"geometry":{"type":"LineString","coordinates":[[49.561747,54.212679],[49.561928,54.21308],[49.562124,54.213521],[49.5621,54.213841],[49.561811,54.214476],[49.561316,54.214885],[49.560933,54.215128],[49.560202,54.215741],[49.560156,54.215827],[49.560039,54.216045],[49.559998,54.216502],[49.56008,54.216915],[49.560332,54.21731],[49.560623,54.217592],[49.560763,54.217724]]}},{"type":"Feature","properties":{"full_id":"w383653920","osm_id":"383653920","osm_type":"way","railway":"rail","level":null,"leisure":null,"abandoned":null,"service":"siding","name":null,"usage":null,"seamark:type":null,"seamark:bridge:category":null,"passenger_lines":null,"operator":null,"layer":null,"gauge":"1520","electrified":"no","designated_direction":null,"bridge":null,"branch":null},"geometry":{"type":"LineString","coordinates":[[49.606118,54.222008],[49.605817,54.222266],[49.605451,54.222501],[49.605178,54.222676],[49.604806,54.222923],[49.604074,54.223324],[49.603736,54.223525],[49.60309,54.223956],[49.60256,54.224266],[49.596986,54.227281],[49.596844,54.227356]]}},{"type":"Feature","properties":{"full_id":"w384650929","osm_id":"384650929","osm_type":"way","railway":"rail","level":null,"leisure":null,"abandoned":null,"service":"spur","name":null,"usage":null,"seamark:type":null,"seamark:bridge:category":null,"passenger_lines":null,"operator":null,"layer":null,"gauge":"1520","electrified":null,"designated_direction":null,"bridge":null,"branch":null},"geometry":{"type":"LineString","coordinates":[[49.590165,54.2275],[49.589472,54.227421],[49.588412,54.22735],[49.587301,54.227317],[49.586605,54.227238],[49.584616,54.226754],[49.583065,54.226476],[49.582281,54.226416],[49.581412,54.226266],[49.580329,54.226069],[49.57896,54.225815]]}},{"type":"Feature","properties":{"full_id":"w407521095","osm_id":"407521095","osm_type":"way","railway":"rail","level":null,"leisure":null,"abandoned":null,"service":"spur","name":null,"usage":null,"seamark:type":null,"seamark:bridge:category":null,"passenger_lines":null,"operator":null,"layer":null,"gauge":"1520","electrified":null,"designated_direction":null,"bridge":null,"branch":null},"geometry":{"type":"LineString","coordinates":[[49.606942,54.220219],[49.606494,54.220851],[49.606149,54.221193],[49.605612,54.221591],[49.60526,54.221781],[49.604972,54.22191],[49.604574,54.222046],[49.604175,54.222135],[49.603992,54.222165],[49.603823,54.222192],[49.603386,54.222254],[49.602956,54.222265],[49.602425,54.222252],[49.601953,54.222218],[49.601539,54.222156],[49.601142,54.222085],[49.600873,54.222018]]}},{"type":"Feature","properties":{"full_id":"w407521101","osm_id":"407521101","osm_type":"way","railway":"rail","level":null,"leisure":null,"abandoned":null,"service":"spur","name":null,"usage":"branch","seamark:type":null,"seamark:bridge:category":null,"passenger_lines":null,"operator":"ОАО «Российские железные дороги»","layer":null,"gauge":"1520","electrified":"no","designated_direction":null,"bridge":null,"branch":null},"geometry":{"type":"LineString","coordinates":[[49.606581,54.221075],[49.606291,54.221538],[49.605987,54.221853],[49.605619,54.222163],[49.605176,54.222449],[49.604511,54.222821],[49.604006,54.223081],[49.603432,54.223377],[49.600519,54.224584]]}},{"type":"Feature","properties":{"full_id":"w409279031","osm_id":"409279031","osm_type":"way","railway":"rail","level":null,"leisure":null,"abandoned":null,"service":"spur","name":null,"usage":null,"seamark:type":null,"seamark:bridge:category":null,"passenger_lines":null,"operator":null,"layer":null,"gauge":null,"electrified":null,"designated_direction":null,"bridge":null,"branch":null},"geometry":{"type":"LineString","coordinates":[[49.576667,54.203979],[49.577751,54.203699],[49.578615,54.203557],[49.579283,54.203527],[49.580033,54.203539],[49.582026,54.203565],[49.582738,54.203571],[49.584711,54.20359],[49.585668,54.203592],[49.586894,54.203595],[49.588011,54.203606],[49.588819,54.203614],[49.592541,54.20365],[49.594451,54.203702],[49.595044,54.203727],[49.595628,54.203751]]}},{"type":"Feature","properties":{"full_id":"w409279033","osm_id":"409279033","osm_type":"way","railway":"rail","level":null,"leisure":null,"abandoned":null,"service":"spur","name":null,"usage":null,"seamark:type":null,"seamark:bridge:category":null,"passenger_lines":null,"operator":null,"layer":null,"gauge":null,"electrified":null,"designated_direction":null,"bridge":null,"branch":null},"geometry":{"type":"LineString","coordinates":[[49.588011,54.203606],[49.588562,54.203639],[49.588898,54.203686],[49.589365,54.203844],[49.589827,54.204076],[49.590422,54.204467],[49.590822,54.204775],[49.59107,54.20507],[49.591266,54.205502],[49.591294,54.205854],[49.591187,54.206584],[49.591131,54.208296]]}},{"type":"Feature","properties":{"full_id":"w409279034","osm_id":"409279034","osm_type":"way","railway":"rail","level":null,"leisure":null,"abandoned":null,"service":"spur","name":null,"usage":null,"seamark:type":null,"seamark:bridge:category":null,"passenger_lines":null,"operator":null,"layer":null,"gauge":null,"electrified":null,"designated_direction":null,"bridge":null,"branch":null},"geometry":{"type":"LineString","coordinates":[[49.590422,54.204467],[49.590869,54.204744],[49.591251,54.204906],[49.591645,54.204982],[49.592335,54.205029],[49.593716,54.205047]]}},{"type":"Feature","properties":{"full_id":"w409279036","osm_id":"409279036","osm_type":"way","railway":"rail","level":null,"leisure":null,"abandoned":null,"service":"spur","name":null,"usage":null,"seamark:type":null,"seamark:bridge:category":null,"passenger_lines":null,"operator":null,"layer":null,"gauge":null,"electrified":null,"designated_direction":null,"bridge":null,"branch":null},"geometry":{"type":"LineString","coordinates":[[49.584711,54.20359],[49.585126,54.20362],[49.585718,54.20376],[49.586192,54.20394],[49.586691,54.204059],[49.586905,54.204116],[49.587233,54.204128],[49.588349,54.204146]]}},{"type":"Feature","properties":{"full_id":"w420512370","osm_id":"420512370","osm_type":"way","railway":"rail","level":null,"leisure":null,"abandoned":null,"service":"spur","name":null,"usage":null,"seamark:type":null,"seamark:bridge:category":null,"passenger_lines":null,"operator":null,"layer":null,"gauge":"1520","electrified":null,"designated_direction":null,"bridge":null,"branch":null},"geometry":{"type":"LineString","coordinates":[[49.588768,54.232572],[49.588368,54.23306],[49.587965,54.233803],[49.587808,54.234219],[49.58771,54.234479],[49.587632,54.234887],[49.587664,54.235292],[49.587866,54.236796],[49.587837,54.236947],[49.587561,54.237505]]}},{"type":"Feature","properties":{"full_id":"w420512371","osm_id":"420512371","osm_type":"way","railway":"rail","level":null,"leisure":null,"abandoned":null,"service":"spur","name":null,"usage":null,"seamark:type":null,"seamark:bridge:category":null,"passenger_lines":null,"operator":null,"layer":null,"gauge":"1520","electrified":null,"designated_direction":null,"bridge":null,"branch":null},"geometry":{"type":"LineString","coordinates":[[49.587965,54.233803],[49.587774,54.234059],[49.587427,54.234397],[49.58691,54.234769],[49.58667,54.234994],[49.586477,54.235226],[49.586411,54.235383],[49.586372,54.235794]]}},{"type":"Feature","properties":{"full_id":"w420512373","osm_id":"420512373","osm_type":"way","railway":"rail","level":null,"leisure":null,"abandoned":null,"service":"spur","name":null,"usage":null,"seamark:type":null,"seamark:bridge:category":null,"passenger_lines":null,"operator":null,"layer":null,"gauge":"1520","electrified":null,"designated_direction":null,"bridge":null,"branch":null},"geometry":{"type":"LineString","coordinates":[[49.587808,54.234219],[49.587668,54.2345],[49.587402,54.234819],[49.587204,54.235047],[49.587119,54.235145],[49.587031,54.235307],[49.586963,54.235532],[49.586914,54.236662]]}},{"type":"Feature","properties":{"full_id":"w440934918","osm_id":"440934918","osm_type":"way","railway":"rail","level":null,"leisure":null,"abandoned":null,"service":"spur","name":null,"usage":"industrial","seamark:type":null,"seamark:bridge:category":null,"passenger_lines":null,"operator":null,"layer":null,"gauge":null,"electrified":"no","designated_direction":null,"bridge":null,"branch":null},"geometry":{"type":"LineString","coordinates":[[49.565133,54.21622],[49.564571,54.215073],[49.564007,54.214554],[49.563184,54.214197],[49.562989,54.214098],[49.562784,54.213933],[49.562609,54.213734],[49.56239,54.213453],[49.562081,54.212995],[49.561786,54.212495]]}},{"type":"Feature","properties":{"full_id":"w483997374","osm_id":"483997374","osm_type":"way","railway":"rail","level":null,"leisure":null,"abandoned":null,"service":null,"name":null,"usage":"main","seamark:type":null,"seamark:bridge:category":null,"passenger_lines":"1","operator":"ОАО «Российские железные дороги»","layer":null,"gauge":"1520","electrified":"no","designated_direction":"both","bridge":null,"branch":"КБШ"},"geometry":{"type":"LineString","coordinates":[[49.553371,54.255574],[49.554639,54.255479],[49.555675,54.255347],[49.556679,54.255161],[49.557205,54.255037],[49.557597,54.254927],[49.557681,54.254899],[49.558365,54.254669],[49.558978,54.25443],[49.559446,54.25422],[49.559794,54.254034],[49.560358,54.253701],[49.561516,54.253004],[49.562407,54.25242],[49.563126,54.251992],[49.563533,54.251707],[49.563938,54.251308],[49.565022,54.250046],[49.565407,54.249547],[49.565751,54.249166],[49.566346,54.248668],[49.56713,54.248159],[49.567508,54.247936],[49.56778,54.247789],[49.568497,54.247479],[49.569254,54.247201],[49.570041,54.246987],[49.570829,54.246805],[49.571065,54.246764],[49.571484,54.24669],[49.572273,54.246586],[49.572902,54.246523],[49.57501,54.246382],[49.577695,54.246208],[49.578762,54.246098],[49.579516,54.245988],[49.580241,54.24584],[49.58118,54.245601],[49.581985,54.245339],[49.582557,54.245097],[49.583064,54.244854],[49.583528,54.244598],[49.584035,54.244294],[49.584549,54.243939],[49.585067,54.243547],[49.585728,54.24296],[49.586338,54.242475],[49.586812,54.242042],[49.587219,54.241607],[49.587509,54.241176],[49.587699,54.240855],[49.587886,54.240416],[49.588044,54.239949],[49.588134,54.239522],[49.588257,54.238502],[49.588373,54.237682],[49.588371,54.237048],[49.588183,54.235761],[49.588151,54.235249],[49.588147,54.235194],[49.588185,54.234659],[49.588325,54.234124],[49.588565,54.233581],[49.588889,54.233053],[49.589201,54.232628],[49.58965,54.232153],[49.590254,54.231658],[49.590872,54.231252],[49.591337,54.230986],[49.591594,54.230838]]}},{"type":"Feature","properties":{"full_id":"w484000776","osm_id":"484000776","osm_type":"way","railway":"rail","level":null,"leisure":null,"abandoned":null,"service":null,"name":null,"usage":"main","seamark:type":null,"seamark:bridge:category":null,"passenger_lines":"2","operator":"ОАО «Российские железные дороги»","layer":null,"gauge":"1520","electrified":"no","designated_direction":"forward","bridge":null,"branch":"КБШ"},"geometry":{"type":"LineString","coordinates":[[49.591594,54.230838],[49.592363,54.23037],[49.592737,54.230161],[49.593553,54.229726],[49.593671,54.229671],[49.594536,54.229205],[49.595456,54.228711],[49.601023,54.225713]]}},{"type":"Feature","properties":{"full_id":"w484000780","osm_id":"484000780","osm_type":"way","railway":"rail","level":null,"leisure":null,"abandoned":null,"service":null,"name":null,"usage":"main","seamark:type":null,"seamark:bridge:category":null,"passenger_lines":"1","operator":"ОАО «Российские железные дороги»","layer":null,"gauge":"1520","electrified":"no","designated_direction":"both","bridge":null,"branch":"КБШ"},"geometry":{"type":"LineString","coordinates":[[49.525322,54.283723],[49.526882,54.283403]]}},{"type":"Feature","properties":{"full_id":"w484000782","osm_id":"484000782","osm_type":"way","railway":"rail","level":null,"leisure":null,"abandoned":null,"service":null,"name":null,"usage":"main","seamark:type":null,"seamark:bridge:category":null,"passenger_lines":"2","operator":"ОАО «Российские железные дороги»","layer":null,"gauge":"1520","electrified":"no","designated_direction":"forward","bridge":null,"branch":"КБШ"},"geometry":{"type":"LineString","coordinates":[]}},{"type":"Feature","properties":{"full_id":"w484003244","osm_id":"484003244","osm_type":"way","railway":"rail","level":null,"leisure":null,"abandoned":null,"service":null,"name":null,"usage":"main","seamark:type":null,"seamark:bridge:category":null,"passenger_lines":"1","operator":"ОАО «Российские железные дороги»","layer":null,"gauge":"1520","electrified":"no","designated_direction":"both","bridge":null,"branch":"КБШ"},"geometry":{"type":"LineString","coordinates":[[49.651936,54.203623],[49.654559,54.203087],[49.65497,54.203014],[49.655583,54.202929],[49.656439,54.202829],[49.657229,54.202776],[49.657923,54.202736],[49.658854,54.202723],[49.66548,54.202722]]}},{"type":"Feature","properties":{"full_id":"w514718569","osm_id":"514718569","osm_type":"way","railway":"rail","level":null,"leisure":null,"abandoned":null,"service":"spur","name":null,"usage":"industrial","seamark:type":null,"seamark:bridge:category":null,"passenger_lines":null,"operator":null,"layer":null,"gauge":"1520","electrified":"no","designated_direction":null,"bridge":null,"branch":null},"geometry":{"type":"LineString","coordinates":[[49.477246,54.19129],[49.477029,54.191191],[49.476521,54.190957],[49.476249,54.190814],[49.476039,54.190663],[49.475817,54.190448],[49.475572,54.190113],[49.47535,54.189941],[49.474831,54.189682],[49.472447,54.188806]]}},{"type":"Feature","properties":{"full_id":"w514718576","osm_id":"514718576","osm_type":"way","railway":"rail","level":null,"leisure":null,"abandoned":null,"service":"spur","name":null,"usage":null,"seamark:type":null,"seamark:bridge:category":null,"passenger_lines":null,"operator":null,"layer":null,"gauge":null,"electrified":null,"designated_direction":null,"bridge":null,"branch":null},"geometry":{"type":"LineString","coordinates":[[49.515236,54.199994],[49.515917,54.200009],[49.516459,54.199975],[49.517221,54.199846],[49.517832,54.199736],[49.518718,54.199633],[49.519227,54.19962],[49.519973,54.199683],[49.520525,54.19983],[49.522687,54.200605]]}},{"type":"Feature","properties":{"full_id":"w514718577","osm_id":"514718577","osm_type":"way","railway":"rail","level":null,"leisure":null,"abandoned":null,"service":"spur","name":null,"usage":null,"seamark:type":null,"seamark:bridge:category":null,"passenger_lines":null,"operator":null,"layer":null,"gauge":null,"electrified":null,"designated_direction":null,"bridge":null,"branch":null},"geometry":{"type":"LineString","coordinates":[[49.513519,54.199765],[49.515236,54.199994],[49.518299,54.200376],[49.520686,54.200687],[49.520971,54.200743],[49.521276,54.200841],[49.523444,54.201628]]}},{"type":"Feature","properties":{"full_id":"w1089446774","osm_id":"1089446774","osm_type":"way","railway":"rail","level":null,"leisure":null,"abandoned":null,"service":null,"name":null,"usage":null,"seamark:type":null,"seamark:bridge:category":null,"passenger_lines":null,"operator":null,"layer":null,"gauge":null,"electrified":null,"designated_direction":null,"bridge":null,"branch":null},"geometry":{"type":"LineString","coordinates":[[49.5621,54.213217],[49.561957,54.212964],[49.561936,54.212935],[49.561755,54.212692],[49.561747,54.212679],[49.561606,54.212445],[49.561549,54.212361],[49.561302,54.212002],[49.561015,54.211694],[49.560722,54.211516],[49.560296,54.211327],[49.560198,54.211284],[49.559816,54.211177],[49.559509,54.211108]]}},{"type":"Feature","properties":{"full_id":"w1089446776","osm_id":"1089446776","osm_type":"way","railway":"rail","level":null,"leisure":null,"abandoned":null,"service":null,"name":null,"usage":null,"seamark:type":null,"seamark:bridge:category":null,"passenger_lines":null,"operator":null,"layer":null,"gauge":null,"electrified":null,"designated_direction":null,"bridge":null,"branch":null},"geometry":{"type":"LineString","coordinates":[]}},{"type":"Feature","properties":{"full_id":"w1089446777","osm_id":"1089446777","osm_type":"way","railway":"rail","level":null,"leisure":null,"abandoned":null,"service":null,"name":null,"usage":null,"seamark:type":null,"seamark:bridge:category":null,"passenger_lines":null,"operator":null,"layer":null,"gauge":null,"electrified":null,"designated_direction":null,"bridge":null,"branch":null},"geometry":{"type":"LineString","coordinates":[[49.561936,54.212935],[49.561741,54.212538],[49.561476,54.212032],[49.561312,54.211723],[49.561255,54.21162],[49.561095,54.211329],[49.56069,54.210567],[49.55933,54.207972],[49.558903,54.207214],[49.558716,54.206855],[49.558539,54.206518],[49.558316,54.206099],[49.557752,54.204945]]}},{"type":"Feature","properties":{"full_id":"w1089446778","osm_id":"1089446778","osm_type":"way","railway":"rail","level":null,"leisure":null,"abandoned":null,"service":null,"name":null,"usage":null,"seamark:type":null,"seamark:bridge:category":null,"passenger_lines":null,"operator":null,"layer":null,"gauge":null,"electrified":null,"designated_direction":null,"bridge":null,"branch":null},"geometry":{"type":"LineString","coordinates":[[49.561549,54.212361],[49.561332,54.211902],[49.561324,54.211884],[49.561255,54.21162]]}},{"type":"Feature","properties":{"full_id":"w1089446781","osm_id":"1089446781","osm_type":"way","railway":"rail","level":null,"leisure":null,"abandoned":null,"service":"spur","name":null,"usage":"industrial","seamark:type":null,"seamark:bridge:category":null,"passenger_lines":null,"operator":null,"layer":null,"gauge":"1520","electrified":"no","designated_direction":null,"bridge":null,"branch":null},"geometry":{"type":"LineString","coordinates":[[49.596844,54.227356],[49.596291,54.227599],[49.595856,54.227732],[49.594719,54.228034],[49.592396,54.228525],[49.590468,54.228897],[49.589033,54.229173],[49.587951,54.22923],[49.586619,54.229168],[49.585547,54.228974],[49.583682,54.228646],[49.581538,54.228255],[49.573196,54.226755],[49.572715,54.226676],[49.572113,54.226517],[49.571385,54.226295],[49.571167,54.226201],[49.571049,54.226145],[49.570912,54.226077],[49.570702,54.225961],[49.570554,54.225864],[49.570445,54.225786],[49.57029,54.225673],[49.569973,54.225367],[49.569653,54.225006],[49.569281,54.224587],[49.568139,54.223304],[49.567781,54.222928],[49.567728,54.22287],[49.567653,54.222788],[49.567449,54.222583],[49.566969,54.222021],[49.56656,54.221487],[49.566373,54.221209],[49.56621,54.220969],[49.565979,54.220562],[49.565062,54.218756],[49.563328,54.215486],[49.5621,54.213217],[49.561919,54.212752],[49.559761,54.208566],[49.559463,54.208013],[49.559282,54.207705],[49.55831,54.205936],[49.557752,54.204945],[49.557617,54.204705],[49.556973,54.203322],[49.555973,54.201828],[49.555531,54.201411],[49.555222,54.201178]]}},{"type":"Feature","properties":{"full_id":"w1418954202","osm_id":"1418954202","osm_type":"way","railway":"rail","level":null,"leisure":null,"abandoned":null,"service":"spur","name":null,"usage":null,"seamark:type":null,"seamark:bridge:category":null,"passenger_lines":null,"operator":null,"layer":null,"gauge":null,"electrified":null,"designated_direction":null,"bridge":null,"branch":null},"geometry":{"type":"LineString","coordinates":[[49.492076,54.191593],[49.490249,54.191247],[49.487915,54.190423]]}},{"type":"Feature","properties":{"full_id":"w1418954249","osm_id":"1418954249","osm_type":"way","railway":"rail","level":null,"leisure":null,"abandoned":null,"service":"spur","name":null,"usage":null,"seamark:type":null,"seamark:bridge:category":null,"passenger_lines":null,"operator":null,"layer":null,"gauge":null,"electrified":null,"designated_direction":null,"bridge":null,"branch":null},"geometry":{"type":"LineString","coordinates":[[49.470776,54.183787],[49.471893,54.18406],[49.472208,54.18417]]}},{"type":"Feature","properties":{"full_id":"w1418954299","osm_id":"1418954299","osm_type":"way","railway":"rail","level":null,"leisure":null,"abandoned":null,"service":"spur","name":null,"usage":null,"seamark:type":null,"seamark:bridge:category":null,"passenger_lines":null,"operator":null,"layer":null,"gauge":null,"electrified":null,"designated_direction":null,"bridge":null,"branch":null},"geometry":{"type":"LineString","coordinates":[[49.484777,54.194051],[49.483723,54.193694],[49.481741,54.193235],[49.481085,54.193006],[49.480181,54.192645],[49.477953,54.191834]]}},{"type":"Feature","properties":{"full_id":"w1531634148","osm_id":"1531634148","osm_type":"way","railway":"rail","level":null,"leisure":null,"abandoned":null,"service":"spur","name":null,"usage":null,"seamark:type":null,"seamark:bridge:category":null,"passenger_lines":null,"operator":null,"layer":"1","gauge":"1520","electrified":"no","designated_direction":null,"bridge":"yes","branch":null},"geometry":{"type":"LineString","coordinates":[[49.618304,54.221165],[49.618121,54.221114]]}},{"type":"Feature","properties":{"full_id":"w1531634149","osm_id":"1531634149","osm_type":"way","railway":"rail","level":null,"leisure":null,"abandoned":null,"service":"spur","name":null,"usage":null,"seamark:type":null,"seamark:bridge:category":null,"passenger_lines":null,"operator":null,"layer":null,"gauge":"1520","electrified":"no","designated_direction":null,"bridge":null,"branch":null},"geometry":{"type":"LineString","coordinates":[[49.619187,54.224761],[49.619332,54.224487],[49.61955,54.224058],[49.619681,54.223695],[49.619798,54.22304],[49.619827,54.222873],[49.619844,54.222658],[49.61985,54.222478],[49.619833,54.22233],[49.61977,54.222186],[49.619673,54.222021],[49.619502,54.221836],[49.619465,54.221798],[49.619447,54.221779],[49.619327,54.221651],[49.619286,54.221622],[49.619217,54.221573],[49.61903,54.221478],[49.618795,54.221384],[49.618572,54.221273],[49.618304,54.221165]]}},{"type":"Feature","properties":{"full_id":"w1531634160","osm_id":"1531634160","osm_type":"way","railway":"rail","level":null,"leisure":null,"abandoned":null,"service":"spur","name":null,"usage":null,"seamark:type":null,"seamark:bridge:category":null,"passenger_lines":null,"operator":null,"layer":null,"gauge":"1520","electrified":"no","designated_direction":null,"bridge":null,"branch":null},"geometry":{"type":"LineString","coordinates":[[49.605171,54.222765],[49.605451,54.222501],[49.605742,54.222227]]}}]}