{"type":"FeatureCollection","features":[{"type":"Feature","id":1,"properties":{"source":"bus_stop","name":"Магазин Весна"},"geometry":{"type":"Point","coordinates":[49.553172,54.224627]}},{"type":"Feature","id":2,"properties":{"source":"bus_stop","name":"Магазин Весна"},"geometry":{"type":"Point","coordinates":[49.554284,54.225634]}},{"type":"Feature","id":3,"properties":{"source":"bus_stop","name":"Западная улица"},"geometry":{"type":"Point","coordinates":[49.600796,54.20941]}},{"type":"Feature","id":4,"properties":{"source":"bus_stop","name":"Западная улица"},"geometry":{"type":"Point","coordinates":[49.601145,54.209119]}},{"type":"Feature","id":5,"properties":{"source":"bus_stop","name":""},"geometry":{"type":"Point","coordinates":[49.564681,54.233154]}},{"type":"Feature","id":6,"properties":{"source":"bus_stop","name":"Школа № 6"},"geometry":{"type":"Point","coordinates":[49.57007,54.235294]}},{"type":"Feature","id":7,"properties":{"source":"bus_stop","name":"Школа № 6"},"geometry":{"type":"Point","coordinates":[49.570429,54.235865]}},{"type":"Feature","id":8,"properties":{"source":"bus_stop","name":"Технический колледж"},"geometry":{"type":"Point","coordinates":[49.593001,54.209304]}},{"type":"Feature","id":9,"properties":{"source":"bus_stop","name":"ДААЗ"},"geometry":{"type":"Point","coordinates":[49.588994,54.209265]}},{"type":"Feature","id":10,"properties":{"source":"bus_stop","name":"Молочный техникум"},"geometry":{"type":"Point","coordinates":[49.587008,54.213545]}},{"type":"Feature","id":11,"properties":{"source":"bus_stop","name":"Магазин Био-тон"},"geometry":{"type":"Point","coordinates":[49.610197,54.209216]}},{"type":"Feature","id":12,"properties":{"source":"bus_stop","name":"Молочный техникум"},"geometry":{"type":"Point","coordinates":[49.587554,54.213887]}},{"type":"Feature","id":13,"properties":{"source":"bus_stop","name":"Магазин Био-тон"},"geometry":{"type":"Point","coordinates":[49.609063,54.209477]}},{"type":"Feature","id":14,"properties":{"source":"bus_stop","name":"Хлебная база"},"geometry":{"type":"Point","coordinates":[49.586613,54.219684]}},{"type":"Feature","id":15,"properties":{"source":"bus_stop","name":"Хлебная база"},"geometry":{"type":"Point","coordinates":[49.585776,54.219666]}},{"type":"Feature","id":16,"properties":{"source":"bus_stop","name":"ДК Восход"},"geometry":{"type":"Point","coordinates":[49.551396,54.229437]}},{"type":"Feature","id":17,"properties":{"source":"bus_stop","name":"Кинотеатр Спутник"},"geometry":{"type":"Point","coordinates":[49.547875,54.227051]}},{"type":"Feature","id":18,"properties":{"source":"bus_stop","name":"Городская больница № 1"},"geometry":{"type":"Point","coordinates":[49.545009,54.225596]}},{"type":"Feature","id":19,"properties":{"source":"bus_stop","name":"ДК Восход"},"geometry":{"type":"Point","coordinates":[49.553086,54.23003]}},{"type":"Feature","id":20,"properties":{"source":"bus_stop","name":"НКЦ"},"geometry":{"type":"Point","coordinates":[49.558929,54.227953]}},{"type":"Feature","id":21,"properties":{"source":"bus_stop","name":"Мелекесс"},"geometry":{"type":"Point","coordinates":[49.598353,54.21079]}},{"type":"Feature","id":22,"properties":{"source":"bus_stop","name":"Магазин № 15"},"geometry":{"type":"Point","coordinates":[49.597034,54.21291]}},{"type":"Feature","id":23,"properties":{"source":"bus_stop","name":"ДОЗ"},"geometry":{"type":"Point","coordinates":[49.569572,54.22221]}},{"type":"Feature","id":24,"properties":{"source":"bus_stop","name":"ДОЗ"},"geometry":{"type":"Point","coordinates":[49.566785,54.223712]}},{"type":"Feature","id":25,"properties":{"source":"bus_stop","name":"Поликлиника"},"geometry":{"type":"Point","coordinates":[49.557221,54.233603]}},{"type":"Feature","id":26,"properties":{"source":"bus_stop","name":"Техникум стройиндустрии"},"geometry":{"type":"Point","coordinates":[49.568118,54.237554]}},{"type":"Feature","id":27,"properties":{"source":"bus_stop","name":"Дом быта"},"geometry":{"type":"Point","coordinates":[49.561165,54.235912]}},{"type":"Feature","id":28,"properties":{"source":"bus_stop","name":"Орбита"},"geometry":{"type":"Point","coordinates":[49.549408,54.235474]}},{"type":"Feature","id":29,"properties":{"source":"bus_stop","name":"Дом быта"},"geometry":{"type":"Point","coordinates":[49.56234,54.236815]}},{"type":"Feature","id":30,"properties":{"source":"bus_stop","name":"ДУС"},"geometry":{"type":"Point","coordinates":[49.569064,54.231304]}},{"type":"Feature","id":31,"properties":{"source":"bus_stop","name":"Дачная"},"geometry":{"type":"Point","coordinates":[49.569555,54.230967]}},{"type":"Feature","id":32,"properties":{"source":"bus_stop","name":"Поликлиника"},"geometry":{"type":"Point","coordinates":[49.61371,54.219749]}},{"type":"Feature","id":33,"properties":{"source":"bus_stop","name":"Поликлиника"},"geometry":{"type":"Point","coordinates":[49.6135,54.219288]}},{"type":"Feature","id":34,"properties":{"source":"bus_stop","name":"Гвардейская улица"},"geometry":{"type":"Point","coordinates":[49.571529,54.240837]}},{"type":"Feature","id":35,"properties":{"source":"bus_stop","name":"Пожарное депо"},"geometry":{"type":"Point","coordinates":[49.571271,54.241645]}},{"type":"Feature","id":36,"properties":{"source":"bus_stop","name":"Дом торговли"},"geometry":{"type":"Point","coordinates":[49.570859,54.239314]}},{"type":"Feature","id":37,"properties":{"source":"bus_stop","name":"Школа № 5"},"geometry":{"type":"Point","coordinates":[49.545923,54.232738]}},{"type":"Feature","id":38,"properties":{"source":"bus_stop","name":"Поликлиника"},"geometry":{"type":"Point","coordinates":[49.558298,54.23453]}},{"type":"Feature","id":39,"properties":{"source":"bus_stop","name":"Краеведческий музей"},"geometry":{"type":"Point","coordinates":[49.616146,54.219224]}},{"type":"Feature","id":40,"properties":{"source":"bus_stop","name":"Мебельная фабрика Аврора"},"geometry":{"type":"Point","coordinates":[49.625419,54.206894]}},{"type":"Feature","id":41,"properties":{"source":"bus_stop","name":"Баня"},"geometry":{"type":"Point","coordinates":[49.623311,54.207233]}},{"type":"Feature","id":42,"properties":{"source":"bus_stop","name":"Трудовая улица"},"geometry":{"type":"Point","coordinates":[49.629157,54.204449]}},{"type":"Feature","id":43,"properties":{"source":"bus_stop","name":"Железнодорожный вокзал"},"geometry":{"type":"Point","coordinates":[49.603331,54.227705]}},{"type":"Feature","id":44,"properties":{"source":"bus_stop","name":"Улица 50 лет Октября"},"geometry":{"type":"Point","coordinates":[49.600619,54.229439]}},{"type":"Feature","id":45,"properties":{"source":"bus_stop","name":"Площадь советов"},"geometry":{"type":"Point","coordinates":[49.621269,54.216916]}},{"type":"Feature","id":46,"properties":{"source":"bus_stop","name":"Перекрёсток"},"geometry":{"type":"Point","coordinates":[49.570443,54.227227]}},{"type":"Feature","id":47,"properties":{"source":"bus_stop","name":"Магазин Дружба"},"geometry":{"type":"Point","coordinates":[49.544451,54.223223]}},{"type":"Feature","id":48,"properties":{"source":"bus_stop","name":"Школа № 25"},"geometry":{"type":"Point","coordinates":[49.560725,54.229202]}},{"type":"Feature","id":49,"properties":{"source":"bus_stop","name":"Перекрёсток"},"geometry":{"type":"Point","coordinates":[49.569514,54.227262]}},{"type":"Feature","id":50,"properties":{"source":"bus_stop","name":"Сельхозтехника"},"geometry":{"type":"Point","coordinates":[49.632936,54.200935]}},{"type":"Feature","id":53,"properties":{"source":"bus_stop","name":"Улица Менделеева"},"geometry":{"type":"Point","coordinates":[49.546744,54.221249]}},{"type":"Feature","id":54,"properties":{"source":"bus_stop","name":"Поворот на Черемшан"},"geometry":{"type":"Point","coordinates":[49.522186,54.205459]}},{"type":"Feature","id":55,"properties":{"source":"bus_stop","name":"Лента"},"geometry":{"type":"Point","coordinates":[49.576246,54.221804]}},{"type":"Feature","id":56,"properties":{"source":"bus_stop","name":"Поворот на Черемшан"},"geometry":{"type":"Point","coordinates":[49.520314,54.205026]}},{"type":"Feature","id":57,"properties":{"source":"bus_stop","name":""},"geometry":{"type":"Point","coordinates":[49.482714,54.19127]}},{"type":"Feature","id":58,"properties":{"source":"bus_stop","name":"Улица Менделеева"},"geometry":{"type":"Point","coordinates":[49.545238,54.22247]}},{"type":"Feature","id":59,"properties":{"source":"bus_stop","name":"Железнодорожный вокзал"},"geometry":{"type":"Point","coordinates":[49.604825,54.227186]}},{"type":"Feature","id":60,"properties":{"source":"bus_stop","name":"Мелькомбинат"},"geometry":{"type":"Point","coordinates":[49.616207,54.224798]}},{"type":"Feature","id":61,"properties":{"source":"bus_stop","name":"Площадь советов"},"geometry":{"type":"Point","coordinates":[49.621387,54.215612]}},{"type":"Feature","id":62,"properties":{"source":"bus_stop","name":"Горводоканал"},"geometry":{"type":"Point","coordinates":[49.623359,54.213231]}},{"type":"Feature","id":63,"properties":{"source":"bus_stop","name":"Сельхозтехника"},"geometry":{"type":"Point","coordinates":[49.631637,54.201837]}},{"type":"Feature","id":64,"properties":{"source":"bus_stop","name":"Школа № 11"},"geometry":{"type":"Point","coordinates":[49.615946,54.2087]}},{"type":"Feature","id":65,"properties":{"source":"bus_stop","name":"Магнит"},"geometry":{"type":"Point","coordinates":[49.567996,54.225328]}},{"type":"Feature","id":66,"properties":{"source":"bus_stop","name":"ДК Строитель"},"geometry":{"type":"Point","coordinates":[49.56406,54.230925]}},{"type":"Feature","id":67,"properties":{"source":"bus_stop","name":"Площадь советов"},"geometry":{"type":"Point","coordinates":[49.622111,54.217002]}},{"type":"Feature","id":68,"properties":{"source":"bus_stop","name":"Площадь советов"},"geometry":{"type":"Point","coordinates":[49.622009,54.216601]}},{"type":"Feature","id":69,"properties":{"source":"bus_stop","name":"Драмтеатр"},"geometry":{"type":"Point","coordinates":[49.626431,54.217075]}},{"type":"Feature","id":70,"properties":{"source":"bus_stop","name":"Драмтеатр"},"geometry":{"type":"Point","coordinates":[49.628259,54.217328]}},{"type":"Feature","id":71,"properties":{"source":"bus_stop","name":"улица Гоголя"},"geometry":{"type":"Point","coordinates":[49.581958,54.229698]}},{"type":"Feature","id":72,"properties":{"source":"bus_stop","name":"Кольцо"},"geometry":{"type":"Point","coordinates":[49.566818,54.226649]}},{"type":"Feature","id":73,"properties":{"source":"bus_stop","name":"База отдыха Русич"},"geometry":{"type":"Point","coordinates":[49.606847,54.203323]}},{"type":"Feature","id":74,"properties":{"source":"bus_stop","name":"Техникум стройиндустрии"},"geometry":{"type":"Point","coordinates":[49.566981,54.237891]}},{"type":"Feature","id":75,"properties":{"source":"bus_stop","name":"Мелькомбинат"},"geometry":{"type":"Point","coordinates":[49.616919,54.223766]}},{"type":"Feature","id":76,"properties":{"source":"bus_stop","name":"ЖК Олимпийский"},"geometry":{"type":"Point","coordinates":[49.64538,54.214249]}},{"type":"Feature","id":77,"properties":{"source":"bus_stop","name":"Спартак"},"geometry":{"type":"Point","coordinates":[49.631808,54.211302]}},{"type":"Feature","id":78,"properties":{"source":"bus_stop","name":"Трудовая улица"},"geometry":{"type":"Point","coordinates":[49.630799,54.204823]}},{"type":"Feature","id":79,"properties":{"source":"bus_stop","name":"Химмаш"},"geometry":{"type":"Point","coordinates":[49.607977,54.230037]}},{"type":"Feature","id":80,"properties":{"source":"bus_stop","name":"Октябрьская улица"},"geometry":{"type":"Point","coordinates":[49.590908,54.215494]}},{"type":"Feature","id":81,"properties":{"source":"bus_stop","name":"улица Гоголя"},"geometry":{"type":"Point","coordinates":[49.58332,54.229888]}},{"type":"Feature","id":82,"properties":{"source":"bus_stop","name":"Улица Ганенкова"},"geometry":{"type":"Point","coordinates":[49.595469,54.225022]}},{"type":"Feature","id":83,"properties":{"source":"bus_stop","name":"Хлебозавод"},"geometry":{"type":"Point","coordinates":[49.603618,54.234774]}},{"type":"Feature","id":84,"properties":{"source":"bus_stop","name":"Институт"},"geometry":{"type":"Point","coordinates":[49.601613,54.238831]}},{"type":"Feature","id":85,"properties":{"source":"bus_stop","name":"Институт"},"geometry":{"type":"Point","coordinates":[49.601855,54.239223]}},{"type":"Feature","id":86,"properties":{"source":"bus_stop","name":"Школа № 11"},"geometry":{"type":"Point","coordinates":[49.61652,54.208267]}},{"type":"Feature","id":87,"properties":{"source":"bus_stop","name":"Стадион"},"geometry":{"type":"Point","coordinates":[49.547504,54.228768]}},{"type":"Feature","id":88,"properties":{"source":"bus_stop","name":"Дачный - конечная"},"geometry":{"type":"Point","coordinates":[49.556728,54.291288]}},{"type":"Feature","id":89,"properties":{"source":"bus_stop","name":"Дачный"},"geometry":{"type":"Point","coordinates":[49.561563,54.286752]}},{"type":"Feature","id":90,"properties":{"source":"bus_stop","name":"Улица Шишкина"},"geometry":{"type":"Point","coordinates":[49.565923,54.282654]}},{"type":"Feature","id":91,"properties":{"source":"bus_stop","name":"Городское кладбище"},"geometry":{"type":"Point","coordinates":[49.570456,54.278498]}},{"type":"Feature","id":92,"properties":{"source":"bus_stop","name":"Кордон"},"geometry":{"type":"Point","coordinates":[49.590589,54.259175]}},{"type":"Feature","id":93,"properties":{"source":"bus_stop","name":"Пчелосовхоз"},"geometry":{"type":"Point","coordinates":[49.593846,54.253341]}},{"type":"Feature","id":94,"properties":{"source":"bus_stop","name":"ЛазерПРО"},"geometry":{"type":"Point","coordinates":[49.594754,54.252314]}},{"type":"Feature","id":95,"properties":{"source":"bus_stop","name":"Улица Куйбышева"},"geometry":{"type":"Point","coordinates":[49.595614,54.250748]}},{"type":"Feature","id":96,"properties":{"source":"bus_stop","name":"Племстанция"},"geometry":{"type":"Point","coordinates":[49.597392,54.247978]}},{"type":"Feature","id":97,"properties":{"source":"bus_stop","name":"Военкомат"},"geometry":{"type":"Point","coordinates":[49.598698,54.245333]}},{"type":"Feature","id":98,"properties":{"source":"bus_stop","name":"Хлебозавод"},"geometry":{"type":"Point","coordinates":[49.603476,54.235927]}},{"type":"Feature","id":99,"properties":{"source":"bus_stop","name":"Химмаш"},"geometry":{"type":"Point","coordinates":[49.606464,54.232218]}},{"type":"Feature","id":100,"properties":{"source":"bus_stop","name":"Мебельный магазин"},"geometry":{"type":"Point","coordinates":[49.610699,54.22852]}},{"type":"Feature","id":101,"properties":{"source":"bus_stop","name":"Мебельный магазин"},"geometry":{"type":"Point","coordinates":[49.611825,54.22758]}},{"type":"Feature","id":102,"properties":{"source":"bus_stop","name":"Скорая помощь"},"geometry":{"type":"Point","coordinates":[49.624515,54.221509]}},{"type":"Feature","id":103,"properties":{"source":"bus_stop","name":"Площадь советов"},"geometry":{"type":"Point","coordinates":[49.621748,54.215632]}},{"type":"Feature","id":104,"properties":{"source":"bus_stop","name":"Площадь советов"},"geometry":{"type":"Point","coordinates":[49.621135,54.216097]}},{"type":"Feature","id":105,"properties":{"source":"bus_stop","name":"Площадь советов"},"geometry":{"type":"Point","coordinates":[49.62119,54.216481]}},{"type":"Feature","id":106,"properties":{"source":"bus_stop","name":"Площадь советов"},"geometry":{"type":"Point","coordinates":[49.621403,54.217478]}},{"type":"Feature","id":107,"properties":{"source":"bus_stop","name":"Дом пионеров"},"geometry":{"type":"Point","coordinates":[49.624643,54.212309]}},{"type":"Feature","id":108,"properties":{"source":"bus_stop","name":"Спартак"},"geometry":{"type":"Point","coordinates":[49.63108,54.211007]}},{"type":"Feature","id":109,"properties":{"source":"bus_stop","name":"Черемшанская улица"},"geometry":{"type":"Point","coordinates":[49.636383,54.212171]}},{"type":"Feature","id":110,"properties":{"source":"bus_stop","name":"Черемшанская улица"},"geometry":{"type":"Point","coordinates":[49.637217,54.212491]}},{"type":"Feature","id":111,"properties":{"source":"bus_stop","name":"Черемшанская улица"},"geometry":{"type":"Point","coordinates":[49.641319,54.213382]}},{"type":"Feature","id":112,"properties":{"source":"bus_stop","name":"Черемшанская улица"},"geometry":{"type":"Point","coordinates":[49.642698,54.213523]}},{"type":"Feature","id":113,"properties":{"source":"bus_stop","name":"Улица Т. Потаповой"},"geometry":{"type":"Point","coordinates":[49.640457,54.213612]}},{"type":"Feature","id":114,"properties":{"source":"bus_stop","name":"Улица Т. Потаповой"},"geometry":{"type":"Point","coordinates":[49.640718,54.212694]}},{"type":"Feature","id":115,"properties":{"source":"bus_stop","name":"ЖК Олимпийский"},"geometry":{"type":"Point","coordinates":[49.646887,54.21445]}},{"type":"Feature","id":116,"properties":{"source":"bus_stop","name":"Алтайская улица"},"geometry":{"type":"Point","coordinates":[49.652324,54.215841]}},{"type":"Feature","id":117,"properties":{"source":"bus_stop","name":"Магазин Росток"},"geometry":{"type":"Point","coordinates":[49.653935,54.215246]}},{"type":"Feature","id":118,"properties":{"source":"bus_stop","name":"Магазин Росток"},"geometry":{"type":"Point","coordinates":[49.65499,54.214847]}},{"type":"Feature","id":119,"properties":{"source":"bus_stop","name":"Школа №7"},"geometry":{"type":"Point","coordinates":[49.658979,54.215562]}},{"type":"Feature","id":120,"properties":{"source":"bus_stop","name":"Школа №7"},"geometry":{"type":"Point","coordinates":[49.659271,54.216875]}},{"type":"Feature","id":121,"properties":{"source":"bus_stop","name":"Фабрика Олимп"},"geometry":{"type":"Point","coordinates":[49.652518,54.218842]}},{"type":"Feature","id":122,"properties":{"source":"bus_stop","name":"Олимп"},"geometry":{"type":"Point","coordinates":[49.65282,54.220892]}},{"type":"Feature","id":123,"properties":{"source":"bus_stop","name":"Алтайская улица"},"geometry":{"type":"Point","coordinates":[49.653043,54.220741]}},{"type":"Feature","id":124,"properties":{"source":"bus_stop","name":"Пожарное депо"},"geometry":{"type":"Point","coordinates":[49.658885,54.221044]}},{"type":"Feature","id":125,"properties":{"source":"bus_stop","name":"Пожарное депо"},"geometry":{"type":"Point","coordinates":[49.659537,54.220977]}},{"type":"Feature","id":126,"properties":{"source":"bus_stop","name":"Улица Гагарина"},"geometry":{"type":"Point","coordinates":[49.646579,54.220584]}},{"type":"Feature","id":127,"properties":{"source":"bus_stop","name":"Улица Гагарина"},"geometry":{"type":"Point","coordinates":[49.647496,54.220522]}},{"type":"Feature","id":128,"properties":{"source":"bus_stop","name":"Продуктовый рынок"},"geometry":{"type":"Point","coordinates":[49.6394,54.219853]}},{"type":"Feature","id":129,"properties":{"source":"bus_stop","name":"Продуктовый рынок"},"geometry":{"type":"Point","coordinates":[49.636624,54.219729]}},{"type":"Feature","id":130,"properties":{"source":"bus_stop","name":"Продуктовый рынок"},"geometry":{"type":"Point","coordinates":[49.637316,54.21883]}},{"type":"Feature","id":131,"properties":{"source":"bus_stop","name":"Продуктовый рынок"},"geometry":{"type":"Point","coordinates":[49.637398,54.218179]}},{"type":"Feature","id":132,"properties":{"source":"bus_stop","name":"Торговая база"},"geometry":{"type":"Point","coordinates":[49.634891,54.22253]}},{"type":"Feature","id":133,"properties":{"source":"bus_stop","name":"Улица Тараканова"},"geometry":{"type":"Point","coordinates":[49.64261,54.210846]}},{"type":"Feature","id":134,"properties":{"source":"bus_stop","name":"Гренобль"},"geometry":{"type":"Point","coordinates":[49.646463,54.21151]}},{"type":"Feature","id":135,"properties":{"source":"bus_stop","name":"Дамба"},"geometry":{"type":"Point","coordinates":[49.654388,54.20972]}},{"type":"Feature","id":136,"properties":{"source":"bus_stop","name":"ДГБ №2"},"geometry":{"type":"Point","coordinates":[49.633146,54.228152]}},{"type":"Feature","id":137,"properties":{"source":"bus_stop","name":"Улица Наумовой"},"geometry":{"type":"Point","coordinates":[49.630104,54.230631]}},{"type":"Feature","id":138,"properties":{"source":"bus_stop","name":"Улица Фрунзе"},"geometry":{"type":"Point","coordinates":[49.625991,54.230818]}},{"type":"Feature","id":139,"properties":{"source":"bus_stop","name":"Лесная горка"},"geometry":{"type":"Point","coordinates":[49.620505,54.229948]}},{"type":"Feature","id":140,"properties":{"source":"bus_stop","name":"ДРСУ-2"},"geometry":{"type":"Point","coordinates":[49.636494,54.197031]}},{"type":"Feature","id":141,"properties":{"source":"bus_stop","name":"ДРСУ-2"},"geometry":{"type":"Point","coordinates":[49.637184,54.196752]}},{"type":"Feature","id":142,"properties":{"source":"bus_stop","name":"Кирпичный завод"},"geometry":{"type":"Point","coordinates":[49.642131,54.192192]}},{"type":"Feature","id":143,"properties":{"source":"bus_stop","name":"Мост ГАУ"},"geometry":{"type":"Point","coordinates":[49.652668,54.187564]}},{"type":"Feature","id":144,"properties":{"source":"bus_stop","name":"Сады Коммунальник"},"geometry":{"type":"Point","coordinates":[49.64035,54.202423]}},{"type":"Feature","id":145,"properties":{"source":"bus_stop","name":"Улица Вивальди"},"geometry":{"type":"Point","coordinates":[49.643348,54.202143]}},{"type":"Feature","id":146,"properties":{"source":"bus_stop","name":"Улица Вивальди"},"geometry":{"type":"Point","coordinates":[49.644272,54.201949]}},{"type":"Feature","id":147,"properties":{"source":"bus_stop","name":"Енисейский переулок"},"geometry":{"type":"Point","coordinates":[49.654974,54.198304]}},{"type":"Feature","id":148,"properties":{"source":"bus_stop","name":"Улица Победы"},"geometry":{"type":"Point","coordinates":[49.609762,54.208361]}},{"type":"Feature","id":149,"properties":{"source":"bus_stop","name":"Магазин № 39"},"geometry":{"type":"Point","coordinates":[49.609504,54.204837]}},{"type":"Feature","id":150,"properties":{"source":"bus_stop","name":"Магазин № 39"},"geometry":{"type":"Point","coordinates":[49.609235,54.20445]}},{"type":"Feature","id":151,"properties":{"source":"bus_stop","name":"Стадион Торпедо"},"geometry":{"type":"Point","coordinates":[49.602519,54.203523]}},{"type":"Feature","id":152,"properties":{"source":"bus_stop","name":"Центр Преодоление"},"geometry":{"type":"Point","coordinates":[49.603708,54.203352]}},{"type":"Feature","id":153,"properties":{"source":"bus_stop","name":"Магазин Черемшан"},"geometry":{"type":"Point","coordinates":[49.598853,54.20433]}},{"type":"Feature","id":154,"properties":{"source":"bus_stop","name":"Магазин Черемшан"},"geometry":{"type":"Point","coordinates":[49.599563,54.205587]}},{"type":"Feature","id":155,"properties":{"source":"bus_stop","name":"Западная улица"},"geometry":{"type":"Point","coordinates":[49.598806,54.208585]}},{"type":"Feature","id":156,"properties":{"source":"bus_stop","name":"ТЦ Мелекесс / Западная улица"},"geometry":{"type":"Point","coordinates":[49.597875,54.209322]}},{"type":"Feature","id":157,"properties":{"source":"bus_stop","name":"ДААЗ"},"geometry":{"type":"Point","coordinates":[49.59187,54.209029]}},{"type":"Feature","id":158,"properties":{"source":"bus_stop","name":"МикаМотор"},"geometry":{"type":"Point","coordinates":[49.575509,54.209457]}},{"type":"Feature","id":159,"properties":{"source":"bus_stop","name":"ДАН"},"geometry":{"type":"Point","coordinates":[49.567574,54.211697]}},{"type":"Feature","id":160,"properties":{"source":"bus_stop","name":"Промышленная"},"geometry":{"type":"Point","coordinates":[49.567905,54.211811]}},{"type":"Feature","id":161,"properties":{"source":"bus_stop","name":"Сады Черемшан-1"},"geometry":{"type":"Point","coordinates":[49.543725,54.195324]}},{"type":"Feature","id":162,"properties":{"source":"bus_stop","name":"Сады Черемшан-2"},"geometry":{"type":"Point","coordinates":[49.546163,54.193009]}},{"type":"Feature","id":163,"properties":{"source":"bus_stop","name":"Лидер-Д"},"geometry":{"type":"Point","coordinates":[49.569145,54.214649]}},{"type":"Feature","id":164,"properties":{"source":"bus_stop","name":"Лидер-Д"},"geometry":{"type":"Point","coordinates":[49.569517,54.214797]}},{"type":"Feature","id":165,"properties":{"source":"bus_stop","name":"Автодром"},"geometry":{"type":"Point","coordinates":[49.570477,54.217272]}},{"type":"Feature","id":166,"properties":{"source":"bus_stop","name":"Автодром"},"geometry":{"type":"Point","coordinates":[49.571149,54.217878]}},{"type":"Feature","id":167,"properties":{"source":"bus_stop","name":"Лента"},"geometry":{"type":"Point","coordinates":[49.575841,54.22211]}},{"type":"Feature","id":168,"properties":{"source":"bus_stop","name":"Детский сад Одуванчик"},"geometry":{"type":"Point","coordinates":[49.594618,54.215734]}},{"type":"Feature","id":169,"properties":{"source":"bus_stop","name":"Улица 2-й Пятилетки"},"geometry":{"type":"Point","coordinates":[49.599649,54.217209]}},{"type":"Feature","id":170,"properties":{"source":"bus_stop","name":"УПП ВОС"},"geometry":{"type":"Point","coordinates":[49.597841,54.220603]}},{"type":"Feature","id":171,"properties":{"source":"bus_stop","name":"Крупозавод"},"geometry":{"type":"Point","coordinates":[49.610277,54.223979]}},{"type":"Feature","id":172,"properties":{"source":"bus_stop","name":"Крупозавод"},"geometry":{"type":"Point","coordinates":[49.608935,54.224981]}},{"type":"Feature","id":173,"properties":{"source":"bus_stop","name":"Автовокзал Димитровград"},"geometry":{"type":"Point","coordinates":[49.617784,54.216702]}},{"type":"Feature","id":174,"properties":{"source":"bus_stop","name":"Верхний пруд"},"geometry":{"type":"Point","coordinates":[49.601678,54.231357]}},{"type":"Feature","id":175,"properties":{"source":"bus_stop","name":"Верхний пруд"},"geometry":{"type":"Point","coordinates":[49.602358,54.231756]}},{"type":"Feature","id":176,"properties":{"source":"bus_stop","name":"Кедр"},"geometry":{"type":"Point","coordinates":[49.590141,54.226858]}},{"type":"Feature","id":177,"properties":{"source":"bus_stop","name":"9-я линия"},"geometry":{"type":"Point","coordinates":[49.586607,54.224409]}},{"type":"Feature","id":178,"properties":{"source":"bus_stop","name":"Дом торговли"},"geometry":{"type":"Point","coordinates":[49.570854,54.238033]}},{"type":"Feature","id":179,"properties":{"source":"bus_stop","name":"Школа бокса"},"geometry":{"type":"Point","coordinates":[49.572225,54.24546]}},{"type":"Feature","id":180,"properties":{"source":"bus_stop","name":"Школа бокса"},"geometry":{"type":"Point","coordinates":[49.571951,54.245302]}},{"type":"Feature","id":181,"properties":{"source":"bus_stop","name":"Братская улица"},"geometry":{"type":"Point","coordinates":[49.57784,54.245151]}},{"type":"Feature","id":182,"properties":{"source":"bus_stop","name":"Братская улица"},"geometry":{"type":"Point","coordinates":[49.578287,54.244856]}},{"type":"Feature","id":183,"properties":{"source":"bus_stop","name":"Улица Суворова"},"geometry":{"type":"Point","coordinates":[49.581793,54.243459]}},{"type":"Feature","id":184,"properties":{"source":"bus_stop","name":"Улица Суворова"},"geometry":{"type":"Point","coordinates":[49.582024,54.242818]}},{"type":"Feature","id":185,"properties":{"source":"bus_stop","name":"ЖК Зелёный квартал"},"geometry":{"type":"Point","coordinates":[49.581765,54.241339]}},{"type":"Feature","id":186,"properties":{"source":"bus_stop","name":""},"geometry":{"type":"Point","coordinates":[49.559296,54.241141]}},{"type":"Feature","id":187,"properties":{"source":"bus_stop","name":"Школа № 5"},"geometry":{"type":"Point","coordinates":[49.544197,54.233901]}},{"type":"Feature","id":188,"properties":{"source":"bus_stop","name":"Проспект Димитрова"},"geometry":{"type":"Point","coordinates":[49.548063,54.221807]}},{"type":"Feature","id":189,"properties":{"source":"bus_stop","name":"Западное Шоссе"},"geometry":{"type":"Point","coordinates":[49.5391,54.211807]}},{"type":"Feature","id":190,"properties":{"source":"bus_stop","name":"ГСК Ерыклинский"},"geometry":{"type":"Point","coordinates":[49.53113,54.214558]}},{"type":"Feature","id":191,"properties":{"source":"bus_stop","name":"Поворот на Черемшан"},"geometry":{"type":"Point","coordinates":[49.521657,54.205105]}}]}