{"type":"FeatureCollection","features":[{"type":"Feature","properties":{"address":"392026, Тамбовская обл, г. Тамбов, ул. Сенько, д. 16","floors":11,"height":35.1,"pop":357},"geometry":{"type":"Point","coordinates":[41.401402,52.706178]}},{"type":"Feature","properties":{"address":"392000, Тамбовская обл, г. Тамбов, ул. Бригадная, д. 49","floors":3,"height":10.3,"pop":16},"geometry":{"type":"Point","coordinates":[41.433661,52.711182]}},{"type":"Feature","properties":{"address":"392000, Тамбовская обл, г. Тамбов, ул. Куйбышева, д. 59А","floors":11,"height":35.1,"pop":48},"geometry":{"type":"Point","coordinates":[41.444395,52.731652]}},{"type":"Feature","properties":{"address":"392005, Тамбовская обл, г. Тамбов, ул. Астраханская, д. 181В, корп. 5","floors":11,"height":35.1,"pop":0},"geometry":{"type":"Point","coordinates":[41.461562,52.677703]}},{"type":"Feature","properties":{"address":"392008, Тамбовская обл, г. Тамбов, ул. З.Космодемьянской, д. 3А","floors":10,"height":32,"pop":0},"geometry":{"type":"Point","coordinates":[41.442886,52.746984]}},{"type":"Feature","properties":{"address":"392003, Тамбовская обл, г. Тамбов, ул. Рылеева, д. 61а","floors":10,"height":32,"pop":145},"geometry":{"type":"Point","coordinates":[41.429618,52.759416]}},{"type":"Feature","properties":{"address":"392008, Тамбовская обл, г. Тамбов, ул. Советская, д. 183Г","floors":11,"height":35.1,"pop":41},"geometry":{"type":"Point","coordinates":[41.449884,52.750593]}},{"type":"Feature","properties":{"address":"392000, Тамбовская обл, г. Тамбов, ул. Красная, д. 13","floors":8,"height":25.8,"pop":46},"geometry":{"type":"Point","coordinates":[41.441476,52.725872]}},{"type":"Feature","properties":{"address":"392020, Тамбовская обл, г. Тамбов, ул. Рязанская, д. 12а","floors":2,"height":7.2,"pop":25},"geometry":{"type":"Point","coordinates":[41.439113,52.742672]}},{"type":"Feature","properties":{"address":"392020, Тамбовская обл, г. Тамбов, ул. Рязанская, д. 12б","floors":2,"height":7.2,"pop":26},"geometry":{"type":"Point","coordinates":[41.439697,52.743108]}},{"type":"Feature","properties":{"address":"392000, Тамбовская обл, г. Тамбов, ул. Железнодорожная, д. 20","floors":1,"height":4.1,"pop":7},"geometry":{"type":"Point","coordinates":[41.431568,52.712235]}},{"type":"Feature","properties":{"address":"392000, Тамбовская обл, г. Тамбов, ул. Железнодорожная, д. 42","floors":1,"height":4.1,"pop":5},"geometry":{"type":"Point","coordinates":[41.43022,52.715999]}},{"type":"Feature","properties":{"address":"392028, Тамбовская обл, г. Тамбов, проезд. 2-й Авиационный, д. 22","floors":2,"height":7.2,"pop":10},"geometry":{"type":"Point","coordinates":[41.400153,52.727611]}},{"type":"Feature","properties":{"address":"392002, Тамбовская обл, г. Тамбов, ул. Сергеева-Ценского, д. 12, корп. 3","floors":11,"height":35.1,"pop":61},"geometry":{"type":"Point","coordinates":[41.466548,52.710423]}},{"type":"Feature","properties":{"address":"392000, Тамбовская обл, г. Тамбов, ул. Б.Васильева, д. 6а","floors":4,"height":13.4,"pop":60},"geometry":{"type":"Point","coordinates":[41.461589,52.732149]}},{"type":"Feature","properties":{"address":"392000, Тамбовская обл, г. Тамбов, ул. Московская, д. 25а","floors":6,"height":19.6,"pop":46},"geometry":{"type":"Point","coordinates":[41.473618,52.734281]}},{"type":"Feature","properties":{"address":"392000, Тамбовская обл, г. Тамбов, ул. Тулиновская, д. 20а","floors":10,"height":32,"pop":111},"geometry":{"type":"Point","coordinates":[41.466701,52.735584]}},{"type":"Feature","properties":{"address":"392024, Тамбовская обл, г. Тамбов, ул. Мичуринская, д. 189","floors":9,"height":28.9,"pop":53},"geometry":{"type":"Point","coordinates":[41.405175,52.761209]}},{"type":"Feature","properties":{"address":"392028, Тамбовская обл, г. Тамбов, проезд. 3-й Почтовый, д. 16","floors":2,"height":7.2,"pop":8},"geometry":{"type":"Point","coordinates":[41.406666,52.724323]}},{"type":"Feature","properties":{"address":"392028, Тамбовская обл, г. Тамбов, проезд. 3-й Почтовый, д. 8","floors":2,"height":7.2,"pop":8},"geometry":{"type":"Point","coordinates":[41.408104,52.724514]}},{"type":"Feature","properties":{"address":"392032, Тамбовская обл, г. Тамбов, ул. Мичуринская, д. 126","floors":5,"height":16.5,"pop":167},"geometry":{"type":"Point","coordinates":[41.408005,52.753977]}},{"type":"Feature","properties":{"address":"392000, Тамбовская обл, г. Тамбов, ул. Пролетарская, д. 273/131","floors":2,"height":7.2,"pop":11},"geometry":{"type":"Point","coordinates":[41.434837,52.730687]}},{"type":"Feature","properties":{"address":"392000, Тамбовская обл, г. Тамбов, ул. Карла Маркса, д. 147","floors":4,"height":13.4,"pop":33},"geometry":{"type":"Point","coordinates":[41.452624,52.722583]}},{"type":"Feature","properties":{"address":"392018, Тамбовская обл, г. Тамбов, ул. Защитная, д. 7","floors":6,"height":19.6,"pop":78},"geometry":{"type":"Point","coordinates":[41.441206,52.748608]}},{"type":"Feature","properties":{"address":"392020, Тамбовская обл, г. Тамбов, ул. Рязанская, д. 14а","floors":6,"height":19.6,"pop":78},"geometry":{"type":"Point","coordinates":[41.440164,52.743462]}},{"type":"Feature","properties":{"address":"392032, Тамбовская обл, г. Тамбов, ул. Мичуринская, д. 147в","floors":9,"height":28.9,"pop":113},"geometry":{"type":"Point","coordinates":[41.417518,52.751486]}},{"type":"Feature","properties":{"address":"392032, Тамбовская обл, г. Тамбов, ул. Мичуринская, д. 159в","floors":9,"height":28.9,"pop":112},"geometry":{"type":"Point","coordinates":[41.412065,52.755389]}},{"type":"Feature","properties":{"address":"392000, Тамбовская обл, г. Тамбов, ул. Лермонтовская, д. 123а","floors":1,"height":4.1,"pop":3},"geometry":{"type":"Point","coordinates":[41.44224,52.705616]}},{"type":"Feature","properties":{"address":"392022, Тамбовская обл, г. Тамбов, ул. Некрасова, д. 20а","floors":1,"height":4.1,"pop":6},"geometry":{"type":"Point","coordinates":[41.41856,52.705109]}},{"type":"Feature","properties":{"address":"392000, Тамбовская обл, г. Тамбов, ул. Красная, д. 16","floors":11,"height":35.1,"pop":0},"geometry":{"type":"Point","coordinates":[41.44171,52.723286]}},{"type":"Feature","properties":{"address":"392000, Тамбовская обл, г. Тамбов, ул. Лермонтовская, д. 123в","floors":1,"height":4.1,"pop":1},"geometry":{"type":"Point","coordinates":[41.440299,52.7041]}},{"type":"Feature","properties":{"address":"392000, Тамбовская обл, г. Тамбов, ул. Лермонтовская, д. 123г","floors":1,"height":4.1,"pop":1},"geometry":{"type":"Point","coordinates":[41.440299,52.7041]}},{"type":"Feature","properties":{"address":"392022, Тамбовская обл, г. Тамбов, проезд. Панфиловский, д. 5","floors":1,"height":4.1,"pop":2},"geometry":{"type":"Point","coordinates":[41.422719,52.702326]}},{"type":"Feature","properties":{"address":"392022, Тамбовская обл, г. Тамбов, ул. Некрасова, д. 9б","floors":1,"height":4.1,"pop":2},"geometry":{"type":"Point","coordinates":[41.419638,52.706097]}},{"type":"Feature","properties":{"address":"392026, Тамбовская обл, г. Тамбов, ул. Сенько, д. 24а, корп. 1","floors":10,"height":32,"pop":349},"geometry":{"type":"Point","coordinates":[41.397054,52.705589]}},{"type":"Feature","properties":{"address":"392029, Тамбовская обл, г. Тамбов, ул. Бастионная, д. 24Е","floors":12,"height":38.2,"pop":316},"geometry":{"type":"Point","coordinates":[41.3766,52.737427]}},{"type":"Feature","properties":{"address":"392024, Тамбовская обл, г. Тамбов, ул. Н.Вирты, д. 110","floors":5,"height":16.5,"pop":127},"geometry":{"type":"Point","coordinates":[41.411266,52.75843]}},{"type":"Feature","properties":{"address":"392000, Тамбовская обл, г. Тамбов, ул. Куйбышева, д. 131","floors":2,"height":7.2,"pop":11},"geometry":{"type":"Point","coordinates":[41.434748,52.730442]}},{"type":"Feature","properties":{"address":"392018, Тамбовская обл, г. Тамбов, ул. Жуковского, д. 2б","floors":6,"height":19.6,"pop":91},"geometry":{"type":"Point","coordinates":[41.437496,52.74398]}},{"type":"Feature","properties":{"address":"392018, Тамбовская обл, г. Тамбов, ул. Колхозная, д. 70","floors":5,"height":16.5,"pop":68},"geometry":{"type":"Point","coordinates":[41.431469,52.744907]}},{"type":"Feature","properties":{"address":"392000, Тамбовская обл, г. Тамбов, ул. Тулиновская, д. 20","floors":9,"height":28.9,"pop":93},"geometry":{"type":"Point","coordinates":[41.465892,52.735311]}},{"type":"Feature","properties":{"address":"392000, Тамбовская обл, г. Тамбов, ул. Тулиновская, д. 20б","floors":9,"height":28.9,"pop":90},"geometry":{"type":"Point","coordinates":[41.467527,52.735862]}},{"type":"Feature","properties":{"address":"392002, Тамбовская обл, г. Тамбов, ул. Лермонтовская, д. 74А","floors":3,"height":10.3,"pop":31},"geometry":{"type":"Point","coordinates":[41.453262,52.708716]}},{"type":"Feature","properties":{"address":"392003, Тамбовская обл, г. Тамбов, ул. Менделеева, д. 7","floors":6,"height":19.6,"pop":227},"geometry":{"type":"Point","coordinates":[41.437784,52.753383]}},{"type":"Feature","properties":{"address":"392018, Тамбовская обл, г. Тамбов, ул. Мичуринская, д. 84","floors":4,"height":13.4,"pop":72},"geometry":{"type":"Point","coordinates":[41.426815,52.742879]}},{"type":"Feature","properties":{"address":"392018, Тамбовская обл, г. Тамбов, ул. Мичуринская, д. 99","floors":5,"height":16.5,"pop":74},"geometry":{"type":"Point","coordinates":[41.431918,52.74193]}},{"type":"Feature","properties":{"address":"392036, Тамбовская обл, г. Тамбов, ул. Кирова, д. 7","floors":5,"height":16.5,"pop":124},"geometry":{"type":"Point","coordinates":[41.455678,52.711978]}},{"type":"Feature","properties":{"address":"392000, Тамбовская обл, г. Тамбов, ул. Тулиновская, д. 28","floors":6,"height":19.6,"pop":103},"geometry":{"type":"Point","coordinates":[41.46414,52.734112]}},{"type":"Feature","properties":{"address":"392018, Тамбовская обл, г. Тамбов, ул. 3-я Линия, д. 4","floors":9,"height":28.9,"pop":170},"geometry":{"type":"Point","coordinates":[41.432933,52.737759]}},{"type":"Feature","properties":{"address":"392018, Тамбовская обл, г. Тамбов, ул. Колхозная, д. 91а","floors":6,"height":19.6,"pop":74},"geometry":{"type":"Point","coordinates":[41.434442,52.746548]}},{"type":"Feature","properties":{"address":"392024, Тамбовская обл, г. Тамбов, ул. Рылеева, д. 75, корп. 1","floors":9,"height":28.9,"pop":335},"geometry":{"type":"Point","coordinates":[41.422288,52.764484]}},{"type":"Feature","properties":{"address":"392032, Тамбовская обл, г. Тамбов, ул. Мичуринская, д. 124","floors":6,"height":19.6,"pop":167},"geometry":{"type":"Point","coordinates":[41.407295,52.753607]}},{"type":"Feature","properties":{"address":"392002, Тамбовская обл, г. Тамбов, ул. Фридриха Энгельса, д. 57А","floors":4,"height":13.4,"pop":47},"geometry":{"type":"Point","coordinates":[41.460314,52.70644]}},{"type":"Feature","properties":{"address":"392022, Тамбовская обл, г. Тамбов, ул. Некрасова, д. 20б","floors":1,"height":4.1,"pop":2},"geometry":{"type":"Point","coordinates":[41.418066,52.704831]}},{"type":"Feature","properties":{"address":"392022, Тамбовская обл, г. Тамбов, ул. Некрасова, д. 9а","floors":1,"height":4.1,"pop":2},"geometry":{"type":"Point","coordinates":[41.419764,52.706184]}},{"type":"Feature","properties":{"address":"392026, Тамбовская обл, г. Тамбов, проезд. Осипенко, д. 14","floors":1,"height":4.1,"pop":1},"geometry":{"type":"Point","coordinates":[41.402768,52.703259]}},{"type":"Feature","properties":{"address":"392000, Тамбовская обл, г. Тамбов, ул. Советская, д. 90/15","floors":4,"height":13.4,"pop":36},"geometry":{"type":"Point","coordinates":[41.458939,52.716632]}},{"type":"Feature","properties":{"address":"392028, Тамбовская обл, г. Тамбов, проезд. 2-й Почтовый, д. 5","floors":6,"height":19.6,"pop":102},"geometry":{"type":"Point","coordinates":[41.407735,52.72363]}},{"type":"Feature","properties":{"address":"392032, Тамбовская обл, г. Тамбов, ул. Магистральная, д. 41, корп. 5","floors":18,"height":56.8,"pop":414},"geometry":{"type":"Point","coordinates":[41.391287,52.757874]}},{"type":"Feature","properties":{"address":"392028, Тамбовская обл, г. Тамбов, ул. Т.Дерунец, д. 10","floors":1,"height":4.1,"pop":1},"geometry":{"type":"Point","coordinates":[41.397288,52.725332]}},{"type":"Feature","properties":{"address":"392024, Тамбовская обл, г. Тамбов, ул. Мичуринская, д. 191а","floors":10,"height":32,"pop":50},"geometry":{"type":"Point","coordinates":[41.404411,52.761395]}},{"type":"Feature","properties":{"address":"392024, Тамбовская обл, г. Тамбов, ул. Карла Маркса, д. 444","floors":9,"height":28.9,"pop":447},"geometry":{"type":"Point","coordinates":[41.408975,52.763574]}},{"type":"Feature","properties":{"address":"392000, Тамбовская обл, г. Тамбов, ул. Московская, д. 52а, корп. 2","floors":10,"height":32,"pop":80},"geometry":{"type":"Point","coordinates":[41.466485,52.730949]}},{"type":"Feature","properties":{"address":"392024, Тамбовская обл, г. Тамбов, ул. Н.Вирты, д. 201","floors":10,"height":32,"pop":249},"geometry":{"type":"Point","coordinates":[41.413592,52.758485]}},{"type":"Feature","properties":{"address":"392024, Тамбовская обл, г. Тамбов, ул. Н.Вирты, д. 201а","floors":11,"height":35.1,"pop":242},"geometry":{"type":"Point","coordinates":[41.414437,52.758871]}},{"type":"Feature","properties":{"address":"392030, Тамбовская обл, г. Тамбов, пер. Совхозный, д. 5","floors":2,"height":7.2,"pop":21},"geometry":{"type":"Point","coordinates":[41.475136,52.761362]}},{"type":"Feature","properties":{"address":"392008, Тамбовская обл, г. Тамбов, ул. Советская, д. 190Б, корп. 2","floors":11,"height":35.1,"pop":230},"geometry":{"type":"Point","coordinates":[41.445455,52.748559]}},{"type":"Feature","properties":{"address":"392032, Тамбовская обл, г. Тамбов, б-р. Энтузиастов, д. 30б","floors":9,"height":28.9,"pop":112},"geometry":{"type":"Point","coordinates":[41.419809,52.749769]}},{"type":"Feature","properties":{"address":"392032, Тамбовская обл, г. Тамбов, б-р. Энтузиастов, д. 30в","floors":9,"height":28.9,"pop":112},"geometry":{"type":"Point","coordinates":[41.420339,52.749339]}},{"type":"Feature","properties":{"address":"392032, Тамбовская обл, г. Тамбов, ул. Мичуринская, д. 151в","floors":9,"height":28.9,"pop":112},"geometry":{"type":"Point","coordinates":[41.414113,52.753852]}},{"type":"Feature","properties":{"address":"392027, Тамбовская обл, г. Тамбов, ул. Мичуринская, д. 205а","floors":11,"height":35.1,"pop":131},"geometry":{"type":"Point","coordinates":[41.399453,52.76401]}},{"type":"Feature","properties":{"address":"392014, Тамбовская обл, г. Тамбов, ул. Киквидзе, д. 75в","floors":10,"height":32,"pop":173},"geometry":{"type":"Point","coordinates":[41.384334,52.724334]}},{"type":"Feature","properties":{"address":"392020, Тамбовская обл, г. Тамбов, ул. Карла Маркса, д. 204","floors":1,"height":4.1,"pop":5},"geometry":{"type":"Point","coordinates":[41.447683,52.736135]}},{"type":"Feature","properties":{"address":"392000, Тамбовская обл, г. Тамбов, ул. Карла Маркса, д. 175а/40, корп. 5","floors":12,"height":38.2,"pop":129},"geometry":{"type":"Point","coordinates":[41.45275,52.721295]}},{"type":"Feature","properties":{"address":"392019, Тамбовская обл, г. Тамбов, ул. Чичерина, д. 13/1","floors":13,"height":41.3,"pop":109},"geometry":{"type":"Point","coordinates":[41.404034,52.769001]}},{"type":"Feature","properties":{"address":"392003, Тамбовская обл, г. Тамбов, ул. Рылеева, д. 59а, корп. 6","floors":12,"height":38.2,"pop":187},"geometry":{"type":"Point","coordinates":[41.432726,52.758376]}},{"type":"Feature","properties":{"address":"392000, Тамбовская обл, г. Тамбов, ул. Карла Маркса, д. 175а/40, корп. 4","floors":11,"height":35.1,"pop":61},"geometry":{"type":"Point","coordinates":[41.45275,52.721295]}},{"type":"Feature","properties":{"address":"392003, Тамбовская обл, г. Тамбов, ул. Рылеева, д. 59а, корп. 1","floors":10,"height":32,"pop":317},"geometry":{"type":"Point","coordinates":[41.431648,52.758294]}},{"type":"Feature","properties":{"address":"392012, Тамбовская обл, г. Тамбов, ул. Красноармейская, д. 6","floors":10,"height":32,"pop":188},"geometry":{"type":"Point","coordinates":[41.467087,52.699969]}},{"type":"Feature","properties":{"address":"392032, Тамбовская обл, г. Тамбов, ул. Мичуринская, д. 130","floors":10,"height":32,"pop":451},"geometry":{"type":"Point","coordinates":[41.407178,52.755907]}},{"type":"Feature","properties":{"address":"392028, Тамбовская обл, г. Тамбов, ул. Кавказская, д. 5в","floors":1,"height":4.1,"pop":5},"geometry":{"type":"Point","coordinates":[41.394755,52.724083]}},{"type":"Feature","properties":{"address":"392028, Тамбовская обл, г. Тамбов, ул. Авиационная, д. 141, корп. 10","floors":1,"height":4.1,"pop":6},"geometry":{"type":"Point","coordinates":[41.40654,52.737825]}},{"type":"Feature","properties":{"address":"392028, Тамбовская обл, г. Тамбов, ул. Авиационная, д. 141, корп. 9","floors":2,"height":7.2,"pop":11},"geometry":{"type":"Point","coordinates":[41.405705,52.736936]}},{"type":"Feature","properties":{"address":"392029, Тамбовская обл, г. Тамбов, ул. Бастионная, д. 24г","floors":10,"height":32,"pop":125},"geometry":{"type":"Point","coordinates":[41.377785,52.73747]}},{"type":"Feature","properties":{"address":"392029, Тамбовская обл, г. Тамбов, ул. Бастионная, д. 24А","floors":10,"height":32,"pop":312},"geometry":{"type":"Point","coordinates":[41.37872,52.737132]}},{"type":"Feature","properties":{"address":"392000, Тамбовская обл, г. Тамбов, ул. Куйбышева, д. 132","floors":2,"height":7.2,"pop":2},"geometry":{"type":"Point","coordinates":[41.434927,52.730054]}},{"type":"Feature","properties":{"address":"392000, Тамбовская обл, г. Тамбов, ул. Московская, д. 141","floors":1,"height":4.1,"pop":7},"geometry":{"type":"Point","coordinates":[41.440497,52.729449]}},{"type":"Feature","properties":{"address":"392000, Тамбовская обл, г. Тамбов, ул. Московская, д. 48","floors":1,"height":4.1,"pop":3},"geometry":{"type":"Point","coordinates":[41.468012,52.731178]}},{"type":"Feature","properties":{"address":"392002, Тамбовская обл, г. Тамбов, проезд. Пролетарский, д. 8","floors":1,"height":4.1,"pop":2},"geometry":{"type":"Point","coordinates":[41.445878,52.707728]}},{"type":"Feature","properties":{"address":"392020, Тамбовская обл, г. Тамбов, ул. Базарная, д. 140а","floors":1,"height":4.1,"pop":7},"geometry":{"type":"Point","coordinates":[41.441979,52.731669]}},{"type":"Feature","properties":{"address":"392000, Тамбовская обл, г. Тамбов, ул. им маршала Малиновского, д. 14","floors":1,"height":4.1,"pop":9},"geometry":{"type":"Point","coordinates":[41.511491,52.707859]}},{"type":"Feature","properties":{"address":"392002, Тамбовская обл, г. Тамбов, пер. Трегуляевский, д. 21","floors":1,"height":4.1,"pop":1},"geometry":{"type":"Point","coordinates":[41.456972,52.699532]}},{"type":"Feature","properties":{"address":"392018, Тамбовская обл, г. Тамбов, проезд. Тульский, д. 22","floors":1,"height":4.1,"pop":1},"geometry":{"type":"Point","coordinates":[41.429277,52.746237]}},{"type":"Feature","properties":{"address":"392022, Тамбовская обл, г. Тамбов, пер. Звездный, д. 4","floors":1,"height":4.1,"pop":3},"geometry":{"type":"Point","coordinates":[41.426061,52.699467]}},{"type":"Feature","properties":{"address":"392022, Тамбовская обл, г. Тамбов, проезд. Панфиловский, д. 6","floors":1,"height":4.1,"pop":9},"geometry":{"type":"Point","coordinates":[41.422468,52.702157]}},{"type":"Feature","properties":{"address":"392022, Тамбовская обл, г. Тамбов, ул. им Юрия Гагарина, д. 37","floors":3,"height":10.3,"pop":4},"geometry":{"type":"Point","coordinates":[41.428316,52.703516]}},{"type":"Feature","properties":{"address":"392028, Тамбовская обл, г. Тамбов, проезд. 1-й Авиационный, д. 2","floors":1,"height":4.1,"pop":6},"geometry":{"type":"Point","coordinates":[41.401896,52.722479]}},{"type":"Feature","properties":{"address":"392036, Тамбовская обл, г. Тамбов, пл. Успенская, д. 24","floors":1,"height":4.1,"pop":8},"geometry":{"type":"Point","coordinates":[41.43375,52.727191]}},{"type":"Feature","properties":{"address":"392028, Тамбовская обл, г. Тамбов, ул. Авиационная, д. 151","floors":1,"height":4.1,"pop":4},"geometry":{"type":"Point","coordinates":[41.406792,52.733986]}},{"type":"Feature","properties":{"address":"392000, Тамбовская обл, г. Тамбов, пер. Огородный, д. 18","floors":1,"height":4.1,"pop":4},"geometry":{"type":"Point","coordinates":[41.434523,52.714728]}},{"type":"Feature","properties":{"address":"392022, Тамбовская обл, г. Тамбов, переезд. Балашовский, д. 7","floors":1,"height":4.1,"pop":4},"geometry":{"type":"Point","coordinates":[41.447387,52.694435]}},{"type":"Feature","properties":{"address":"392022, Тамбовская обл, г. Тамбов, пер. Звездный, д. 2","floors":1,"height":4.1,"pop":3},"geometry":{"type":"Point","coordinates":[41.426366,52.699166]}},{"type":"Feature","properties":{"address":"392022, Тамбовская обл, г. Тамбов, проезд. Панфиловский, д. 8","floors":1,"height":4.1,"pop":3},"geometry":{"type":"Point","coordinates":[41.422144,52.702392]}},{"type":"Feature","properties":{"address":"392036, Тамбовская обл, г. Тамбов, ул. Комсомольская, д. 31","floors":1,"height":4.1,"pop":4},"geometry":{"type":"Point","coordinates":[41.457403,52.718099]}},{"type":"Feature","properties":{"address":"392036, Тамбовская обл, г. Тамбов, ул. Комсомольская, д. 38","floors":2,"height":7.2,"pop":11},"geometry":{"type":"Point","coordinates":[41.454016,52.716915]}},{"type":"Feature","properties":{"address":"392036, Тамбовская обл, г. Тамбов, ул. Кронштадтская, д. 33","floors":2,"height":7.2,"pop":3},"geometry":{"type":"Point","coordinates":[41.454933,52.714013]}},{"type":"Feature","properties":{"address":"392036, Тамбовская обл, г. Тамбов, ул. Кронштадтская, д. 37","floors":2,"height":7.2,"pop":10},"geometry":{"type":"Point","coordinates":[41.454753,52.714002]}},{"type":"Feature","properties":{"address":"392028, Тамбовская обл, г. Тамбов, проезд. 2-й Авиационный, д. 5","floors":1,"height":4.1,"pop":6},"geometry":{"type":"Point","coordinates":[41.401384,52.723483]}},{"type":"Feature","properties":{"address":"392000, Тамбовская обл, г. Тамбов, ул. Коммунальная, д. 80","floors":2,"height":7.2,"pop":3},"geometry":{"type":"Point","coordinates":[41.430175,52.720619]}},{"type":"Feature","properties":{"address":"392021, Тамбовская обл, г. Тамбов, ул. Клубная, д. 1д","floors":1,"height":4.1,"pop":3},"geometry":{"type":"Point","coordinates":[41.475369,52.68723]}},{"type":"Feature","properties":{"address":"392024, Тамбовская обл, г. Тамбов, ул. Н.Вирты, д. 116, корп. 1","floors":11,"height":35.1,"pop":176},"geometry":{"type":"Point","coordinates":[41.409128,52.758408]}},{"type":"Feature","properties":{"address":"392028, Тамбовская обл, г. Тамбов, ул. Авиационная, д. 141, корп. 5","floors":1,"height":4.1,"pop":4},"geometry":{"type":"Point","coordinates":[41.404807,52.737051]}},{"type":"Feature","properties":{"address":"392028, Тамбовская обл, г. Тамбов, ул. Авиационная, д. 141, корп. 8","floors":2,"height":7.2,"pop":8},"geometry":{"type":"Point","coordinates":[41.405202,52.736723]}},{"type":"Feature","properties":{"address":"392036, Тамбовская обл, г. Тамбов, ул. Кирова, д. 15а","floors":3,"height":10.3,"pop":12},"geometry":{"type":"Point","coordinates":[41.454484,52.71182]}},{"type":"Feature","properties":{"address":"392036, Тамбовская обл, г. Тамбов, ул. Коммунальная, д. 28","floors":2,"height":7.2,"pop":3},"geometry":{"type":"Point","coordinates":[41.445644,52.722179]}},{"type":"Feature","properties":{"address":"392036, Тамбовская обл, г. Тамбов, ул. Комсомольская, д. 50а","floors":1,"height":4.1,"pop":3},"geometry":{"type":"Point","coordinates":[41.45178,52.716708]}},{"type":"Feature","properties":{"address":"392000, Тамбовская обл, г. Тамбов, ул. Московская, д. 2а","floors":6,"height":19.6,"pop":78},"geometry":{"type":"Point","coordinates":[41.494512,52.737192]}},{"type":"Feature","properties":{"address":"392018, Тамбовская обл, г. Тамбов, ул. Защитная, д. 27","floors":1,"height":4.1,"pop":8},"geometry":{"type":"Point","coordinates":[41.440506,52.752206]}},{"type":"Feature","properties":{"address":"392018, Тамбовская обл, г. Тамбов, ул. Защитная, д. 28","floors":2,"height":7.2,"pop":9},"geometry":{"type":"Point","coordinates":[41.441045,52.752217]}},{"type":"Feature","properties":{"address":"392018, Тамбовская обл, г. Тамбов, ул. Защитная, д. 29","floors":2,"height":7.2,"pop":8},"geometry":{"type":"Point","coordinates":[41.440416,52.752555]}},{"type":"Feature","properties":{"address":"392022, Тамбовская обл, г. Тамбов, пер. Звездный, д. 10","floors":1,"height":4.1,"pop":3},"geometry":{"type":"Point","coordinates":[41.425216,52.700312]}},{"type":"Feature","properties":{"address":"392028, Тамбовская обл, г. Тамбов, ул. Кавказская, д. 5а","floors":2,"height":7.2,"pop":12},"geometry":{"type":"Point","coordinates":[41.393901,52.72435]}},{"type":"Feature","properties":{"address":"392021, Тамбовская обл, г. Тамбов, ул. Клубная, д. 1в","floors":1,"height":4.1,"pop":5},"geometry":{"type":"Point","coordinates":[41.475953,52.687863]}},{"type":"Feature","properties":{"address":"392021, Тамбовская обл, г. Тамбов, ул. Клубная, д. 1г","floors":3,"height":10.3,"pop":6},"geometry":{"type":"Point","coordinates":[41.475486,52.687585]}},{"type":"Feature","properties":{"address":"392026, Тамбовская обл, г. Тамбов, тер. Тамбов-4, д. 28","floors":5,"height":16.5,"pop":100},"geometry":{"type":"Point","coordinates":[41.395096,52.704258]}},{"type":"Feature","properties":{"address":"392003, Тамбовская обл, г. Тамбов, ул. Рылеева, д. 71","floors":10,"height":32,"pop":439},"geometry":{"type":"Point","coordinates":[41.425109,52.762098]}},{"type":"Feature","properties":{"address":"392024, Тамбовская обл, г. Тамбов, ул. Рылеева, д. 73","floors":10,"height":32,"pop":256},"geometry":{"type":"Point","coordinates":[41.423644,52.76322]}},{"type":"Feature","properties":{"address":"392029, Тамбовская обл, г. Тамбов, ул. Бастионная, д. 41","floors":5,"height":16.5,"pop":66},"geometry":{"type":"Point","coordinates":[41.373015,52.743898]}},{"type":"Feature","properties":{"address":"392026, Тамбовская обл, г. Тамбов, тер. Тамбов-4, д. 24","floors":5,"height":16.5,"pop":100},"geometry":{"type":"Point","coordinates":[41.45275,52.721295]}},{"type":"Feature","properties":{"address":"392002, Тамбовская обл, г. Тамбов, ул. Карла Маркса, д. 35/45","floors":11,"height":35.1,"pop":320},"geometry":{"type":"Point","coordinates":[41.462892,52.707619]}},{"type":"Feature","properties":{"address":"392036, Тамбовская обл, г. Тамбов, ул. Интернациональная, д. 52а","floors":6,"height":19.6,"pop":103},"geometry":{"type":"Point","coordinates":[41.443533,52.719926]}},{"type":"Feature","properties":{"address":"392022, Тамбовская обл, г. Тамбов, ул. Ивана Франко, д. 12","floors":6,"height":19.6,"pop":79},"geometry":{"type":"Point","coordinates":[41.417275,52.703035]}},{"type":"Feature","properties":{"address":"392022, Тамбовская обл, г. Тамбов, проезд. Рубежный, д. 2а","floors":6,"height":19.6,"pop":77},"geometry":{"type":"Point","coordinates":[41.417976,52.70303]}},{"type":"Feature","properties":{"address":"392001, Тамбовская обл, г. Тамбов, тер. Тамбов-6, д. 2/168","floors":5,"height":16.5,"pop":99},"geometry":{"type":"Point","coordinates":[41.413538,52.722125]}},{"type":"Feature","properties":{"address":"392022, Тамбовская обл, г. Тамбов, ул. Ивана Франко, д. 14","floors":5,"height":16.5,"pop":78},"geometry":{"type":"Point","coordinates":[41.416467,52.702572]}},{"type":"Feature","properties":{"address":"392029, Тамбовская обл, г. Тамбов, ул. Бастионная, д. 39","floors":6,"height":19.6,"pop":95},"geometry":{"type":"Point","coordinates":[41.373581,52.743648]}},{"type":"Feature","properties":{"address":"392001, Тамбовская обл, г. Тамбов, тер. Тамбов-6, д. 2/166","floors":5,"height":16.5,"pop":91},"geometry":{"type":"Point","coordinates":[41.413161,52.722921]}},{"type":"Feature","properties":{"address":"392028, Тамбовская обл, г. Тамбов, проезд. 2-й Почтовый, д. 3","floors":5,"height":16.5,"pop":78},"geometry":{"type":"Point","coordinates":[41.407017,52.723521]}},{"type":"Feature","properties":{"address":"392028, Тамбовская обл, г. Тамбов, проезд. 2-й Почтовый, д. 7","floors":6,"height":19.6,"pop":79},"geometry":{"type":"Point","coordinates":[41.408418,52.723734]}},{"type":"Feature","properties":{"address":"392001, Тамбовская обл, г. Тамбов, тер. Тамбов-6, д. 2/162","floors":5,"height":16.5,"pop":91},"geometry":{"type":"Point","coordinates":[41.412775,52.723761]}},{"type":"Feature","properties":{"address":"392028, Тамбовская обл, г. Тамбов, проезд. 2-й Авиационный, д. 3","floors":1,"height":4.1,"pop":6},"geometry":{"type":"Point","coordinates":[41.401447,52.722992]}},{"type":"Feature","properties":{"address":"392001, Тамбовская обл, г. Тамбов, тер. Тамбов-6, д. 2/148","floors":5,"height":16.5,"pop":94},"geometry":{"type":"Point","coordinates":[41.412442,52.724595]}},{"type":"Feature","properties":{"address":"392030, Тамбовская обл, г. Тамбов, ш. Моршанское, д. 28а","floors":4,"height":13.4,"pop":63},"geometry":{"type":"Point","coordinates":[41.460924,52.750276]}},{"type":"Feature","properties":{"address":"392003, Тамбовская обл, г. Тамбов, ул. Менделеева, д. 13а","floors":2,"height":7.2,"pop":7},"geometry":{"type":"Point","coordinates":[41.432035,52.752577]}},{"type":"Feature","properties":{"address":"392018, Тамбовская обл, г. Тамбов, ул. Защитная, д. 31","floors":2,"height":7.2,"pop":8},"geometry":{"type":"Point","coordinates":[41.440353,52.752893]}},{"type":"Feature","properties":{"address":"392002, Тамбовская обл, г. Тамбов, проезд. Пролетарский, д. 10","floors":1,"height":4.1,"pop":4},"geometry":{"type":"Point","coordinates":[41.446102,52.707581]}},{"type":"Feature","properties":{"address":"392002, Тамбовская обл, г. Тамбов, проезд. Пролетарский, д. 6","floors":1,"height":4.1,"pop":2},"geometry":{"type":"Point","coordinates":[41.446462,52.707701]}},{"type":"Feature","properties":{"address":"392000, Тамбовская обл, г. Тамбов, ул. Октябрьская, д. 27/23","floors":3,"height":10.3,"pop":10},"geometry":{"type":"Point","coordinates":[41.446857,52.725692]}},{"type":"Feature","properties":{"address":"392000, Тамбовская обл, г. Тамбов, ул. Московская, д. 48а","floors":1,"height":4.1,"pop":6},"geometry":{"type":"Point","coordinates":[41.468012,52.731178]}},{"type":"Feature","properties":{"address":"392036, Тамбовская обл, г. Тамбов, ул. Комсомольская, д. 108","floors":1,"height":4.1,"pop":4},"geometry":{"type":"Point","coordinates":[41.442527,52.715732]}},{"type":"Feature","properties":{"address":"392000, Тамбовская обл, г. Тамбов, ул. им маршала Малиновского, д. 17","floors":1,"height":4.1,"pop":2},"geometry":{"type":"Point","coordinates":[41.513224,52.705971]}}]}