{"type":"FeatureCollection","name":"railway_site","xy_coordinate_resolution":0.000001,"features":[{"type":"Feature","properties":{"full_id":"w79618417","osm_id":"79618417","osm_type":"way","railway":"rail","tunnel":null,"name":null,"construction:voltage":null,"construction:frequency":null,"construction:electrified":null,"service":null,"embankment":null,"layer":"1","bridge":"yes","usage":"main","proposed:voltage":"25000","proposed:frequency":"50","proposed:electrified":"contact_line","passenger_lines":"2","operator":"ОАО «Российские железные дороги»","gauge":"1520","electrified":"no","designated_direction":"forward","branch":"Ю-ВОСТ"},"geometry":null},{"type":"Feature","properties":{"full_id":"w93758868","osm_id":"93758868","osm_type":"way","railway":"rail","tunnel":null,"name":null,"construction:voltage":null,"construction:frequency":null,"construction:electrified":null,"service":"spur","embankment":null,"layer":null,"bridge":null,"usage":null,"proposed:voltage":null,"proposed:frequency":null,"proposed:electrified":null,"passenger_lines":null,"operator":null,"gauge":null,"electrified":"no","designated_direction":null,"branch":null},"geometry":{"type":"LineString","coordinates":[[41.418051,52.727385],[41.417623,52.728426],[41.417552,52.728714],[41.41751,52.729042],[41.417482,52.729495],[41.41752,52.729872],[41.417738,52.730675],[41.417902,52.731221],[41.418049,52.731725],[41.418256,52.732389],[41.418359,52.732599],[41.418479,52.732833],[41.418491,52.732857],[41.418517,52.732907],[41.418547,52.732956],[41.418744,52.733222],[41.419075,52.733586],[41.419188,52.733706],[41.419299,52.733801],[41.419774,52.734169],[41.420103,52.734403],[41.420453,52.734625],[41.420901,52.734846],[41.421555,52.735129],[41.42244,52.735482],[41.422914,52.735693]]}},{"type":"Feature","properties":{"full_id":"w96759454","osm_id":"96759454","osm_type":"way","railway":"rail","tunnel":null,"name":null,"construction:voltage":null,"construction:frequency":null,"construction:electrified":null,"service":"spur","embankment":null,"layer":null,"bridge":null,"usage":null,"proposed:voltage":null,"proposed:frequency":null,"proposed:electrified":null,"passenger_lines":null,"operator":null,"gauge":"1520","electrified":"no","designated_direction":null,"branch":null},"geometry":{"type":"LineString","coordinates":[[41.450337,52.751497],[41.451181,52.751526],[41.451963,52.751523],[41.454749,52.751279],[41.456234,52.751142],[41.456955,52.751071],[41.457548,52.75096],[41.458073,52.7508],[41.458606,52.750566],[41.458925,52.750382],[41.459271,52.750116],[41.459481,52.749892],[41.459727,52.749567],[41.459942,52.749258],[41.460057,52.749101],[41.460164,52.748937],[41.460269,52.748793],[41.460484,52.748477],[41.46063,52.748262],[41.46077,52.748058],[41.460864,52.747922],[41.460961,52.747781],[41.46121,52.747447],[41.461277,52.747364],[41.461343,52.747295],[41.461488,52.747158],[41.461671,52.747],[41.462077,52.74672],[41.462862,52.746285],[41.463863,52.745735],[41.464918,52.745159],[41.465345,52.744944],[41.465787,52.744786],[41.467147,52.744388],[41.467423,52.744309],[41.46758,52.74426],[41.468082,52.744133],[41.468377,52.744086],[41.46877,52.744055],[41.469081,52.744051],[41.469368,52.744059],[41.469699,52.744076],[41.469988,52.744107],[41.470288,52.744172],[41.470714,52.744315],[41.471049,52.744482],[41.472369,52.745307],[41.473796,52.746171],[41.475674,52.747451],[41.476037,52.747679],[41.47709,52.74834],[41.477901,52.748795],[41.478341,52.749041],[41.478875,52.749374],[41.479265,52.749634],[41.480045,52.750197],[41.480349,52.75039],[41.480688,52.750602],[41.481099,52.750848],[41.481371,52.751021],[41.482632,52.751822],[41.483358,52.752284],[41.483948,52.752659],[41.485099,52.753376]]}},{"type":"Feature","properties":{"full_id":"w97151421","osm_id":"97151421","osm_type":"way","railway":"rail","tunnel":null,"name":null,"construction:voltage":null,"construction:frequency":null,"construction:electrified":null,"service":"spur","embankment":null,"layer":null,"bridge":null,"usage":null,"proposed:voltage":null,"proposed:frequency":null,"proposed:electrified":null,"passenger_lines":null,"operator":null,"gauge":null,"electrified":"no","designated_direction":null,"branch":null},"geometry":{"type":"LineString","coordinates":[[41.395213,52.72186],[41.393965,52.721984],[41.393794,52.722001],[41.393341,52.72203],[41.392893,52.722034],[41.392461,52.722017],[41.392024,52.72198],[41.391536,52.721907],[41.391384,52.721878],[41.391121,52.721825],[41.390944,52.721783],[41.390785,52.721741],[41.390541,52.72167],[41.390345,52.721606],[41.390015,52.721484],[41.389736,52.721365],[41.389566,52.721283],[41.389364,52.721173],[41.389201,52.721089],[41.389043,52.720984],[41.389005,52.720957],[41.388836,52.720824],[41.388668,52.720676],[41.38836,52.720336],[41.388242,52.720182],[41.388152,52.720051],[41.388062,52.719883],[41.387988,52.719721],[41.387875,52.719455],[41.387628,52.718845],[41.386842,52.716731],[41.38656,52.715974],[41.385404,52.7128],[41.384704,52.711021],[41.38449,52.710417],[41.384452,52.709806],[41.384466,52.709487],[41.384476,52.709255],[41.384516,52.708977],[41.384602,52.708704],[41.384734,52.708305],[41.384967,52.707819],[41.385356,52.707119],[41.386163,52.705925]]}},{"type":"Feature","properties":{"full_id":"w112357636","osm_id":"112357636","osm_type":"way","railway":"rail","tunnel":null,"name":null,"construction:voltage":null,"construction:frequency":null,"construction:electrified":null,"service":"siding","embankment":null,"layer":null,"bridge":null,"usage":null,"proposed:voltage":null,"proposed:frequency":null,"proposed:electrified":null,"passenger_lines":null,"operator":null,"gauge":null,"electrified":null,"designated_direction":null,"branch":null},"geometry":{"type":"LineString","coordinates":[[41.48755,52.683444],[41.485731,52.683366],[41.484659,52.683341],[41.483447,52.683394],[41.482754,52.683462],[41.482414,52.683487],[41.482005,52.683515],[41.481412,52.683591],[41.480454,52.683724],[41.480059,52.683826],[41.479185,52.684087],[41.478644,52.684304],[41.478353,52.684454],[41.478082,52.684659],[41.4778,52.684968],[41.477666,52.685123],[41.47754,52.6853],[41.477326,52.685697],[41.477261,52.685931],[41.476832,52.687355],[41.476639,52.687966],[41.476371,52.688474],[41.476299,52.688571],[41.476178,52.688708],[41.476135,52.688877],[41.475867,52.689709],[41.475899,52.690034],[41.475791,52.690574]]}},{"type":"Feature","properties":{"full_id":"w113371402","osm_id":"113371402","osm_type":"way","railway":"rail","tunnel":null,"name":null,"construction:voltage":null,"construction:frequency":null,"construction:electrified":null,"service":"yard","embankment":null,"layer":null,"bridge":null,"usage":null,"proposed:voltage":null,"proposed:frequency":null,"proposed:electrified":null,"passenger_lines":null,"operator":null,"gauge":"1520","electrified":"no","designated_direction":null,"branch":null},"geometry":{"type":"LineString","coordinates":[[41.438661,52.703819],[41.437397,52.704753],[41.436506,52.705351],[41.43602,52.705619],[41.435727,52.705759],[41.435432,52.705872],[41.435178,52.705957],[41.434864,52.706032],[41.434303,52.7061],[41.433756,52.706133],[41.432801,52.70612],[41.4317,52.706145],[41.431596,52.706151],[41.431095,52.706185],[41.430205,52.706295],[41.429615,52.706438],[41.428553,52.706692],[41.425452,52.707589]]}},{"type":"Feature","properties":{"full_id":"w113371476","osm_id":"113371476","osm_type":"way","railway":"rail","tunnel":null,"name":null,"construction:voltage":null,"construction:frequency":null,"construction:electrified":null,"service":"yard","embankment":null,"layer":null,"bridge":null,"usage":null,"proposed:voltage":null,"proposed:frequency":null,"proposed:electrified":null,"passenger_lines":null,"operator":null,"gauge":"1520","electrified":"no","designated_direction":null,"branch":null},"geometry":{"type":"LineString","coordinates":[[41.43631,52.705713],[41.43597,52.705921],[41.435696,52.706104],[41.43476,52.706724],[41.434605,52.706787],[41.434087,52.706992],[41.43296,52.70734]]}},{"type":"Feature","properties":{"full_id":"w113559885","osm_id":"113559885","osm_type":"way","railway":"rail","tunnel":null,"name":null,"construction:voltage":null,"construction:frequency":null,"construction:electrified":null,"service":"spur","embankment":null,"layer":null,"bridge":null,"usage":null,"proposed:voltage":null,"proposed:frequency":null,"proposed:electrified":null,"passenger_lines":null,"operator":null,"gauge":null,"electrified":"no","designated_direction":null,"branch":null},"geometry":{"type":"LineString","coordinates":[[41.422128,52.72383],[41.421492,52.724547],[41.421404,52.724715],[41.421348,52.724868],[41.421303,52.725019],[41.421308,52.725293],[41.421343,52.725458],[41.421397,52.725603],[41.421474,52.725764],[41.42159,52.725918],[41.421745,52.726074],[41.42192,52.726215],[41.422156,52.726397],[41.422268,52.726472],[41.422337,52.726515],[41.42255,52.72665],[41.422851,52.726761],[41.423248,52.726855],[41.424015,52.726995],[41.424669,52.727063],[41.426176,52.72718],[41.42756,52.7273],[41.42836,52.727365],[41.42873,52.727381],[41.428929,52.72737],[41.429481,52.727339],[41.429926,52.727287],[41.430301,52.727196],[41.430704,52.727063],[41.43079,52.727032],[41.431407,52.726806],[41.431553,52.726753],[41.432143,52.726535],[41.43238,52.726449],[41.4327,52.726306],[41.433178,52.726131],[41.433408,52.726056],[41.433634,52.726],[41.433821,52.725953],[41.433986,52.725922],[41.434438,52.72591],[41.434704,52.725911],[41.435111,52.725935],[41.435635,52.725984],[41.435697,52.72599],[41.435897,52.726009],[41.436282,52.726043],[41.437364,52.726161],[41.438169,52.726261],[41.438975,52.726352],[41.44066,52.726546],[41.440995,52.72658],[41.442084,52.726682],[41.443177,52.726798],[41.443446,52.726828],[41.443561,52.726842],[41.44367,52.726853],[41.444428,52.726943],[41.445104,52.727026],[41.445799,52.727111],[41.445946,52.727126],[41.446557,52.727189],[41.447419,52.727277],[41.448051,52.727345],[41.448834,52.727433]]}},{"type":"Feature","properties":{"full_id":"w113988368","osm_id":"113988368","osm_type":"way","railway":"rail","tunnel":null,"name":null,"construction:voltage":null,"construction:frequency":null,"construction:electrified":null,"service":"spur","embankment":null,"layer":null,"bridge":null,"usage":null,"proposed:voltage":null,"proposed:frequency":null,"proposed:electrified":null,"passenger_lines":null,"operator":null,"gauge":"1520","electrified":"no","designated_direction":null,"branch":null},"geometry":{"type":"LineString","coordinates":[[41.476037,52.747679],[41.476721,52.748013],[41.476925,52.748104],[41.477136,52.748194],[41.477311,52.748263],[41.477503,52.748324],[41.477659,52.748365],[41.477837,52.748404],[41.47832,52.748479],[41.478441,52.748495],[41.478671,52.748502],[41.479167,52.7485],[41.479815,52.748454],[41.480228,52.748396],[41.480614,52.748311],[41.48082,52.748249],[41.481223,52.748072],[41.481586,52.747856],[41.481954,52.747629],[41.482449,52.747347],[41.483506,52.746732],[41.484037,52.746441],[41.484418,52.746217],[41.484607,52.746114],[41.484834,52.745945],[41.485052,52.745738],[41.485244,52.745557],[41.485424,52.745437],[41.485615,52.745317],[41.485681,52.745275],[41.485754,52.74523],[41.485845,52.745175],[41.486072,52.745041],[41.486377,52.744861],[41.486962,52.744524],[41.487293,52.744327],[41.487434,52.744244],[41.487972,52.743934],[41.488506,52.743617],[41.488951,52.743348],[41.489062,52.743282],[41.489397,52.743083],[41.489912,52.742778]]}},{"type":"Feature","properties":{"full_id":"w114135148","osm_id":"114135148","osm_type":"way","railway":"rail","tunnel":null,"name":null,"construction:voltage":null,"construction:frequency":null,"construction:electrified":null,"service":"spur","embankment":null,"layer":null,"bridge":null,"usage":null,"proposed:voltage":null,"proposed:frequency":null,"proposed:electrified":null,"passenger_lines":null,"operator":null,"gauge":null,"electrified":"no","designated_direction":null,"branch":null},"geometry":{"type":"LineString","coordinates":[[41.455101,52.685416],[41.458395,52.685384],[41.459478,52.685325],[41.460036,52.685345],[41.46083,52.685436],[41.461528,52.685563],[41.461782,52.685628],[41.462027,52.685703],[41.462295,52.685803],[41.462593,52.685923],[41.46266,52.68595],[41.462785,52.686],[41.462909,52.686048],[41.464484,52.686664],[41.464809,52.686787],[41.465318,52.686953],[41.465768,52.687054],[41.466129,52.68711],[41.466525,52.687143],[41.467042,52.687157],[41.467577,52.687134],[41.468089,52.687082],[41.468395,52.68703],[41.468647,52.686976],[41.469151,52.686843],[41.470165,52.686534],[41.470571,52.686395],[41.47088,52.686263],[41.471683,52.685843],[41.472191,52.685596]]}},{"type":"Feature","properties":{"full_id":"w114676435","osm_id":"114676435","osm_type":"way","railway":"rail","tunnel":null,"name":null,"construction:voltage":null,"construction:frequency":null,"construction:electrified":null,"service":"spur","embankment":null,"layer":null,"bridge":null,"usage":null,"proposed:voltage":null,"proposed:frequency":null,"proposed:electrified":null,"passenger_lines":null,"operator":null,"gauge":null,"electrified":"no","designated_direction":null,"branch":null},"geometry":{"type":"LineString","coordinates":[[41.473845,52.685682],[41.471455,52.686866],[41.471355,52.686912],[41.47062,52.687199],[41.469397,52.68769],[41.467205,52.688522],[41.466763,52.688693]]}},{"type":"Feature","properties":{"full_id":"w354191380","osm_id":"354191380","osm_type":"way","railway":"rail","tunnel":null,"name":null,"construction:voltage":null,"construction:frequency":null,"construction:electrified":null,"service":null,"embankment":null,"layer":null,"bridge":null,"usage":"branch","proposed:voltage":null,"proposed:frequency":null,"proposed:electrified":null,"passenger_lines":"1","operator":"ОАО «Российские железные дороги»","gauge":"1520","electrified":"no","designated_direction":"both","branch":"Ю-ВОСТ"},"geometry":null},{"type":"Feature","properties":{"full_id":"w354191381","osm_id":"354191381","osm_type":"way","railway":"rail","tunnel":null,"name":null,"construction:voltage":null,"construction:frequency":null,"construction:electrified":null,"service":null,"embankment":null,"layer":null,"bridge":"yes","usage":"branch","proposed:voltage":null,"proposed:frequency":null,"proposed:electrified":null,"passenger_lines":"1","operator":"ОАО «Российские железные дороги»","gauge":"1520","electrified":"no","designated_direction":"both","branch":"Ю-ВОСТ"},"geometry":null},{"type":"Feature","properties":{"full_id":"w395046042","osm_id":"395046042","osm_type":"way","railway":"rail","tunnel":null,"name":null,"construction:voltage":null,"construction:frequency":null,"construction:electrified":null,"service":null,"embankment":null,"layer":null,"bridge":null,"usage":"main","proposed:voltage":"25000","proposed:frequency":"50","proposed:electrified":"contact_line","passenger_lines":null,"operator":"ОАО «Российские железные дороги»","gauge":"1520","electrified":"no","designated_direction":null,"branch":"Ю-ВОСТ"},"geometry":null},{"type":"Feature","properties":{"full_id":"w395047299","osm_id":"395047299","osm_type":"way","railway":"rail","tunnel":null,"name":null,"construction:voltage":null,"construction:frequency":null,"construction:electrified":null,"service":null,"embankment":null,"layer":"1","bridge":"yes","usage":"main","proposed:voltage":"25000","proposed:frequency":"50","proposed:electrified":"contact_line","passenger_lines":null,"operator":"ОАО «Российские железные дороги»","gauge":"1520","electrified":"no","designated_direction":null,"branch":"Ю-ВОСТ"},"geometry":null},{"type":"Feature","properties":{"full_id":"w395047300","osm_id":"395047300","osm_type":"way","railway":"rail","tunnel":null,"name":null,"construction:voltage":null,"construction:frequency":null,"construction:electrified":null,"service":null,"embankment":null,"layer":"1","bridge":"yes","usage":"main","proposed:voltage":"25000","proposed:frequency":"50","proposed:electrified":"contact_line","passenger_lines":"2","operator":"ОАО «Российские железные дороги»","gauge":"1520","electrified":"no","designated_direction":null,"branch":"Ю-ВОСТ"},"geometry":null},{"type":"Feature","properties":{"full_id":"w395047304","osm_id":"395047304","osm_type":"way","railway":"rail","tunnel":null,"name":null,"construction:voltage":null,"construction:frequency":null,"construction:electrified":null,"service":null,"embankment":null,"layer":null,"bridge":null,"usage":"main","proposed:voltage":"25000","proposed:frequency":"50","proposed:electrified":"contact_line","passenger_lines":"2","operator":"ОАО «Российские железные дороги»","gauge":"1520","electrified":"no","designated_direction":null,"branch":"Ю-ВОСТ"},"geometry":null},{"type":"Feature","properties":{"full_id":"w396710570","osm_id":"396710570","osm_type":"way","railway":"rail","tunnel":null,"name":null,"construction:voltage":null,"construction:frequency":null,"construction:electrified":null,"service":"yard","embankment":null,"layer":null,"bridge":null,"usage":null,"proposed:voltage":null,"proposed:frequency":null,"proposed:electrified":null,"passenger_lines":null,"operator":null,"gauge":"1520","electrified":"no","designated_direction":null,"branch":null},"geometry":{"type":"LineString","coordinates":[[41.4252,52.709328],[41.426273,52.708991],[41.427861,52.708505],[41.42936,52.708039],[41.430247,52.707842],[41.431125,52.707661],[41.431847,52.70746],[41.432586,52.707241],[41.434401,52.706665],[41.434784,52.706538],[41.434964,52.706475],[41.435365,52.706323]]}},{"type":"Feature","properties":{"full_id":"w396710572","osm_id":"396710572","osm_type":"way","railway":"rail","tunnel":null,"name":null,"construction:voltage":null,"construction:frequency":null,"construction:electrified":null,"service":"yard","embankment":null,"layer":null,"bridge":null,"usage":null,"proposed:voltage":null,"proposed:frequency":null,"proposed:electrified":null,"passenger_lines":null,"operator":null,"gauge":"1520","electrified":"no","designated_direction":null,"branch":null},"geometry":{"type":"LineString","coordinates":[[41.43476,52.706724],[41.433944,52.707212],[41.433508,52.707442],[41.433092,52.707627],[41.432521,52.707842],[41.431384,52.708308]]}},{"type":"Feature","properties":{"full_id":"w442416356","osm_id":"442416356","osm_type":"way","railway":"rail","tunnel":null,"name":null,"construction:voltage":null,"construction:frequency":null,"construction:electrified":null,"service":"siding","embankment":null,"layer":null,"bridge":null,"usage":null,"proposed:voltage":null,"proposed:frequency":null,"proposed:electrified":null,"passenger_lines":null,"operator":null,"gauge":null,"electrified":null,"designated_direction":null,"branch":null},"geometry":{"type":"LineString","coordinates":[[41.482754,52.683462],[41.482406,52.683528],[41.48166,52.683667],[41.481559,52.683702],[41.481432,52.683747],[41.481154,52.683868],[41.480875,52.684011],[41.480588,52.684192],[41.480352,52.684354],[41.480132,52.684556],[41.479979,52.684737],[41.479896,52.684878],[41.479791,52.685063],[41.479741,52.685211],[41.479558,52.685714],[41.47951,52.685834],[41.479373,52.686047],[41.479204,52.686291],[41.479124,52.68645],[41.479046,52.68671],[41.478893,52.687302],[41.478871,52.687489],[41.478864,52.687749],[41.478874,52.687897],[41.478896,52.688143],[41.478896,52.688268],[41.478874,52.688414],[41.478815,52.68872]]}},{"type":"Feature","properties":{"full_id":"w447374035","osm_id":"447374035","osm_type":"way","railway":"rail","tunnel":null,"name":null,"construction:voltage":null,"construction:frequency":null,"construction:electrified":null,"service":null,"embankment":null,"layer":"1","bridge":"yes","usage":"main","proposed:voltage":null,"proposed:frequency":null,"proposed:electrified":null,"passenger_lines":"1","operator":"ОАО «Российские железные дороги»","gauge":"1520","electrified":"no","designated_direction":"both","branch":"Ю-ВОСТ"},"geometry":null},{"type":"Feature","properties":{"full_id":"w494121750","osm_id":"494121750","osm_type":"way","railway":"rail","tunnel":null,"name":null,"construction:voltage":null,"construction:frequency":null,"construction:electrified":null,"service":null,"embankment":null,"layer":null,"bridge":null,"usage":null,"proposed:voltage":null,"proposed:frequency":null,"proposed:electrified":null,"passenger_lines":null,"operator":null,"gauge":"1520","electrified":"no","designated_direction":null,"branch":null},"geometry":null},{"type":"Feature","properties":{"full_id":"w494150485","osm_id":"494150485","osm_type":"way","railway":"rail","tunnel":null,"name":null,"construction:voltage":null,"construction:frequency":null,"construction:electrified":null,"service":null,"embankment":null,"layer":null,"bridge":null,"usage":null,"proposed:voltage":null,"proposed:frequency":null,"proposed:electrified":null,"passenger_lines":null,"operator":null,"gauge":null,"electrified":null,"designated_direction":null,"branch":null},"geometry":null},{"type":"Feature","properties":{"full_id":"w494150486","osm_id":"494150486","osm_type":"way","railway":"rail","tunnel":null,"name":null,"construction:voltage":null,"construction:frequency":null,"construction:electrified":null,"service":null,"embankment":null,"layer":null,"bridge":null,"usage":null,"proposed:voltage":null,"proposed:frequency":null,"proposed:electrified":null,"passenger_lines":null,"operator":null,"gauge":null,"electrified":null,"designated_direction":null,"branch":null},"geometry":null},{"type":"Feature","properties":{"full_id":"w528934395","osm_id":"528934395","osm_type":"way","railway":"rail","tunnel":null,"name":null,"construction:voltage":null,"construction:frequency":null,"construction:electrified":null,"service":"spur","embankment":null,"layer":null,"bridge":null,"usage":null,"proposed:voltage":null,"proposed:frequency":null,"proposed:electrified":null,"passenger_lines":null,"operator":null,"gauge":null,"electrified":"no","designated_direction":null,"branch":null},"geometry":{"type":"LineString","coordinates":[[41.430211,52.730031],[41.4302,52.729394],[41.430161,52.729215],[41.43016,52.729186],[41.43009,52.728908],[41.429988,52.728609],[41.429961,52.728361],[41.429993,52.728158],[41.43006,52.727945],[41.430197,52.727737],[41.430409,52.727502],[41.430628,52.727325],[41.430758,52.727221],[41.430865,52.727156],[41.431128,52.727],[41.431553,52.726753]]}},{"type":"Feature","properties":{"full_id":"w545551076","osm_id":"545551076","osm_type":"way","railway":"rail","tunnel":null,"name":null,"construction:voltage":null,"construction:frequency":null,"construction:electrified":null,"service":"spur","embankment":null,"layer":null,"bridge":null,"usage":null,"proposed:voltage":null,"proposed:frequency":null,"proposed:electrified":null,"passenger_lines":null,"operator":null,"gauge":null,"electrified":"no","designated_direction":null,"branch":null},"geometry":{"type":"LineString","coordinates":[[41.378964,52.717507],[41.380001,52.715899],[41.380383,52.715293],[41.380603,52.714966],[41.381394,52.713702],[41.381598,52.713405],[41.381738,52.713092],[41.381831,52.712795],[41.381911,52.712572],[41.381992,52.712418],[41.382051,52.712288],[41.382253,52.711942],[41.382877,52.710917],[41.383055,52.710642],[41.383438,52.710085],[41.38361,52.709825],[41.383789,52.709597],[41.384114,52.709241],[41.384345,52.708949],[41.384484,52.708733],[41.384734,52.708305]]}},{"type":"Feature","properties":{"full_id":"w548368743","osm_id":"548368743","osm_type":"way","railway":"rail","tunnel":null,"name":null,"construction:voltage":null,"construction:frequency":null,"construction:electrified":null,"service":"spur","embankment":null,"layer":null,"bridge":null,"usage":null,"proposed:voltage":null,"proposed:frequency":null,"proposed:electrified":null,"passenger_lines":null,"operator":null,"gauge":"1520","electrified":"no","designated_direction":null,"branch":null},"geometry":{"type":"LineString","coordinates":[[41.481099,52.750848],[41.481308,52.750927],[41.481467,52.750984],[41.481691,52.751043],[41.481991,52.751102],[41.48226,52.751139],[41.482536,52.751161],[41.482796,52.751161],[41.483008,52.751151],[41.483207,52.751131],[41.483374,52.751102],[41.483577,52.751053],[41.483768,52.750991],[41.483982,52.750917],[41.484234,52.750819],[41.484561,52.75068],[41.484859,52.750504],[41.485232,52.750295],[41.485464,52.750202],[41.485675,52.750133],[41.486074,52.75002],[41.48642,52.749904],[41.486635,52.749815],[41.486844,52.749729],[41.486988,52.749654],[41.487146,52.749575],[41.487315,52.74947],[41.488924,52.748581],[41.489149,52.74848],[41.489396,52.748376],[41.489911,52.748197],[41.490227,52.748051],[41.490688,52.747772]]}},{"type":"Feature","properties":{"full_id":"w554599224","osm_id":"554599224","osm_type":"way","railway":"rail","tunnel":null,"name":null,"construction:voltage":null,"construction:frequency":null,"construction:electrified":null,"service":null,"embankment":null,"layer":"1","bridge":"yes","usage":null,"proposed:voltage":null,"proposed:frequency":null,"proposed:electrified":null,"passenger_lines":null,"operator":null,"gauge":"1520","electrified":"no","designated_direction":null,"branch":null},"geometry":null},{"type":"Feature","properties":{"full_id":"w622021418","osm_id":"622021418","osm_type":"way","railway":"rail","tunnel":null,"name":null,"construction:voltage":null,"construction:frequency":null,"construction:electrified":null,"service":"spur","embankment":null,"layer":null,"bridge":null,"usage":null,"proposed:voltage":null,"proposed:frequency":null,"proposed:electrified":null,"passenger_lines":null,"operator":null,"gauge":"1520","electrified":null,"designated_direction":null,"branch":null},"geometry":{"type":"LineString","coordinates":[[41.48047,52.750466],[41.481085,52.750638],[41.481276,52.750684],[41.481508,52.750728],[41.481732,52.750751],[41.481984,52.750751],[41.482248,52.750714],[41.482534,52.750643],[41.483002,52.750466],[41.483325,52.750322],[41.483707,52.750108],[41.484167,52.749828],[41.484591,52.74957],[41.484953,52.749362],[41.485376,52.749086],[41.485589,52.74894],[41.485882,52.748767],[41.486424,52.748397],[41.486953,52.748029]]}},{"type":"Feature","properties":{"full_id":"w622021563","osm_id":"622021563","osm_type":"way","railway":"rail","tunnel":null,"name":null,"construction:voltage":null,"construction:frequency":null,"construction:electrified":null,"service":"spur","embankment":null,"layer":null,"bridge":null,"usage":null,"proposed:voltage":null,"proposed:frequency":null,"proposed:electrified":null,"passenger_lines":null,"operator":null,"gauge":"1520","electrified":null,"designated_direction":null,"branch":null},"geometry":{"type":"LineString","coordinates":[[41.477901,52.748795],[41.478233,52.748903],[41.478502,52.748995],[41.478776,52.749064],[41.479055,52.749116],[41.47952,52.749164],[41.479973,52.749162],[41.480392,52.749141],[41.480716,52.749082],[41.481017,52.749011],[41.48135,52.748899],[41.481725,52.748714],[41.48216,52.748448],[41.482524,52.748181],[41.483026,52.747887],[41.483991,52.747332],[41.484313,52.747157],[41.484603,52.747017],[41.484838,52.746907],[41.485224,52.746686],[41.486286,52.746047],[41.486601,52.745798],[41.486833,52.745639]]}},{"type":"Feature","properties":{"full_id":"w675698640","osm_id":"675698640","osm_type":"way","railway":"rail","tunnel":null,"name":null,"construction:voltage":null,"construction:frequency":null,"construction:electrified":null,"service":null,"embankment":null,"layer":null,"bridge":"yes","usage":"main","proposed:voltage":"25000","proposed:frequency":"50","proposed:electrified":"contact_line","passenger_lines":"2","operator":"ОАО «Российские железные дороги»","gauge":"1520","electrified":"no","designated_direction":"forward","branch":"Ю-ВОСТ"},"geometry":null},{"type":"Feature","properties":{"full_id":"w695901006","osm_id":"695901006","osm_type":"way","railway":"rail","tunnel":null,"name":null,"construction:voltage":null,"construction:frequency":null,"construction:electrified":null,"service":"spur","embankment":null,"layer":null,"bridge":null,"usage":null,"proposed:voltage":null,"proposed:frequency":null,"proposed:electrified":null,"passenger_lines":null,"operator":null,"gauge":null,"electrified":null,"designated_direction":null,"branch":null},"geometry":{"type":"LineString","coordinates":[[41.46077,52.748058],[41.460949,52.747616],[41.461034,52.747383],[41.461057,52.747264],[41.461045,52.747144],[41.461014,52.746994],[41.460876,52.746448],[41.460831,52.746329],[41.460818,52.746302],[41.460711,52.746139],[41.46068,52.7461],[41.460618,52.746022],[41.460375,52.745826],[41.459932,52.745532],[41.459837,52.745469],[41.458843,52.744902],[41.457191,52.743926]]}},{"type":"Feature","properties":{"full_id":"w766754204","osm_id":"766754204","osm_type":"way","railway":"rail","tunnel":null,"name":null,"construction:voltage":null,"construction:frequency":null,"construction:electrified":null,"service":null,"embankment":null,"layer":null,"bridge":null,"usage":"main","proposed:voltage":"25000","proposed:frequency":"50","proposed:electrified":"contact_line","passenger_lines":"2","operator":"ОАО «Российские железные дороги»","gauge":"1520","electrified":"no","designated_direction":"forward","branch":"Ю-ВОСТ"},"geometry":null},{"type":"Feature","properties":{"full_id":"w789042051","osm_id":"789042051","osm_type":"way","railway":"rail","tunnel":null,"name":null,"construction:voltage":null,"construction:frequency":null,"construction:electrified":null,"service":"spur","embankment":null,"layer":null,"bridge":null,"usage":null,"proposed:voltage":null,"proposed:frequency":null,"proposed:electrified":null,"passenger_lines":null,"operator":null,"gauge":null,"electrified":"no","designated_direction":null,"branch":null},"geometry":{"type":"LineString","coordinates":[[41.387893,52.736155],[41.388481,52.736014],[41.38871,52.735976],[41.388908,52.735953],[41.389232,52.735934],[41.389819,52.735942],[41.390362,52.735993],[41.390637,52.736016],[41.39094,52.736039],[41.391278,52.736051],[41.391439,52.736049],[41.39164,52.736039],[41.392265,52.735976],[41.393349,52.735806],[41.396028,52.735333],[41.397538,52.735138],[41.400424,52.734644]]}},{"type":"Feature","properties":{"full_id":"w1247009573","osm_id":"1247009573","osm_type":"way","railway":"rail","tunnel":null,"name":null,"construction:voltage":"25000","construction:frequency":"50","construction:electrified":"contact_line","service":null,"embankment":null,"layer":null,"bridge":null,"usage":"main","proposed:voltage":null,"proposed:frequency":null,"proposed:electrified":null,"passenger_lines":"2","operator":"ОАО «Российские железные дороги»","gauge":"1520","electrified":"construction","designated_direction":"forward","branch":"Ю-ВОСТ"},"geometry":null},{"type":"Feature","properties":{"full_id":"w1279387030","osm_id":"1279387030","osm_type":"way","railway":"rail","tunnel":null,"name":null,"construction:voltage":null,"construction:frequency":null,"construction:electrified":null,"service":null,"embankment":null,"layer":null,"bridge":null,"usage":"main","proposed:voltage":"25000","proposed:frequency":"50","proposed:electrified":"contact_line","passenger_lines":"2","operator":"ОАО «Российские железные дороги»","gauge":"1520","electrified":"no","designated_direction":"forward","branch":"Ю-ВОСТ"},"geometry":null},{"type":"Feature","properties":{"full_id":"w1500246257","osm_id":"1500246257","osm_type":"way","railway":"rail","tunnel":null,"name":"жд","construction:voltage":null,"construction:frequency":null,"construction:electrified":null,"service":null,"embankment":null,"layer":null,"bridge":null,"usage":null,"proposed:voltage":null,"proposed:frequency":null,"proposed:electrified":null,"passenger_lines":null,"operator":null,"gauge":null,"electrified":null,"designated_direction":null,"branch":null},"geometry":null},{"type":"Feature","properties":{"full_id":null,"osm_id":null,"osm_type":null,"railway":null,"tunnel":null,"name":null,"construction:voltage":null,"construction:frequency":null,"construction:electrified":null,"service":null,"embankment":null,"layer":null,"bridge":null,"usage":null,"proposed:voltage":null,"proposed:frequency":null,"proposed:electrified":null,"passenger_lines":null,"operator":null,"gauge":null,"electrified":null,"designated_direction":null,"branch":null},"geometry":{"type":"LineString","coordinates":[[41.43553,52.707351],[41.436777,52.705944],[41.43792,52.704721],[41.439281,52.703351]]}},{"type":"Feature","properties":{"full_id":null,"osm_id":null,"osm_type":null,"railway":null,"tunnel":null,"name":null,"construction:voltage":null,"construction:frequency":null,"construction:electrified":null,"service":null,"embankment":null,"layer":null,"bridge":null,"usage":null,"proposed:voltage":null,"proposed:frequency":null,"proposed:electrified":null,"passenger_lines":null,"operator":null,"gauge":null,"electrified":null,"designated_direction":null,"branch":null},"geometry":{"type":"LineString","coordinates":[[41.477394,52.684564],[41.479185,52.684087]]}},{"type":"Feature","properties":{"full_id":"w395047302","osm_id":"395047302","osm_type":"way","railway":"rail","tunnel":null,"name":null,"construction:voltage":null,"construction:frequency":null,"construction:electrified":null,"service":null,"embankment":null,"layer":null,"bridge":null,"usage":"main","proposed:voltage":"25000","proposed:frequency":"50","proposed:electrified":"contact_line","passenger_lines":null,"operator":"ОАО «Российские железные дороги»","gauge":"1520","electrified":"no","designated_direction":null,"branch":"Ю-ВОСТ"},"geometry":{"type":"LineString","coordinates":[[41.42575,52.720763],[41.425589,52.720968],[41.425407,52.721184],[41.425058,52.721566],[41.424739,52.721918],[41.424357,52.722281],[41.42389,52.722675],[41.423447,52.722995],[41.422128,52.72383],[41.42135,52.724348],[41.420521,52.72499],[41.420009,52.725426],[41.419571,52.72584],[41.418051,52.727385],[41.409938,52.735595],[41.409895,52.735639],[41.404503,52.741134],[41.404099,52.741535],[41.403557,52.742089],[41.403152,52.742532],[41.402667,52.743153],[41.402468,52.743419],[41.401304,52.745395],[41.399649,52.748301],[41.398727,52.749909],[41.398426,52.750399],[41.398201,52.750724],[41.397981,52.750983],[41.397713,52.751285],[41.39738,52.751604],[41.397058,52.75187],[41.396538,52.752242],[41.395948,52.752591],[41.395342,52.752889],[41.394709,52.753164],[41.394022,52.753399],[41.393349,52.753586],[41.392689,52.753742],[41.392059,52.753855],[41.391088,52.754009],[41.385915,52.754795],[41.378549,52.755925],[41.374801,52.7565],[41.360704,52.758646]]}},{"type":"Feature","properties":{"full_id":"w53337526","osm_id":"53337526","osm_type":"way","railway":"rail","tunnel":null,"name":null,"construction:voltage":null,"construction:frequency":null,"construction:electrified":null,"service":"spur","embankment":null,"layer":null,"bridge":null,"usage":null,"proposed:voltage":null,"proposed:frequency":null,"proposed:electrified":null,"passenger_lines":null,"operator":null,"gauge":null,"electrified":"no","designated_direction":null,"branch":null},"geometry":{"type":"LineString","coordinates":[[41.472979,52.750806],[41.472555,52.751117],[41.472089,52.75138],[41.471222,52.751895],[41.46955,52.752852],[41.468727,52.753271],[41.468067,52.753641],[41.467869,52.753728],[41.467586,52.753849],[41.467134,52.75399],[41.466806,52.754109],[41.466447,52.754165],[41.465685,52.754217],[41.464945,52.754217],[41.464172,52.7541],[41.462938,52.753866],[41.460106,52.753308],[41.45982,52.753252],[41.459041,52.753101],[41.454763,52.75227],[41.450939,52.751602],[41.450337,52.751497],[41.448844,52.751192],[41.448515,52.75113],[41.448233,52.751067],[41.447972,52.75102],[41.44736,52.750824],[41.447142,52.750754],[41.446644,52.750548],[41.446397,52.750431],[41.446175,52.750314],[41.445906,52.750176],[41.445698,52.750054],[41.445478,52.749918],[41.44523,52.749742],[41.444947,52.749536],[41.444749,52.74938],[41.444527,52.74919],[41.444287,52.748965],[41.444078,52.748759],[41.443683,52.748348],[41.443436,52.748082],[41.443204,52.747844],[41.442114,52.746772],[41.440903,52.745581],[41.440284,52.744957],[41.440011,52.744672],[41.439905,52.74457],[41.43981,52.744479],[41.439047,52.743743],[41.438271,52.742986],[41.43671,52.741422],[41.436416,52.741151],[41.435925,52.740771],[41.435418,52.740458],[41.435187,52.740337],[41.434946,52.740221],[41.434671,52.740104],[41.434388,52.739987],[41.434179,52.739899],[41.434017,52.739836],[41.432421,52.739225],[41.428413,52.737723],[41.427108,52.737233],[41.424598,52.736293],[41.423665,52.735942],[41.422914,52.735693],[41.42153,52.735318],[41.421047,52.735255],[41.420473,52.735225],[41.420057,52.735219],[41.419866,52.735221],[41.419637,52.735233],[41.41931,52.735277],[41.419125,52.73531],[41.418985,52.735346],[41.418798,52.735393],[41.418601,52.735452],[41.417419,52.735864],[41.417049,52.736018],[41.416873,52.736094],[41.416091,52.736422],[41.416038,52.736443],[41.413677,52.737377]]}},{"type":"Feature","properties":{"full_id":"w79618423","osm_id":"79618423","osm_type":"way","railway":"rail","tunnel":null,"name":null,"construction:voltage":null,"construction:frequency":null,"construction:electrified":null,"service":"spur","embankment":null,"layer":null,"bridge":null,"usage":null,"proposed:voltage":null,"proposed:frequency":null,"proposed:electrified":null,"passenger_lines":null,"operator":null,"gauge":"1520","electrified":"no","designated_direction":null,"branch":null},"geometry":{"type":"LineString","coordinates":[[41.487451,52.682999],[41.486389,52.682957],[41.485204,52.682932],[41.484219,52.682966],[41.483018,52.683077],[41.482403,52.683161],[41.48172,52.683288],[41.480859,52.68349],[41.480142,52.6837],[41.479523,52.683895],[41.478871,52.684099],[41.478471,52.684227],[41.477467,52.684541],[41.476248,52.684925],[41.470628,52.686694],[41.467839,52.687572],[41.464147,52.688725],[41.463998,52.688773],[41.463481,52.688938],[41.463178,52.689033],[41.462252,52.689325],[41.461838,52.689455],[41.453343,52.692119],[41.452556,52.692409],[41.45196,52.692662],[41.451367,52.692947],[41.45071,52.693328],[41.450309,52.693591],[41.449819,52.69396],[41.449321,52.694394],[41.447834,52.695824],[41.443431,52.699891],[41.4424,52.700877],[41.44083,52.70247],[41.440397,52.702886],[41.438506,52.704706],[41.437852,52.705362],[41.437455,52.705733],[41.43616,52.706827],[41.435046,52.707754],[41.43477,52.70799],[41.433833,52.708778],[41.433414,52.709131],[41.43298,52.7095],[41.432443,52.709939],[41.431914,52.710381],[41.431498,52.710671],[41.430996,52.711053],[41.430603,52.711385],[41.430364,52.711611],[41.430028,52.711984],[41.429834,52.712243],[41.429662,52.712488],[41.429504,52.712755],[41.429354,52.713026],[41.428986,52.713813],[41.428648,52.714539],[41.428366,52.715184],[41.428297,52.715311],[41.427429,52.717222],[41.427035,52.718091],[41.426219,52.719907],[41.426078,52.720227],[41.425927,52.72049],[41.42575,52.720763],[41.425224,52.721171],[41.42503,52.721313],[41.424771,52.721467],[41.42447,52.721628],[41.42425,52.721703],[41.424025,52.721767],[41.42325,52.72191],[41.423113,52.721927],[41.42265,52.721944],[41.422262,52.721924],[41.421748,52.721882],[41.420739,52.721797],[41.419261,52.721689],[41.414975,52.721418],[41.414723,52.721403],[41.413967,52.721348],[41.412582,52.721268],[41.411153,52.721191],[41.407643,52.720972],[41.406672,52.720916],[41.406073,52.720891],[41.405784,52.720887],[41.405395,52.720893],[41.405035,52.720906],[41.404296,52.72098],[41.404029,52.721003],[41.403759,52.721028],[41.401609,52.721227],[41.399845,52.721408],[41.398091,52.721566],[41.39634,52.721743],[41.395553,52.721824],[41.395213,52.72186],[41.393985,52.722062],[41.39367,52.722114],[41.393262,52.722227],[41.393058,52.722296],[41.392815,52.722389],[41.392594,52.722492],[41.392397,52.722592],[41.392302,52.722649],[41.392076,52.722783],[41.391803,52.722978],[41.391577,52.723183],[41.391369,52.72341],[41.391269,52.723528],[41.391166,52.723678],[41.391077,52.723829],[41.39101,52.723974],[41.390948,52.724196],[41.39092,52.724352],[41.390901,52.724529],[41.390911,52.725117],[41.390935,52.725781],[41.390967,52.726605],[41.390955,52.727111],[41.391104,52.730346],[41.391225,52.733268],[41.391203,52.733562],[41.39118,52.733764],[41.39114,52.733957],[41.390985,52.734335],[41.390854,52.73452],[41.390722,52.734699],[41.390472,52.734931],[41.390338,52.735039],[41.389886,52.735337],[41.389607,52.735501],[41.389415,52.735597],[41.3893,52.735661],[41.388636,52.73591],[41.387893,52.736155],[41.387558,52.736246],[41.387293,52.736317],[41.386442,52.736525],[41.385682,52.736712],[41.385487,52.736759],[41.385132,52.736852],[41.383481,52.737285],[41.382035,52.737655],[41.381609,52.737765],[41.381231,52.73785],[41.380677,52.737963],[41.380311,52.738059],[41.379875,52.738234],[41.379568,52.738392],[41.379191,52.738622],[41.37886,52.738892],[41.378524,52.739185],[41.378225,52.739418],[41.378038,52.739523],[41.377893,52.739601],[41.37746,52.739842],[41.376875,52.740058],[41.376239,52.74028]]}},{"type":"Feature","properties":{"full_id":"w85251528","osm_id":"85251528","osm_type":"way","railway":"rail","tunnel":null,"name":null,"construction:voltage":null,"construction:frequency":null,"construction:electrified":null,"service":null,"embankment":null,"layer":null,"bridge":null,"usage":"main","proposed:voltage":"25000","proposed:frequency":"50","proposed:electrified":"contact_line","passenger_lines":"1","operator":"ОАО «Российские железные дороги»","gauge":"1520","electrified":"no","designated_direction":"both","branch":"Ю-ВОСТ"},"geometry":{"type":"LineString","coordinates":[[41.426685,52.71887],[41.426697,52.718725],[41.426844,52.718119],[41.426886,52.717975],[41.426981,52.717725],[41.427019,52.717637],[41.427081,52.717495],[41.427222,52.717188],[41.428798,52.713757],[41.429168,52.712958],[41.429325,52.712654],[41.429441,52.712446],[41.42957,52.712247],[41.429787,52.711962],[41.430161,52.711556],[41.430421,52.711312],[41.4307,52.71107],[41.43143,52.710477],[41.431778,52.710223],[41.43298,52.7095]]}},{"type":"Feature","properties":{"full_id":"w396710578","osm_id":"396710578","osm_type":"way","railway":"rail","tunnel":null,"name":null,"construction:voltage":null,"construction:frequency":null,"construction:electrified":null,"service":"yard","embankment":null,"layer":null,"bridge":null,"usage":null,"proposed:voltage":null,"proposed:frequency":null,"proposed:electrified":null,"passenger_lines":null,"operator":null,"gauge":"1520","electrified":"no","designated_direction":null,"branch":null},"geometry":{"type":"LineString","coordinates":[[41.432429,52.707879],[41.431654,52.708129],[41.431075,52.708348],[41.429813,52.708876],[41.429376,52.70909],[41.429084,52.709204],[41.427963,52.70957],[41.425768,52.710267],[41.423923,52.710843],[41.423803,52.710879],[41.422963,52.711133],[41.422474,52.711293],[41.422196,52.711424],[41.421844,52.711709],[41.421826,52.711724],[41.421691,52.711872],[41.421658,52.711921],[41.421526,52.712117],[41.421409,52.712324],[41.420857,52.713276]]}},{"type":"Feature","properties":{"full_id":"w177883264","osm_id":"177883264","osm_type":"way","railway":"rail","tunnel":null,"name":null,"construction:voltage":null,"construction:frequency":null,"construction:electrified":null,"service":"yard","embankment":null,"layer":null,"bridge":null,"usage":null,"proposed:voltage":null,"proposed:frequency":null,"proposed:electrified":null,"passenger_lines":null,"operator":null,"gauge":"1520","electrified":"no","designated_direction":null,"branch":null},"geometry":{"type":"LineString","coordinates":[[41.426544,52.708392],[41.427262,52.708176],[41.427893,52.708013],[41.428756,52.707752],[41.429954,52.707336],[41.431602,52.706833],[41.43188,52.706753],[41.432514,52.706606],[41.433668,52.706376],[41.434298,52.706307],[41.434832,52.706232],[41.435227,52.706145],[41.435592,52.70603],[41.435948,52.705889],[41.43631,52.705713],[41.436648,52.70549],[41.438019,52.704391],[41.438661,52.703819],[41.439067,52.70351],[41.43941,52.703254],[41.439849,52.702915],[41.439949,52.70282],[41.440223,52.702557],[41.44099,52.701808],[41.441629,52.701187],[41.442385,52.700424],[41.442625,52.700141],[41.442806,52.699906],[41.442913,52.699724],[41.442999,52.699553],[41.443077,52.699344],[41.443144,52.69904],[41.443206,52.69877],[41.443306,52.698439],[41.443326,52.698391],[41.443553,52.697856],[41.443713,52.697353]]}},{"type":"Feature","properties":{"full_id":"w340396780","osm_id":"340396780","osm_type":"way","railway":"rail","tunnel":null,"name":null,"construction:voltage":null,"construction:frequency":null,"construction:electrified":null,"service":null,"embankment":null,"layer":null,"bridge":null,"usage":"main","proposed:voltage":null,"proposed:frequency":null,"proposed:electrified":null,"passenger_lines":"1","operator":"ОАО «Российские железные дороги»","gauge":"1520","electrified":"no","designated_direction":"both","branch":"Ю-ВОСТ"},"geometry":{"type":"LineString","coordinates":[[41.44524,52.69822],[41.446862,52.696109],[41.44731,52.69563],[41.447416,52.69551],[41.447702,52.695146],[41.447957,52.694724],[41.448087,52.69445],[41.448196,52.694164],[41.448274,52.69392],[41.44833,52.69372],[41.448378,52.693466],[41.448403,52.693315],[41.448417,52.693058],[41.44842,52.692743],[41.448356,52.692114],[41.448209,52.69114],[41.448147,52.690693],[41.447804,52.688578],[41.447396,52.685404],[41.447405,52.684976],[41.447465,52.684558],[41.447631,52.683976],[41.448012,52.683244],[41.4484,52.682701],[41.448876,52.682027],[41.448964,52.681908],[41.449008,52.681849],[41.449481,52.681261],[41.450212,52.68031],[41.45083,52.679435],[41.451437,52.678052],[41.45163,52.677135],[41.451717,52.676222],[41.451679,52.675523],[41.451555,52.674706],[41.45064,52.672284]]}},{"type":"Feature","properties":{"full_id":"w53193087","osm_id":"53193087","osm_type":"way","railway":"rail","tunnel":null,"name":null,"construction:voltage":null,"construction:frequency":null,"construction:electrified":null,"service":null,"embankment":null,"layer":null,"bridge":null,"usage":"branch","proposed:voltage":null,"proposed:frequency":null,"proposed:electrified":null,"passenger_lines":"1","operator":"ОАО «Российские железные дороги»","gauge":"1520","electrified":"no","designated_direction":"both","branch":"Ю-ВОСТ"},"geometry":{"type":"LineString","coordinates":[[41.469042,52.687193],[41.47001,52.68676],[41.470262,52.686652],[41.470495,52.686548],[41.470572,52.686514],[41.470903,52.686347],[41.471386,52.686095],[41.471701,52.685906],[41.472191,52.685596],[41.472706,52.685238],[41.473093,52.684976],[41.473702,52.684406],[41.475808,52.681961],[41.478074,52.679277],[41.478181,52.679155],[41.479547,52.677588],[41.47993,52.677243],[41.480265,52.676927],[41.48039,52.676809],[41.481112,52.676196],[41.481167,52.676157]]}}]}