{"type":"FeatureCollection","features":[{"type":"Feature","id":1,"properties":{"source":"bus_stop","name":"Ореховая"},"geometry":{"type":"Point","coordinates":[41.404338,52.768525]}},{"type":"Feature","id":2,"properties":{"source":"bus_stop","name":"Клубная"},"geometry":{"type":"Point","coordinates":[41.474215,52.688444]}},{"type":"Feature","id":3,"properties":{"source":"bus_stop","name":"Московская"},"geometry":{"type":"Point","coordinates":[41.45359,52.731765]}},{"type":"Feature","id":4,"properties":{"source":"bus_stop","name":"Чичканова"},"geometry":{"type":"Point","coordinates":[41.45191,52.737239]}},{"type":"Feature","id":5,"properties":{"source":"bus_stop","name":"Парк культуры"},"geometry":{"type":"Point","coordinates":[41.455034,52.726089]}},{"type":"Feature","id":6,"properties":{"source":"bus_stop","name":"Чичканова"},"geometry":{"type":"Point","coordinates":[41.452025,52.738063]}},{"type":"Feature","id":7,"properties":{"source":"bus_stop","name":"Динамо"},"geometry":{"type":"Point","coordinates":[41.47248,52.701465]}},{"type":"Feature","id":8,"properties":{"source":"bus_stop","name":"Дом художника"},"geometry":{"type":"Point","coordinates":[41.47104,52.704226]}},{"type":"Feature","id":9,"properties":{"source":"bus_stop","name":"Первомайская площадь"},"geometry":{"type":"Point","coordinates":[41.469366,52.706956]}},{"type":"Feature","id":10,"properties":{"source":"bus_stop","name":"дом-музей Чичерина"},"geometry":{"type":"Point","coordinates":[41.46055,52.714558]}},{"type":"Feature","id":11,"properties":{"source":"bus_stop","name":"Августа Бебеля"},"geometry":{"type":"Point","coordinates":[41.463525,52.711433]}},{"type":"Feature","id":12,"properties":{"source":"bus_stop","name":"Динамо"},"geometry":{"type":"Point","coordinates":[41.472211,52.701155]}},{"type":"Feature","id":13,"properties":{"source":"bus_stop","name":"Дом художника"},"geometry":{"type":"Point","coordinates":[41.471521,52.703658]}},{"type":"Feature","id":14,"properties":{"source":"bus_stop","name":"Первомайская площадь"},"geometry":{"type":"Point","coordinates":[41.469761,52.706257]}},{"type":"Feature","id":15,"properties":{"source":"bus_stop","name":"Августа Бебеля"},"geometry":{"type":"Point","coordinates":[41.462554,52.712485]}},{"type":"Feature","id":16,"properties":{"source":"bus_stop","name":"Магнит"},"geometry":{"type":"Point","coordinates":[41.449896,52.745741]}},{"type":"Feature","id":17,"properties":{"source":"bus_stop","name":"Бульвар Строителей"},"geometry":{"type":"Point","coordinates":[41.447627,52.75641]}},{"type":"Feature","id":18,"properties":{"source":"bus_stop","name":"Защитный переулок"},"geometry":{"type":"Point","coordinates":[41.448467,52.750518]}},{"type":"Feature","id":19,"properties":{"source":"bus_stop","name":"Асфальтовый завод"},"geometry":{"type":"Point","coordinates":[41.448798,52.750438]}},{"type":"Feature","id":20,"properties":{"source":"bus_stop","name":"Бульвар Строителей"},"geometry":{"type":"Point","coordinates":[41.447769,52.75377]}},{"type":"Feature","id":21,"properties":{"source":"bus_stop","name":"Телецентр"},"geometry":{"type":"Point","coordinates":[41.426736,52.74391]}},{"type":"Feature","id":22,"properties":{"source":"bus_stop","name":"Астраханская"},"geometry":{"type":"Point","coordinates":[41.46316,52.701966]}},{"type":"Feature","id":23,"properties":{"source":"bus_stop","name":"Комсомольская"},"geometry":{"type":"Point","coordinates":[41.458095,52.719103]}},{"type":"Feature","id":24,"properties":{"source":"bus_stop","name":"Комсомольская"},"geometry":{"type":"Point","coordinates":[41.446351,52.716646]}},{"type":"Feature","id":25,"properties":{"source":"bus_stop","name":"Автогородок"},"geometry":{"type":"Point","coordinates":[41.443866,52.75813]}},{"type":"Feature","id":26,"properties":{"source":"bus_stop","name":"Пирогова"},"geometry":{"type":"Point","coordinates":[41.446447,52.740662]}},{"type":"Feature","id":27,"properties":{"source":"bus_stop","name":"СПТУ-12"},"geometry":{"type":"Point","coordinates":[41.419864,52.711877]}},{"type":"Feature","id":28,"properties":{"source":"bus_stop","name":"Энтузиастов бул."},"geometry":{"type":"Point","coordinates":[41.422953,52.753883]}},{"type":"Feature","id":29,"properties":{"source":"bus_stop","name":"дк Знамя Труда"},"geometry":{"type":"Point","coordinates":[41.430378,52.718849]}},{"type":"Feature","id":30,"properties":{"source":"bus_stop","name":"м-р Северный"},"geometry":{"type":"Point","coordinates":[41.445497,52.654068]}},{"type":"Feature","id":31,"properties":{"source":"bus_stop","name":"Пензенская"},"geometry":{"type":"Point","coordinates":[41.448618,52.733798]}},{"type":"Feature","id":32,"properties":{"source":"bus_stop","name":"Парк Победы"},"geometry":{"type":"Point","coordinates":[41.413602,52.751896]}},{"type":"Feature","id":33,"properties":{"source":"bus_stop","name":"Сельсовет"},"geometry":{"type":"Point","coordinates":[41.432866,52.687657]}},{"type":"Feature","id":34,"properties":{"source":"bus_stop","name":"Чичерина"},"geometry":{"type":"Point","coordinates":[41.398954,52.766014]}},{"type":"Feature","id":35,"properties":{"source":"bus_stop","name":"58 Автобаза"},"geometry":{"type":"Point","coordinates":[41.387038,52.721297]}},{"type":"Feature","id":36,"properties":{"source":"bus_stop","name":"Гора"},"geometry":{"type":"Point","coordinates":[41.42542,52.684334]}},{"type":"Feature","id":37,"properties":{"source":"bus_stop","name":"ЗСМ"},"geometry":{"type":"Point","coordinates":[41.479276,52.735736]}},{"type":"Feature","id":38,"properties":{"source":"bus_stop","name":"Московская"},"geometry":{"type":"Point","coordinates":[41.453978,52.731241]}},{"type":"Feature","id":39,"properties":{"source":"bus_stop","name":"Остановка 1004"},"geometry":{"type":"Point","coordinates":[41.370503,52.77089]}},{"type":"Feature","id":40,"properties":{"source":"bus_stop","name":"Северная площадь"},"geometry":{"type":"Point","coordinates":[41.440771,52.736672]}},{"type":"Feature","id":41,"properties":{"source":"bus_stop","name":"Центральный рынок"},"geometry":{"type":"Point","coordinates":[41.44261,52.724876]}},{"type":"Feature","id":42,"properties":{"source":"bus_stop","name":"Заводская"},"geometry":{"type":"Point","coordinates":[41.462832,52.750759]}},{"type":"Feature","id":43,"properties":{"source":"bus_stop","name":"Пушкари 02"},"geometry":{"type":"Point","coordinates":[41.322641,52.736428]}},{"type":"Feature","id":44,"properties":{"source":"bus_stop","name":"Радужная"},"geometry":{"type":"Point","coordinates":[41.387901,52.780951]}},{"type":"Feature","id":45,"properties":{"source":"bus_stop","name":"ул. Елецкая"},"geometry":{"type":"Point","coordinates":[41.422322,52.719202]}},{"type":"Feature","id":46,"properties":{"source":"bus_stop","name":"Летный пер."},"geometry":{"type":"Point","coordinates":[41.403582,52.713631]}},{"type":"Feature","id":47,"properties":{"source":"bus_stop","name":"Троллейбусный парк"},"geometry":{"type":"Point","coordinates":[41.466077,52.743259]}},{"type":"Feature","id":48,"properties":{"source":"bus_stop","name":"База"},"geometry":{"type":"Point","coordinates":[41.390644,52.735741]}},{"type":"Feature","id":49,"properties":{"source":"bus_stop","name":"Пехотка"},"geometry":{"type":"Point","coordinates":[41.463664,52.680195]}},{"type":"Feature","id":50,"properties":{"source":"bus_stop","name":"Лермонтовская"},"geometry":{"type":"Point","coordinates":[41.457945,52.711138]}},{"type":"Feature","id":51,"properties":{"source":"bus_stop","name":"Остановка 0223"},"geometry":{"type":"Point","coordinates":[41.388157,52.771715]}},{"type":"Feature","id":52,"properties":{"source":"bus_stop","name":"Пост ГАИ"},"geometry":{"type":"Point","coordinates":[41.472117,52.723749]}},{"type":"Feature","id":53,"properties":{"source":"bus_stop","name":"Тамбоврыба"},"geometry":{"type":"Point","coordinates":[41.396458,52.734235]}},{"type":"Feature","id":54,"properties":{"source":"bus_stop","name":"Дом отдыха"},"geometry":{"type":"Point","coordinates":[41.512364,52.706342]}},{"type":"Feature","id":55,"properties":{"source":"bus_stop","name":"Комсомольская ул."},"geometry":{"type":"Point","coordinates":[41.45348,52.718382]}},{"type":"Feature","id":56,"properties":{"source":"bus_stop","name":"Остановка 0195"},"geometry":{"type":"Point","coordinates":[41.412283,52.743219]}},{"type":"Feature","id":57,"properties":{"source":"bus_stop","name":"Остановка 0181"},"geometry":{"type":"Point","coordinates":[41.404349,52.744477]}},{"type":"Feature","id":58,"properties":{"source":"bus_stop","name":"Библиотека им. А.С.Пушкина"},"geometry":{"type":"Point","coordinates":[41.450541,52.721211]}},{"type":"Feature","id":59,"properties":{"source":"bus_stop","name":"Строительная"},"geometry":{"type":"Point","coordinates":[41.503259,52.71809]}},{"type":"Feature","id":60,"properties":{"source":"bus_stop","name":"Южная"},"geometry":{"type":"Point","coordinates":[41.463815,52.69384]}},{"type":"Feature","id":61,"properties":{"source":"bus_stop","name":"Авторемонтный завод"},"geometry":{"type":"Point","coordinates":[41.424206,52.705802]}},{"type":"Feature","id":62,"properties":{"source":"bus_stop","name":"м-р Центральный"},"geometry":{"type":"Point","coordinates":[41.445083,52.651749]}},{"type":"Feature","id":63,"properties":{"source":"bus_stop","name":"Сельсовет"},"geometry":{"type":"Point","coordinates":[41.43276,52.687816]}},{"type":"Feature","id":64,"properties":{"source":"bus_stop","name":"Чичканова"},"geometry":{"type":"Point","coordinates":[41.447403,52.737892]}},{"type":"Feature","id":65,"properties":{"source":"bus_stop","name":"2-я Высотная"},"geometry":{"type":"Point","coordinates":[41.415864,52.75962]}},{"type":"Feature","id":66,"properties":{"source":"bus_stop","name":"Гостиница \"Восход\""},"geometry":{"type":"Point","coordinates":[41.42103,52.70021]}},{"type":"Feature","id":67,"properties":{"source":"bus_stop","name":"ул. Карбышева"},"geometry":{"type":"Point","coordinates":[41.462443,52.685178]}},{"type":"Feature","id":68,"properties":{"source":"bus_stop","name":"Островитянова ул."},"geometry":{"type":"Point","coordinates":[41.42325,52.697173]}},{"type":"Feature","id":69,"properties":{"source":"bus_stop","name":"Северная площадь"},"geometry":{"type":"Point","coordinates":[41.440922,52.73564]}},{"type":"Feature","id":70,"properties":{"source":"bus_stop","name":"Ц. рынок"},"geometry":{"type":"Point","coordinates":[41.449561,52.725682]}},{"type":"Feature","id":71,"properties":{"source":"bus_stop","name":"ул. Гагарина"},"geometry":{"type":"Point","coordinates":[41.41163,52.717255]}},{"type":"Feature","id":72,"properties":{"source":"bus_stop","name":"Завод ЖБИ"},"geometry":{"type":"Point","coordinates":[41.475054,52.742528]}},{"type":"Feature","id":73,"properties":{"source":"bus_stop","name":"Советская"},"geometry":{"type":"Point","coordinates":[41.456859,52.730812]}},{"type":"Feature","id":74,"properties":{"source":"bus_stop","name":"Остановка 0436"},"geometry":{"type":"Point","coordinates":[41.441386,52.724975]}},{"type":"Feature","id":75,"properties":{"source":"bus_stop","name":"Пушкари 03"},"geometry":{"type":"Point","coordinates":[41.323555,52.742016]}},{"type":"Feature","id":76,"properties":{"source":"bus_stop","name":"Универмаг"},"geometry":{"type":"Point","coordinates":[41.46504,52.678398]}},{"type":"Feature","id":77,"properties":{"source":"bus_stop","name":"Бригадная"},"geometry":{"type":"Point","coordinates":[41.435619,52.709472]}},{"type":"Feature","id":78,"properties":{"source":"bus_stop","name":"ул. Елецкая"},"geometry":{"type":"Point","coordinates":[41.421871,52.718879]}},{"type":"Feature","id":79,"properties":{"source":"bus_stop","name":"Магазин"},"geometry":{"type":"Point","coordinates":[41.397716,52.714032]}},{"type":"Feature","id":80,"properties":{"source":"bus_stop","name":"Троллейбусный парк"},"geometry":{"type":"Point","coordinates":[41.466515,52.743638]}},{"type":"Feature","id":81,"properties":{"source":"bus_stop","name":"Бастионная"},"geometry":{"type":"Point","coordinates":[41.401737,52.732745]}},{"type":"Feature","id":82,"properties":{"source":"bus_stop","name":"ДСУ-2"},"geometry":{"type":"Point","coordinates":[41.447831,52.658586]}},{"type":"Feature","id":83,"properties":{"source":"bus_stop","name":"Куйбышева"},"geometry":{"type":"Point","coordinates":[41.449451,52.730686]}},{"type":"Feature","id":84,"properties":{"source":"bus_stop","name":"Остановка 0225"},"geometry":{"type":"Point","coordinates":[41.370341,52.77092]}},{"type":"Feature","id":85,"properties":{"source":"bus_stop","name":"Полынковское кладбище"},"geometry":{"type":"Point","coordinates":[41.366759,52.751628]}},{"type":"Feature","id":86,"properties":{"source":"bus_stop","name":"Тамбоврыба"},"geometry":{"type":"Point","coordinates":[41.396998,52.733947]}},{"type":"Feature","id":87,"properties":{"source":"bus_stop","name":"Астраханская"},"geometry":{"type":"Point","coordinates":[41.465783,52.703285]}},{"type":"Feature","id":88,"properties":{"source":"bus_stop","name":"Дом печати"},"geometry":{"type":"Point","coordinates":[41.457812,52.747299]}},{"type":"Feature","id":89,"properties":{"source":"bus_stop","name":"Кронштадтская"},"geometry":{"type":"Point","coordinates":[41.447521,52.712535]}},{"type":"Feature","id":90,"properties":{"source":"bus_stop","name":"Остановка 0196"},"geometry":{"type":"Point","coordinates":[41.40298,52.748796]}},{"type":"Feature","id":91,"properties":{"source":"bus_stop","name":"Обл Больница"},"geometry":{"type":"Point","coordinates":[41.467877,52.731941]}},{"type":"Feature","id":92,"properties":{"source":"bus_stop","name":"Поволжская Академия"},"geometry":{"type":"Point","coordinates":[41.387282,52.736273]}},{"type":"Feature","id":93,"properties":{"source":"bus_stop","name":"Студенецкая набережная"},"geometry":{"type":"Point","coordinates":[41.443103,52.728957]}},{"type":"Feature","id":94,"properties":{"source":"bus_stop","name":"Энгельса"},"geometry":{"type":"Point","coordinates":[41.461821,52.707955]}},{"type":"Feature","id":95,"properties":{"source":"bus_stop","name":"завод Аппарат"},"geometry":{"type":"Point","coordinates":[41.435871,52.758281]}},{"type":"Feature","id":96,"properties":{"source":"bus_stop","name":"Авторемонтный завод"},"geometry":{"type":"Point","coordinates":[41.424351,52.705434]}},{"type":"Feature","id":97,"properties":{"source":"bus_stop","name":"Шатрова"},"geometry":{"type":"Point","coordinates":[41.390682,52.772257]}},{"type":"Feature","id":98,"properties":{"source":"bus_stop","name":"Мясокомбинат"},"geometry":{"type":"Point","coordinates":[41.462903,52.741398]}},{"type":"Feature","id":99,"properties":{"source":"bus_stop","name":"Пензенская"},"geometry":{"type":"Point","coordinates":[41.441904,52.733048]}},{"type":"Feature","id":100,"properties":{"source":"bus_stop","name":"Скворечная"},"geometry":{"type":"Point","coordinates":[41.491775,52.720643]}},{"type":"Feature","id":101,"properties":{"source":"bus_stop","name":"Школа №24"},"geometry":{"type":"Point","coordinates":[41.432699,52.740833]}},{"type":"Feature","id":102,"properties":{"source":"bus_stop","name":"4-ая Поликлиника"},"geometry":{"type":"Point","coordinates":[41.41246,52.715213]}},{"type":"Feature","id":103,"properties":{"source":"bus_stop","name":"Лысогорская"},"geometry":{"type":"Point","coordinates":[41.422152,52.746306]}},{"type":"Feature","id":104,"properties":{"source":"bus_stop","name":"ул. Киквидзе"},"geometry":{"type":"Point","coordinates":[41.404904,52.719753]}},{"type":"Feature","id":105,"properties":{"source":"bus_stop","name":"Моршанское шоссе"},"geometry":{"type":"Point","coordinates":[41.454844,52.745401]}},{"type":"Feature","id":106,"properties":{"source":"bus_stop","name":"Островского ул."},"geometry":{"type":"Point","coordinates":[41.393474,52.716676]}},{"type":"Feature","id":107,"properties":{"source":"bus_stop","name":"Рылеева"},"geometry":{"type":"Point","coordinates":[41.41781,52.767082]}},{"type":"Feature","id":108,"properties":{"source":"bus_stop","name":"1-я Высотная"},"geometry":{"type":"Point","coordinates":[41.419702,52.756478]}},{"type":"Feature","id":109,"properties":{"source":"bus_stop","name":"Воронежская"},"geometry":{"type":"Point","coordinates":[41.400593,52.698644]}},{"type":"Feature","id":110,"properties":{"source":"bus_stop","name":"Завод ЖБИ"},"geometry":{"type":"Point","coordinates":[41.473161,52.742933]}},{"type":"Feature","id":111,"properties":{"source":"bus_stop","name":"Майская"},"geometry":{"type":"Point","coordinates":[41.402477,52.729548]}},{"type":"Feature","id":112,"properties":{"source":"bus_stop","name":"Парк культуры"},"geometry":{"type":"Point","coordinates":[41.455718,52.725376]}},{"type":"Feature","id":113,"properties":{"source":"bus_stop","name":"ул. Буденного"},"geometry":{"type":"Point","coordinates":[41.422802,52.714186]}},{"type":"Feature","id":114,"properties":{"source":"bus_stop","name":"Железнодорожный техникум"},"geometry":{"type":"Point","coordinates":[41.416744,52.718006]}},{"type":"Feature","id":115,"properties":{"source":"bus_stop","name":"Магистральная"},"geometry":{"type":"Point","coordinates":[41.403261,52.760003]}},{"type":"Feature","id":116,"properties":{"source":"bus_stop","name":"Белый Бак"},"geometry":{"type":"Point","coordinates":[41.418127,52.709634]}},{"type":"Feature","id":117,"properties":{"source":"bus_stop","name":"Совхозная улица"},"geometry":{"type":"Point","coordinates":[41.476529,52.760603]}},{"type":"Feature","id":118,"properties":{"source":"bus_stop","name":"Кольцевая"},"geometry":{"type":"Point","coordinates":[41.415343,52.76688]}},{"type":"Feature","id":119,"properties":{"source":"bus_stop","name":"Технический университет"},"geometry":{"type":"Point","coordinates":[41.417971,52.748778]}},{"type":"Feature","id":120,"properties":{"source":"bus_stop","name":"Астраханская"},"geometry":{"type":"Point","coordinates":[41.462648,52.702216]}},{"type":"Feature","id":121,"properties":{"source":"bus_stop","name":"Кронштадтская"},"geometry":{"type":"Point","coordinates":[41.447805,52.712221]}},{"type":"Feature","id":122,"properties":{"source":"bus_stop","name":"Автогородок"},"geometry":{"type":"Point","coordinates":[41.442976,52.7583]}},{"type":"Feature","id":123,"properties":{"source":"bus_stop","name":"Поволжская Академия"},"geometry":{"type":"Point","coordinates":[41.387643,52.735882]}},{"type":"Feature","id":124,"properties":{"source":"bus_stop","name":"Стрельцы"},"geometry":{"type":"Point","coordinates":[41.321338,52.729345]}},{"type":"Feature","id":125,"properties":{"source":"bus_stop","name":"Энгельса"},"geometry":{"type":"Point","coordinates":[41.461635,52.707961]}},{"type":"Feature","id":126,"properties":{"source":"bus_stop","name":"завод Аппарат"},"geometry":{"type":"Point","coordinates":[41.437008,52.758118]}},{"type":"Feature","id":127,"properties":{"source":"bus_stop","name":"Западный"},"geometry":{"type":"Point","coordinates":[41.382314,52.722049]}},{"type":"Feature","id":128,"properties":{"source":"bus_stop","name":"дк Знамя Труда"},"geometry":{"type":"Point","coordinates":[41.430686,52.719119]}},{"type":"Feature","id":129,"properties":{"source":"bus_stop","name":"Колхозная"},"geometry":{"type":"Point","coordinates":[41.435493,52.746844]}},{"type":"Feature","id":130,"properties":{"source":"bus_stop","name":"ул. Нагорная"},"geometry":{"type":"Point","coordinates":[41.397836,52.720362]}},{"type":"Feature","id":131,"properties":{"source":"bus_stop","name":"Пензенская"},"geometry":{"type":"Point","coordinates":[41.441924,52.732013]}},{"type":"Feature","id":132,"properties":{"source":"bus_stop","name":"Социалистическая"},"geometry":{"type":"Point","coordinates":[41.427754,52.754564]}},{"type":"Feature","id":133,"properties":{"source":"bus_stop","name":"Скворечная"},"geometry":{"type":"Point","coordinates":[41.491103,52.72102]}},{"type":"Feature","id":134,"properties":{"source":"bus_stop","name":"Чичканова"},"geometry":{"type":"Point","coordinates":[41.453525,52.737828]}},{"type":"Feature","id":135,"properties":{"source":"bus_stop","name":"А. Бебеля"},"geometry":{"type":"Point","coordinates":[41.451975,52.705158]}},{"type":"Feature","id":136,"properties":{"source":"bus_stop","name":"Делегатская"},"geometry":{"type":"Point","coordinates":[41.403614,52.724139]}},{"type":"Feature","id":137,"properties":{"source":"bus_stop","name":"К. Маркса"},"geometry":{"type":"Point","coordinates":[41.44843,52.73728]}},{"type":"Feature","id":138,"properties":{"source":"bus_stop","name":"Моршанское шоссе"},"geometry":{"type":"Point","coordinates":[41.45313,52.744632]}},{"type":"Feature","id":139,"properties":{"source":"bus_stop","name":"Остановка 1010"},"geometry":{"type":"Point","coordinates":[41.402478,52.699747]}},{"type":"Feature","id":140,"properties":{"source":"bus_stop","name":"Рылеева"},"geometry":{"type":"Point","coordinates":[41.417513,52.766642]}},{"type":"Feature","id":141,"properties":{"source":"bus_stop","name":"Цна"},"geometry":{"type":"Point","coordinates":[41.484066,52.721965]}},{"type":"Feature","id":142,"properties":{"source":"bus_stop","name":"Пенсионный фонд"},"geometry":{"type":"Point","coordinates":[41.44459,52.720589]}},{"type":"Feature","id":143,"properties":{"source":"bus_stop","name":"з-д Пигмент"},"geometry":{"type":"Point","coordinates":[41.482242,52.742929]}},{"type":"Feature","id":144,"properties":{"source":"bus_stop","name":"Мебельная ф-ка"},"geometry":{"type":"Point","coordinates":[41.468938,52.754313]}},{"type":"Feature","id":145,"properties":{"source":"bus_stop","name":"Остановка 1001"},"geometry":{"type":"Point","coordinates":[41.404433,52.744645]}},{"type":"Feature","id":146,"properties":{"source":"bus_stop","name":"Районная"},"geometry":{"type":"Point","coordinates":[41.39685,52.709204]}},{"type":"Feature","id":147,"properties":{"source":"bus_stop","name":"ТЭЦ"},"geometry":{"type":"Point","coordinates":[41.472119,52.756389]}},{"type":"Feature","id":148,"properties":{"source":"bus_stop","name":"Железнодорожный вокзал"},"geometry":{"type":"Point","coordinates":[41.428597,52.718452]}},{"type":"Feature","id":149,"properties":{"source":"bus_stop","name":"Магазин"},"geometry":{"type":"Point","coordinates":[41.417083,52.708828]}},{"type":"Feature","id":150,"properties":{"source":"bus_stop","name":"Остановка 0419"},"geometry":{"type":"Point","coordinates":[41.43953,52.636681]}},{"type":"Feature","id":151,"properties":{"source":"bus_stop","name":"Трикотажная фабрика"},"geometry":{"type":"Point","coordinates":[41.429932,52.755782]}},{"type":"Feature","id":152,"properties":{"source":"bus_stop","name":"Базарная"},"geometry":{"type":"Point","coordinates":[41.445346,52.720026]}},{"type":"Feature","id":153,"properties":{"source":"bus_stop","name":"Совхозная улица"},"geometry":{"type":"Point","coordinates":[41.476301,52.760847]}},{"type":"Feature","id":154,"properties":{"source":"bus_stop","name":"Лермонтовская ул."},"geometry":{"type":"Point","coordinates":[41.433181,52.700316]}},{"type":"Feature","id":155,"properties":{"source":"bus_stop","name":"пр. Достоевского"},"geometry":{"type":"Point","coordinates":[41.387795,52.718833]}},{"type":"Feature","id":156,"properties":{"source":"bus_stop","name":"Технический университет"},"geometry":{"type":"Point","coordinates":[41.418211,52.750115]}},{"type":"Feature","id":157,"properties":{"source":"bus_stop","name":"Аэрологическая ул."},"geometry":{"type":"Point","coordinates":[41.428546,52.699156]}},{"type":"Feature","id":158,"properties":{"source":"bus_stop","name":"Дорожная улица"},"geometry":{"type":"Point","coordinates":[41.433921,52.69527]}},{"type":"Feature","id":159,"properties":{"source":"bus_stop","name":"Кронштадтская"},"geometry":{"type":"Point","coordinates":[41.455865,52.714368]}},{"type":"Feature","id":160,"properties":{"source":"bus_stop","name":"Остановка 0187"},"geometry":{"type":"Point","coordinates":[41.430276,52.716548]}},{"type":"Feature","id":161,"properties":{"source":"bus_stop","name":"Отделение почтовой связи №13"},"geometry":{"type":"Point","coordinates":[41.414788,52.768982]}},{"type":"Feature","id":162,"properties":{"source":"bus_stop","name":"Строительная"},"geometry":{"type":"Point","coordinates":[41.504087,52.717314]}},{"type":"Feature","id":163,"properties":{"source":"bus_stop","name":"АЗС"},"geometry":{"type":"Point","coordinates":[41.378886,52.738332]}},{"type":"Feature","id":164,"properties":{"source":"bus_stop","name":"ул. Добролюбова"},"geometry":{"type":"Point","coordinates":[41.412415,52.706067]}},{"type":"Feature","id":165,"properties":{"source":"bus_stop","name":"Колхозная"},"geometry":{"type":"Point","coordinates":[41.435868,52.74654]}},{"type":"Feature","id":166,"properties":{"source":"bus_stop","name":"м-р Южный"},"geometry":{"type":"Point","coordinates":[41.441401,52.643603]}},{"type":"Feature","id":167,"properties":{"source":"bus_stop","name":"Пионерская"},"geometry":{"type":"Point","coordinates":[41.470243,52.70273]}},{"type":"Feature","id":168,"properties":{"source":"bus_stop","name":"Спортивная"},"geometry":{"type":"Point","coordinates":[41.495964,52.720001]}},{"type":"Feature","id":169,"properties":{"source":"bus_stop","name":"Серова"},"geometry":{"type":"Point","coordinates":[41.40697,52.702626]}},{"type":"Feature","id":170,"properties":{"source":"bus_stop","name":"Чичканова"},"geometry":{"type":"Point","coordinates":[41.447928,52.736531]}},{"type":"Feature","id":171,"properties":{"source":"bus_stop","name":"А. Бебеля"},"geometry":{"type":"Point","coordinates":[41.450965,52.705678]}},{"type":"Feature","id":172,"properties":{"source":"bus_stop","name":"д. Красненькая"},"geometry":{"type":"Point","coordinates":[41.472676,52.76204]}},{"type":"Feature","id":173,"properties":{"source":"bus_stop","name":"К. Маркса"},"geometry":{"type":"Point","coordinates":[41.411034,52.764804]}},{"type":"Feature","id":174,"properties":{"source":"bus_stop","name":"Мост"},"geometry":{"type":"Point","coordinates":[41.476111,52.723405]}},{"type":"Feature","id":175,"properties":{"source":"bus_stop","name":"Остановка 1100"},"geometry":{"type":"Point","coordinates":[41.334386,52.812737]}},{"type":"Feature","id":176,"properties":{"source":"bus_stop","name":"Северный гастроном"},"geometry":{"type":"Point","coordinates":[41.442239,52.743393]}},{"type":"Feature","id":177,"properties":{"source":"bus_stop","name":"Цна"},"geometry":{"type":"Point","coordinates":[41.4836,52.722303]}},{"type":"Feature","id":178,"properties":{"source":"bus_stop","name":"Глазная больница"},"geometry":{"type":"Point","coordinates":[41.42065,52.76417]}},{"type":"Feature","id":179,"properties":{"source":"bus_stop","name":"ЗСМ (Глобус)"},"geometry":{"type":"Point","coordinates":[41.369376,52.740617]}},{"type":"Feature","id":180,"properties":{"source":"bus_stop","name":"Остановка 1002"},"geometry":{"type":"Point","coordinates":[41.431911,52.712912]}},{"type":"Feature","id":181,"properties":{"source":"bus_stop","name":"Пушкари 06"},"geometry":{"type":"Point","coordinates":[41.329955,52.739385]}},{"type":"Feature","id":182,"properties":{"source":"bus_stop","name":"ТЭЦ"},"geometry":{"type":"Point","coordinates":[41.47108,52.75594]}},{"type":"Feature","id":183,"properties":{"source":"bus_stop","name":"Железнодорожный вокзал"},"geometry":{"type":"Point","coordinates":[41.428321,52.71902]}},{"type":"Feature","id":184,"properties":{"source":"bus_stop","name":"Магазин"},"geometry":{"type":"Point","coordinates":[41.398022,52.71402]}},{"type":"Feature","id":185,"properties":{"source":"bus_stop","name":"Остановка 0420"},"geometry":{"type":"Point","coordinates":[41.443212,52.627718]}},{"type":"Feature","id":186,"properties":{"source":"bus_stop","name":"Протезное пр-е"},"geometry":{"type":"Point","coordinates":[41.473076,52.73376]}},{"type":"Feature","id":187,"properties":{"source":"bus_stop","name":"Бастионная"},"geometry":{"type":"Point","coordinates":[41.402098,52.732503]}},{"type":"Feature","id":188,"properties":{"source":"bus_stop","name":"Дубрава"},"geometry":{"type":"Point","coordinates":[41.41922,52.67889]}},{"type":"Feature","id":189,"properties":{"source":"bus_stop","name":"Лермонтовская ул."},"geometry":{"type":"Point","coordinates":[41.433225,52.698622]}},{"type":"Feature","id":190,"properties":{"source":"bus_stop","name":"Остановка 0242"},"geometry":{"type":"Point","coordinates":[41.373383,52.78318]}},{"type":"Feature","id":191,"properties":{"source":"bus_stop","name":"Пригородный лес"},"geometry":{"type":"Point","coordinates":[41.509039,52.714835]}},{"type":"Feature","id":192,"properties":{"source":"bus_stop","name":"Телецентр"},"geometry":{"type":"Point","coordinates":[41.4237,52.745272]}},{"type":"Feature","id":193,"properties":{"source":"bus_stop","name":"Кронштадтская"},"geometry":{"type":"Point","coordinates":[41.456208,52.713608]}},{"type":"Feature","id":194,"properties":{"source":"bus_stop","name":"Микрорайон Московский"},"geometry":{"type":"Point","coordinates":[41.400803,52.76201]}},{"type":"Feature","id":195,"properties":{"source":"bus_stop","name":"Умка"},"geometry":{"type":"Point","coordinates":[41.412355,52.766242]}},{"type":"Feature","id":196,"properties":{"source":"bus_stop","name":"АЗС"},"geometry":{"type":"Point","coordinates":[41.379614,52.737853]}},{"type":"Feature","id":197,"properties":{"source":"bus_stop","name":"Дом ветеранов"},"geometry":{"type":"Point","coordinates":[41.519308,52.704086]}},{"type":"Feature","id":198,"properties":{"source":"bus_stop","name":"Докучаева"},"geometry":{"type":"Point","coordinates":[41.463199,52.697088]}},{"type":"Feature","id":199,"properties":{"source":"bus_stop","name":"Мясокомбинат"},"geometry":{"type":"Point","coordinates":[41.463366,52.741545]}},{"type":"Feature","id":200,"properties":{"source":"bus_stop","name":"Пирогова"},"geometry":{"type":"Point","coordinates":[41.446908,52.739938]}},{"type":"Feature","id":201,"properties":{"source":"bus_stop","name":"Советская"},"geometry":{"type":"Point","coordinates":[41.457373,52.731037]}},{"type":"Feature","id":202,"properties":{"source":"bus_stop","name":"Серова"},"geometry":{"type":"Point","coordinates":[41.407013,52.702469]}},{"type":"Feature","id":203,"properties":{"source":"bus_stop","name":"Школа №31"},"geometry":{"type":"Point","coordinates":[41.426049,52.759801]}},{"type":"Feature","id":204,"properties":{"source":"bus_stop","name":"9-й км"},"geometry":{"type":"Point","coordinates":[41.442988,52.646834]}},{"type":"Feature","id":205,"properties":{"source":"bus_stop","name":"д. Красненькая"},"geometry":{"type":"Point","coordinates":[41.472894,52.762251]}},{"type":"Feature","id":206,"properties":{"source":"bus_stop","name":"Клуб"},"geometry":{"type":"Point","coordinates":[41.435786,52.691879]}},{"type":"Feature","id":207,"properties":{"source":"bus_stop","name":"м-р Северный"},"geometry":{"type":"Point","coordinates":[41.446516,52.655232]}},{"type":"Feature","id":208,"properties":{"source":"bus_stop","name":"Пионерлагерь Орленок"},"geometry":{"type":"Point","coordinates":[41.51047,52.71078]}},{"type":"Feature","id":209,"properties":{"source":"bus_stop","name":"Центральный рынок"},"geometry":{"type":"Point","coordinates":[41.447313,52.723156]}},{"type":"Feature","id":210,"properties":{"source":"bus_stop","name":"Школа №25"},"geometry":{"type":"Point","coordinates":[41.371419,52.744744]}},{"type":"Feature","id":211,"properties":{"source":"bus_stop","name":"Гора"},"geometry":{"type":"Point","coordinates":[41.424884,52.683749]}},{"type":"Feature","id":212,"properties":{"source":"bus_stop","name":"завод Октябрь"},"geometry":{"type":"Point","coordinates":[41.382603,52.737427]}},{"type":"Feature","id":213,"properties":{"source":"bus_stop","name":"Майская"},"geometry":{"type":"Point","coordinates":[41.402528,52.730091]}},{"type":"Feature","id":214,"properties":{"source":"bus_stop","name":"Остановка 0493"},"geometry":{"type":"Point","coordinates":[41.464142,52.690252]}},{"type":"Feature","id":215,"properties":{"source":"bus_stop","name":"Храм"},"geometry":{"type":"Point","coordinates":[41.369167,52.750941]}},{"type":"Feature","id":216,"properties":{"source":"bus_stop","name":"Железнодорожный техникум"},"geometry":{"type":"Point","coordinates":[41.416289,52.718177]}},{"type":"Feature","id":217,"properties":{"source":"bus_stop","name":"Магнит"},"geometry":{"type":"Point","coordinates":[41.397765,52.70744]}},{"type":"Feature","id":218,"properties":{"source":"bus_stop","name":"Марианна"},"geometry":{"type":"Point","coordinates":[41.44237,52.630623]}},{"type":"Feature","id":219,"properties":{"source":"bus_stop","name":"Протезное пр-е"},"geometry":{"type":"Point","coordinates":[41.473855,52.734153]}},{"type":"Feature","id":220,"properties":{"source":"bus_stop","name":"Бабарыкина"},"geometry":{"type":"Point","coordinates":[41.381561,52.763696]}},{"type":"Feature","id":221,"properties":{"source":"bus_stop","name":"Дубрава"},"geometry":{"type":"Point","coordinates":[41.419023,52.678997]}},{"type":"Feature","id":222,"properties":{"source":"bus_stop","name":"Лермонтовская"},"geometry":{"type":"Point","coordinates":[41.448993,52.708345]}},{"type":"Feature","id":223,"properties":{"source":"bus_stop","name":"Остановка 0243"},"geometry":{"type":"Point","coordinates":[41.334998,52.812565]}},{"type":"Feature","id":224,"properties":{"source":"bus_stop","name":"Пост ГАИ"},"geometry":{"type":"Point","coordinates":[41.471261,52.724117]}},{"type":"Feature","id":225,"properties":{"source":"bus_stop","name":"Технический университет"},"geometry":{"type":"Point","coordinates":[41.417926,52.749124]}},{"type":"Feature","id":226,"properties":{"source":"bus_stop","name":"дом-музей Чичерина"},"geometry":{"type":"Point","coordinates":[41.46021,52.715623]}},{"type":"Feature","id":227,"properties":{"source":"bus_stop","name":"Остановка 0222"},"geometry":{"type":"Point","coordinates":[41.378648,52.76231]}},{"type":"Feature","id":228,"properties":{"source":"bus_stop","name":"Пожарное депо"},"geometry":{"type":"Point","coordinates":[41.478306,52.740893]}},{"type":"Feature","id":229,"properties":{"source":"bus_stop","name":"Т/д Яна"},"geometry":{"type":"Point","coordinates":[41.407146,52.763847]}},{"type":"Feature","id":230,"properties":{"source":"bus_stop","name":"Южная"},"geometry":{"type":"Point","coordinates":[41.463653,52.693553]}},{"type":"Feature","id":231,"properties":{"source":"bus_stop","name":"Арженка"},"geometry":{"type":"Point","coordinates":[41.428828,52.757615]}},{"type":"Feature","id":232,"properties":{"source":"bus_stop","name":"Дом отдыха"},"geometry":{"type":"Point","coordinates":[41.512249,52.706559]}},{"type":"Feature","id":233,"properties":{"source":"bus_stop","name":"Колхозная"},"geometry":{"type":"Point","coordinates":[41.429244,52.742376]}},{"type":"Feature","id":234,"properties":{"source":"bus_stop","name":"ул. Новолипецкая"},"geometry":{"type":"Point","coordinates":[41.416102,52.711166]}},{"type":"Feature","id":235,"properties":{"source":"bus_stop","name":"Советская Ч"},"geometry":{"type":"Point","coordinates":[41.45121,52.737669]}},{"type":"Feature","id":236,"properties":{"source":"bus_stop","name":"Энгельса"},"geometry":{"type":"Point","coordinates":[41.457699,52.703827]}},{"type":"Feature","id":237,"properties":{"source":"bus_stop","name":"Северо-западная"},"geometry":{"type":"Point","coordinates":[41.407582,52.770046]}},{"type":"Feature","id":238,"properties":{"source":"bus_stop","name":"Детская больница"},"geometry":{"type":"Point","coordinates":[41.423269,52.762048]}},{"type":"Feature","id":239,"properties":{"source":"bus_stop","name":"Клуб"},"geometry":{"type":"Point","coordinates":[41.434953,52.692487]}},{"type":"Feature","id":240,"properties":{"source":"bus_stop","name":"Московская"},"geometry":{"type":"Point","coordinates":[41.455792,52.730708]}},{"type":"Feature","id":241,"properties":{"source":"bus_stop","name":"Пионерлагерь Орленок"},"geometry":{"type":"Point","coordinates":[41.510737,52.710701]}},{"type":"Feature","id":242,"properties":{"source":"bus_stop","name":"Северная площадь"},"geometry":{"type":"Point","coordinates":[41.442752,52.736684]}},{"type":"Feature","id":243,"properties":{"source":"bus_stop","name":"Ц. рынок Т"},"geometry":{"type":"Point","coordinates":[41.440573,52.724835]}},{"type":"Feature","id":244,"properties":{"source":"bus_stop","name":"Школа №25"},"geometry":{"type":"Point","coordinates":[41.370898,52.744547]}},{"type":"Feature","id":245,"properties":{"source":"bus_stop","name":"ул. Гагарина"},"geometry":{"type":"Point","coordinates":[41.412017,52.717026]}},{"type":"Feature","id":246,"properties":{"source":"bus_stop","name":"завод Октябрь"},"geometry":{"type":"Point","coordinates":[41.383636,52.736945]}},{"type":"Feature","id":247,"properties":{"source":"bus_stop","name":"м-н Лада"},"geometry":{"type":"Point","coordinates":[41.389775,52.715839]}},{"type":"Feature","id":248,"properties":{"source":"bus_stop","name":"Остановка 1000"},"geometry":{"type":"Point","coordinates":[41.402826,52.748735]}},{"type":"Feature","id":249,"properties":{"source":"bus_stop","name":"ул. Рубежная"},"geometry":{"type":"Point","coordinates":[41.428482,52.703157]}},{"type":"Feature","id":250,"properties":{"source":"bus_stop","name":"Храм"},"geometry":{"type":"Point","coordinates":[41.369464,52.750648]}},{"type":"Feature","id":251,"properties":{"source":"bus_stop","name":"Володарского"},"geometry":{"type":"Point","coordinates":[41.459817,52.730807]}},{"type":"Feature","id":252,"properties":{"source":"bus_stop","name":"Остановка 0427"},"geometry":{"type":"Point","coordinates":[41.439756,52.637029]}},{"type":"Feature","id":253,"properties":{"source":"bus_stop","name":"Пролетарская"},"geometry":{"type":"Point","coordinates":[41.43344,52.723982]}},{"type":"Feature","id":254,"properties":{"source":"bus_stop","name":"Больница"},"geometry":{"type":"Point","coordinates":[41.361613,52.768016]}},{"type":"Feature","id":255,"properties":{"source":"bus_stop","name":"ДСУ-2"},"geometry":{"type":"Point","coordinates":[41.447571,52.659352]}},{"type":"Feature","id":256,"properties":{"source":"bus_stop","name":"Лермонтовская"},"geometry":{"type":"Point","coordinates":[41.448596,52.708786]}},{"type":"Feature","id":257,"properties":{"source":"bus_stop","name":"пр. Достоевского"},"geometry":{"type":"Point","coordinates":[41.387995,52.719173]}},{"type":"Feature","id":258,"properties":{"source":"bus_stop","name":"Ателье Молодежное"},"geometry":{"type":"Point","coordinates":[41.436522,52.738801]}},{"type":"Feature","id":259,"properties":{"source":"bus_stop","name":"Куйбышева"},"geometry":{"type":"Point","coordinates":[41.449499,52.731353]}},{"type":"Feature","id":260,"properties":{"source":"bus_stop","name":"Остановка 0197"},"geometry":{"type":"Point","coordinates":[41.401868,52.754347]}},{"type":"Feature","id":261,"properties":{"source":"bus_stop","name":"Студенецкая набережная"},"geometry":{"type":"Point","coordinates":[41.443442,52.728623]}},{"type":"Feature","id":262,"properties":{"source":"bus_stop","name":"Западный"},"geometry":{"type":"Point","coordinates":[41.381206,52.721951]}},{"type":"Feature","id":263,"properties":{"source":"bus_stop","name":"Астраханская"},"geometry":{"type":"Point","coordinates":[41.466011,52.703331]}},{"type":"Feature","id":264,"properties":{"source":"bus_stop","name":"Докучаева"},"geometry":{"type":"Point","coordinates":[41.463026,52.696616]}},{"type":"Feature","id":265,"properties":{"source":"bus_stop","name":"ул. Добролюбова"},"geometry":{"type":"Point","coordinates":[41.41237,52.70632]}},{"type":"Feature","id":266,"properties":{"source":"bus_stop","name":"Комсомольская площадь"},"geometry":{"type":"Point","coordinates":[41.450917,52.742223]}},{"type":"Feature","id":267,"properties":{"source":"bus_stop","name":"Обл Больница"},"geometry":{"type":"Point","coordinates":[41.468456,52.732049]}},{"type":"Feature","id":268,"properties":{"source":"bus_stop","name":"Перикса"},"geometry":{"type":"Point","coordinates":[41.488398,52.681896]}},{"type":"Feature","id":269,"properties":{"source":"bus_stop","name":"СПТУ-12"},"geometry":{"type":"Point","coordinates":[41.41989,52.712443]}},{"type":"Feature","id":270,"properties":{"source":"bus_stop","name":"Энгельса"},"geometry":{"type":"Point","coordinates":[41.45555,52.703772]}},{"type":"Feature","id":271,"properties":{"source":"bus_stop","name":"Школа №24"},"geometry":{"type":"Point","coordinates":[41.432059,52.74091]}},{"type":"Feature","id":272,"properties":{"source":"bus_stop","name":"ул. Киквидзе"},"geometry":{"type":"Point","coordinates":[41.404582,52.719743]}},{"type":"Feature","id":273,"properties":{"source":"bus_stop","name":"Мост"},"geometry":{"type":"Point","coordinates":[41.478391,52.722831]}},{"type":"Feature","id":274,"properties":{"source":"bus_stop","name":"Островского ул."},"geometry":{"type":"Point","coordinates":[41.393344,52.716368]}},{"type":"Feature","id":275,"properties":{"source":"bus_stop","name":"Северный гастроном"},"geometry":{"type":"Point","coordinates":[41.441147,52.744062]}},{"type":"Feature","id":276,"properties":{"source":"bus_stop","name":"Глазная больница"},"geometry":{"type":"Point","coordinates":[41.420299,52.765423]}},{"type":"Feature","id":277,"properties":{"source":"bus_stop","name":"ЗСМ"},"geometry":{"type":"Point","coordinates":[41.47933,52.736018]}},{"type":"Feature","id":278,"properties":{"source":"bus_stop","name":"м-н Лада"},"geometry":{"type":"Point","coordinates":[41.390743,52.715623]}},{"type":"Feature","id":279,"properties":{"source":"bus_stop","name":"Остановка 1005"},"geometry":{"type":"Point","coordinates":[41.384671,52.773978]}},{"type":"Feature","id":280,"properties":{"source":"bus_stop","name":"ул. Рубежная"},"geometry":{"type":"Point","coordinates":[41.427253,52.703676]}},{"type":"Feature","id":281,"properties":{"source":"bus_stop","name":"Хлебозавод"},"geometry":{"type":"Point","coordinates":[41.457478,52.738235]}},{"type":"Feature","id":282,"properties":{"source":"bus_stop","name":"Володарского"},"geometry":{"type":"Point","coordinates":[41.459526,52.731068]}},{"type":"Feature","id":283,"properties":{"source":"bus_stop","name":"Магистральная"},"geometry":{"type":"Point","coordinates":[41.403877,52.759188]}},{"type":"Feature","id":284,"properties":{"source":"bus_stop","name":"Пролетарская"},"geometry":{"type":"Point","coordinates":[41.434968,52.724206]}},{"type":"Feature","id":285,"properties":{"source":"bus_stop","name":"Белый Бак"},"geometry":{"type":"Point","coordinates":[41.419115,52.708735]}},{"type":"Feature","id":286,"properties":{"source":"bus_stop","name":"Дубки"},"geometry":{"type":"Point","coordinates":[41.273564,52.735815]}},{"type":"Feature","id":287,"properties":{"source":"bus_stop","name":"Лысогорская"},"geometry":{"type":"Point","coordinates":[41.428169,52.750524]}},{"type":"Feature","id":288,"properties":{"source":"bus_stop","name":"Пролетарская"},"geometry":{"type":"Point","coordinates":[41.437113,52.71972]}},{"type":"Feature","id":289,"properties":{"source":"bus_stop","name":"База"},"geometry":{"type":"Point","coordinates":[41.391054,52.735164]}},{"type":"Feature","id":290,"properties":{"source":"bus_stop","name":"Кинотеатр \"Мир\""},"geometry":{"type":"Point","coordinates":[41.407951,52.716553]}},{"type":"Feature","id":291,"properties":{"source":"bus_stop","name":"Подгорная"},"geometry":{"type":"Point","coordinates":[41.430246,52.749361]}},{"type":"Feature","id":292,"properties":{"source":"bus_stop","name":"Супермаркет Улей"},"geometry":{"type":"Point","coordinates":[41.431918,52.756473]}},{"type":"Feature","id":293,"properties":{"source":"bus_stop","name":"Дом ветеранов"},"geometry":{"type":"Point","coordinates":[41.446805,52.737221]}},{"type":"Feature","id":294,"properties":{"source":"bus_stop","name":"Комсомольская"},"geometry":{"type":"Point","coordinates":[41.458969,52.717205]}},{"type":"Feature","id":295,"properties":{"source":"bus_stop","name":"Комсомольская площадь"},"geometry":{"type":"Point","coordinates":[41.450629,52.741839]}},{"type":"Feature","id":296,"properties":{"source":"bus_stop","name":"Нефтебаза"},"geometry":{"type":"Point","coordinates":[41.46302,52.68246]}},{"type":"Feature","id":297,"properties":{"source":"bus_stop","name":"Площадь Ленина"},"geometry":{"type":"Point","coordinates":[41.450333,52.720918]}},{"type":"Feature","id":298,"properties":{"source":"bus_stop","name":"Стрельцы"},"geometry":{"type":"Point","coordinates":[41.32004,52.729973]}},{"type":"Feature","id":299,"properties":{"source":"bus_stop","name":"Шлихтера"},"geometry":{"type":"Point","coordinates":[41.40842,52.756068]}},{"type":"Feature","id":300,"properties":{"source":"bus_stop","name":"Школа №31"},"geometry":{"type":"Point","coordinates":[41.425817,52.761125]}},{"type":"Feature","id":301,"properties":{"source":"bus_stop","name":"Делегатская"},"geometry":{"type":"Point","coordinates":[41.403522,52.723286]}},{"type":"Feature","id":302,"properties":{"source":"bus_stop","name":"ул. Киквидзе"},"geometry":{"type":"Point","coordinates":[41.402933,52.720213]}},{"type":"Feature","id":303,"properties":{"source":"bus_stop","name":"м-р Центральный"},"geometry":{"type":"Point","coordinates":[41.44479,52.651996]}},{"type":"Feature","id":304,"properties":{"source":"bus_stop","name":"Покрово-Пригородное"},"geometry":{"type":"Point","coordinates":[41.415584,52.673792]}},{"type":"Feature","id":305,"properties":{"source":"bus_stop","name":"Сенько"},"geometry":{"type":"Point","coordinates":[41.399162,52.704699]}},{"type":"Feature","id":306,"properties":{"source":"bus_stop","name":"Гостиница \"Турист \""},"geometry":{"type":"Point","coordinates":[41.512269,52.704061]}},{"type":"Feature","id":307,"properties":{"source":"bus_stop","name":"Институт им. Рахманинова"},"geometry":{"type":"Point","coordinates":[41.456754,52.720756]}},{"type":"Feature","id":308,"properties":{"source":"bus_stop","name":"МЖК"},"geometry":{"type":"Point","coordinates":[41.466437,52.675286]}},{"type":"Feature","id":309,"properties":{"source":"bus_stop","name":"Остановка 1006"},"geometry":{"type":"Point","coordinates":[41.364487,52.769284]}},{"type":"Feature","id":310,"properties":{"source":"bus_stop","name":"Районная"},"geometry":{"type":"Point","coordinates":[41.397283,52.710174]}},{"type":"Feature","id":311,"properties":{"source":"bus_stop","name":"Хлебозавод"},"geometry":{"type":"Point","coordinates":[41.456317,52.738263]}},{"type":"Feature","id":312,"properties":{"source":"bus_stop","name":"Волжская"},"geometry":{"type":"Point","coordinates":[41.403166,52.726558]}},{"type":"Feature","id":313,"properties":{"source":"bus_stop","name":"Калиничи"},"geometry":{"type":"Point","coordinates":[41.447844,52.589202]}},{"type":"Feature","id":314,"properties":{"source":"bus_stop","name":"Пушкари 04"},"geometry":{"type":"Point","coordinates":[41.32432,52.74723]}},{"type":"Feature","id":315,"properties":{"source":"bus_stop","name":"Белый Бак"},"geometry":{"type":"Point","coordinates":[41.419706,52.709707]}},{"type":"Feature","id":316,"properties":{"source":"bus_stop","name":"ул. Елецкая"},"geometry":{"type":"Point","coordinates":[41.423809,52.718546]}},{"type":"Feature","id":317,"properties":{"source":"bus_stop","name":"Лысогорская"},"geometry":{"type":"Point","coordinates":[41.426538,52.751255]}},{"type":"Feature","id":318,"properties":{"source":"bus_stop","name":"Пролетарская"},"geometry":{"type":"Point","coordinates":[41.438707,52.719681]}},{"type":"Feature","id":319,"properties":{"source":"bus_stop","name":"Технический университет"},"geometry":{"type":"Point","coordinates":[41.418527,52.750515]}},{"type":"Feature","id":320,"properties":{"source":"bus_stop","name":"Пенсионный фонд"},"geometry":{"type":"Point","coordinates":[41.446172,52.720507]}},{"type":"Feature","id":321,"properties":{"source":"bus_stop","name":"Дорожная улица"},"geometry":{"type":"Point","coordinates":[41.43349,52.695962]}},{"type":"Feature","id":322,"properties":{"source":"bus_stop","name":"Кинотеатр \"Мир\""},"geometry":{"type":"Point","coordinates":[41.407113,52.715342]}},{"type":"Feature","id":323,"properties":{"source":"bus_stop","name":"Остановка 0227"},"geometry":{"type":"Point","coordinates":[41.364701,52.769323]}},{"type":"Feature","id":324,"properties":{"source":"bus_stop","name":"Пожарное депо"},"geometry":{"type":"Point","coordinates":[41.478573,52.740813]}},{"type":"Feature","id":325,"properties":{"source":"bus_stop","name":"Тамбовсельхозэнерго"},"geometry":{"type":"Point","coordinates":[41.400449,52.698756]}},{"type":"Feature","id":326,"properties":{"source":"bus_stop","name":"Тех Комбинат"},"geometry":{"type":"Point","coordinates":[41.42955,52.758015]}},{"type":"Feature","id":327,"properties":{"source":"bus_stop","name":"Дом печати"},"geometry":{"type":"Point","coordinates":[41.457241,52.747232]}},{"type":"Feature","id":328,"properties":{"source":"bus_stop","name":"Комсомольская ул."},"geometry":{"type":"Point","coordinates":[41.453463,52.718053]}},{"type":"Feature","id":329,"properties":{"source":"bus_stop","name":"Комсомольская"},"geometry":{"type":"Point","coordinates":[41.446826,52.71562]}},{"type":"Feature","id":330,"properties":{"source":"bus_stop","name":"Нефтебаза"},"geometry":{"type":"Point","coordinates":[41.462448,52.682986]}},{"type":"Feature","id":331,"properties":{"source":"bus_stop","name":"ТЦ Европа"},"geometry":{"type":"Point","coordinates":[41.412606,52.77068]}},{"type":"Feature","id":332,"properties":{"source":"bus_stop","name":"Спортивная"},"geometry":{"type":"Point","coordinates":[41.495412,52.720344]}},{"type":"Feature","id":333,"properties":{"source":"bus_stop","name":"Шлихтера"},"geometry":{"type":"Point","coordinates":[41.408579,52.755536]}},{"type":"Feature","id":334,"properties":{"source":"bus_stop","name":"Автовокзал \"Северный\""},"geometry":{"type":"Point","coordinates":[41.437562,52.738044]}},{"type":"Feature","id":335,"properties":{"source":"bus_stop","name":"Детская больница"},"geometry":{"type":"Point","coordinates":[41.422918,52.763338]}},{"type":"Feature","id":336,"properties":{"source":"bus_stop","name":"Ильинка"},"geometry":{"type":"Point","coordinates":[41.44184,52.644051]}},{"type":"Feature","id":337,"properties":{"source":"bus_stop","name":"Парк Победы"},"geometry":{"type":"Point","coordinates":[41.41342,52.752353]}},{"type":"Feature","id":338,"properties":{"source":"bus_stop","name":"Сенько"},"geometry":{"type":"Point","coordinates":[41.399516,52.704714]}},{"type":"Feature","id":339,"properties":{"source":"bus_stop","name":"ЦРБ"},"geometry":{"type":"Point","coordinates":[41.431287,52.696962]}},{"type":"Feature","id":340,"properties":{"source":"bus_stop","name":"58 Автобаза"},"geometry":{"type":"Point","coordinates":[41.388375,52.721383]}},{"type":"Feature","id":341,"properties":{"source":"bus_stop","name":"Гостиница \"Турист\""},"geometry":{"type":"Point","coordinates":[41.511947,52.704067]}},{"type":"Feature","id":342,"properties":{"source":"bus_stop","name":"ЗСМ (Глобус)"},"geometry":{"type":"Point","coordinates":[41.369939,52.740185]}},{"type":"Feature","id":343,"properties":{"source":"bus_stop","name":"МЖК"},"geometry":{"type":"Point","coordinates":[41.465542,52.676235]}},{"type":"Feature","id":344,"properties":{"source":"bus_stop","name":"Остановка 1003"},"geometry":{"type":"Point","coordinates":[41.432263,52.712635]}},{"type":"Feature","id":345,"properties":{"source":"bus_stop","name":"ул. Рубежная"},"geometry":{"type":"Point","coordinates":[41.425885,52.702178]}},{"type":"Feature","id":346,"properties":{"source":"bus_stop","name":"Центральный рынок"},"geometry":{"type":"Point","coordinates":[41.441834,52.723081]}},{"type":"Feature","id":347,"properties":{"source":"bus_stop","name":"Волжская"},"geometry":{"type":"Point","coordinates":[41.402983,52.726794]}},{"type":"Feature","id":348,"properties":{"source":"bus_stop","name":"Заводская"},"geometry":{"type":"Point","coordinates":[41.464102,52.751227]}},{"type":"Feature","id":349,"properties":{"source":"bus_stop","name":"Пушкари 05"},"geometry":{"type":"Point","coordinates":[41.330928,52.745646]}},{"type":"Feature","id":350,"properties":{"source":"bus_stop","name":"ул. Буденного"},"geometry":{"type":"Point","coordinates":[41.424361,52.7143]}},{"type":"Feature","id":351,"properties":{"source":"bus_stop","name":"ул. Елецкая"},"geometry":{"type":"Point","coordinates":[41.423978,52.718881]}},{"type":"Feature","id":352,"properties":{"source":"bus_stop","name":"Летный пер."},"geometry":{"type":"Point","coordinates":[41.402803,52.713527]}},{"type":"Feature","id":353,"properties":{"source":"bus_stop","name":"Пригородный лес"},"geometry":{"type":"Point","coordinates":[41.509432,52.71563]}},{"type":"Feature","id":354,"properties":{"source":"bus_stop","name":"Драмтеатр"},"geometry":{"type":"Point","coordinates":[41.455255,52.721873]}},{"type":"Feature","id":355,"properties":{"source":"bus_stop","name":"Лермонтовская"},"geometry":{"type":"Point","coordinates":[41.458465,52.710838]}},{"type":"Feature","id":356,"properties":{"source":"bus_stop","name":"Остановка 0232"},"geometry":{"type":"Point","coordinates":[41.384674,52.773964]}},{"type":"Feature","id":357,"properties":{"source":"bus_stop","name":"4-ая Поликлиника"},"geometry":{"type":"Point","coordinates":[41.412871,52.715141]}},{"type":"Feature","id":358,"properties":{"source":"bus_stop","name":"с/о Ветеран"},"geometry":{"type":"Point","coordinates":[41.341877,52.77359]}},{"type":"Feature","id":359,"properties":{"source":"bus_stop","name":"Селезневская"},"geometry":{"type":"Point","coordinates":[41.374626,52.760446]}},{"type":"Feature","id":360,"properties":{"source":"bus_stop","name":"ХлебоКомбинат"},"geometry":{"type":"Point","coordinates":[41.497688,52.592501]}},{"type":"Feature","id":361,"properties":{"source":"bus_stop","name":"ХлебоКомбинат"},"geometry":{"type":"Point","coordinates":[41.497695,52.593363]}},{"type":"Feature","id":362,"properties":{"source":"bus_stop","name":"Казначейство"},"geometry":{"type":"Point","coordinates":[41.497672,52.589402]}},{"type":"Feature","id":363,"properties":{"source":"bus_stop","name":"Музыкальная школа"},"geometry":{"type":"Point","coordinates":[41.497663,52.588522]}},{"type":"Feature","id":364,"properties":{"source":"bus_stop","name":"ул Гаврилова"},"geometry":{"type":"Point","coordinates":[41.501699,52.598512]}},{"type":"Feature","id":365,"properties":{"source":"bus_stop","name":"ЖБИ"},"geometry":{"type":"Point","coordinates":[41.506334,52.598459]}},{"type":"Feature","id":366,"properties":{"source":"bus_stop","name":"ЖБИ"},"geometry":{"type":"Point","coordinates":[41.506484,52.598544]}},{"type":"Feature","id":367,"properties":{"source":"bus_stop","name":"Тамбов-2"},"geometry":{"type":"Point","coordinates":[41.518142,52.607884]}},{"type":"Feature","id":368,"properties":{"source":"bus_stop","name":"Тамбов-2"},"geometry":{"type":"Point","coordinates":[41.518142,52.608069]}},{"type":"Feature","id":369,"properties":{"source":"bus_stop","name":"ул Дружбы"},"geometry":{"type":"Point","coordinates":[41.493514,52.598549]}},{"type":"Feature","id":370,"properties":{"source":"bus_stop","name":"Магазин \"Радуга\""},"geometry":{"type":"Point","coordinates":[41.497732,52.597301]}},{"type":"Feature","id":371,"properties":{"source":"bus_stop","name":"Школа-интернат"},"geometry":{"type":"Point","coordinates":[41.497733,52.596987]}},{"type":"Feature","id":372,"properties":{"source":"bus_stop","name":"ул Гаврилова"},"geometry":{"type":"Point","coordinates":[41.501802,52.598511]}},{"type":"Feature","id":373,"properties":{"source":"bus_stop","name":"Лесная опушка"},"geometry":{"type":"Point","coordinates":[41.484842,52.605279]}},{"type":"Feature","id":374,"properties":{"source":"bus_stop","name":"ул Лесхозная"},"geometry":{"type":"Point","coordinates":[41.490319,52.601681]}},{"type":"Feature","id":375,"properties":{"source":"bus_stop","name":"ул Лесхозная"},"geometry":{"type":"Point","coordinates":[41.490319,52.601242]}},{"type":"Feature","id":376,"properties":{"source":"bus_stop","name":"ул Дружбы"},"geometry":{"type":"Point","coordinates":[41.493949,52.598541]}},{"type":"Feature","id":377,"properties":{"source":"bus_stop","name":"ул. Карбышева"},"geometry":{"type":"Point","coordinates":[41.461881,52.684729]}},{"type":"Feature","id":378,"properties":{"source":"bus_stop","name":"КЛКЗ"},"geometry":{"type":"Point","coordinates":[41.529288,52.605303]}},{"type":"Feature","id":379,"properties":{"source":"bus_stop","name":"станция Тамбов 2"},"geometry":{"type":"Point","coordinates":[41.521332,52.605308]}},{"type":"Feature","id":380,"properties":{"source":"bus_stop","name":"станция Тамбов 2"},"geometry":{"type":"Point","coordinates":[41.521812,52.605342]}},{"type":"Feature","id":381,"properties":{"source":"bus_stop","name":"Северный Рынок"},"geometry":{"type":"Point","coordinates":[41.497729,52.602365]}},{"type":"Feature","id":382,"properties":{"source":"bus_stop","name":"посёлок Новый"},"geometry":{"type":"Point","coordinates":[41.444144,52.625195]}},{"type":"Feature","id":383,"properties":{"source":"bus_stop","name":"посёлок Новый"},"geometry":{"type":"Point","coordinates":[41.443825,52.622767]}},{"type":"Feature","id":384,"properties":{"source":"bus_stop","name":"13-й километр"},"geometry":{"type":"Point","coordinates":[41.445634,52.61662]}},{"type":"Feature","id":385,"properties":{"source":"bus_stop","name":""},"geometry":{"type":"Point","coordinates":[41.457345,52.616504]}},{"type":"Feature","id":386,"properties":{"source":"bus_stop","name":"Очистные сооружения"},"geometry":{"type":"Point","coordinates":[41.45989,52.616258]}},{"type":"Feature","id":387,"properties":{"source":"bus_stop","name":"Очистные сооружения"},"geometry":{"type":"Point","coordinates":[41.460672,52.616438]}},{"type":"Feature","id":388,"properties":{"source":"bus_stop","name":""},"geometry":{"type":"Point","coordinates":[41.461,52.672212]}},{"type":"Feature","id":389,"properties":{"source":"bus_stop","name":"посёлок Новый"},"geometry":{"type":"Point","coordinates":[41.443963,52.625205]}},{"type":"Feature","id":390,"properties":{"source":"bus_stop","name":"посёлок Новый"},"geometry":{"type":"Point","coordinates":[41.443931,52.622748]}},{"type":"Feature","id":391,"properties":{"source":"bus_stop","name":"МЖК"},"geometry":{"type":"Point","coordinates":[41.465722,52.676275]}},{"type":"Feature","id":392,"properties":{"source":"bus_stop","name":""},"geometry":{"type":"Point","coordinates":[41.326692,52.817374]}},{"type":"Feature","id":393,"properties":{"source":"bus_stop","name":"Дубки"},"geometry":{"type":"Point","coordinates":[41.297978,52.772337]}},{"type":"Feature","id":394,"properties":{"source":"bus_stop","name":"Тамбов (трасса)"},"geometry":{"type":"Point","coordinates":[41.29805,52.731436]}},{"type":"Feature","id":395,"properties":{"source":"bus_stop","name":"Октябрьская"},"geometry":{"type":"Point","coordinates":[41.450841,52.726397]}},{"type":"Feature","id":396,"properties":{"source":"bus_stop","name":"Центральный рынок"},"geometry":{"type":"Point","coordinates":[41.442286,52.721404]}},{"type":"Feature","id":397,"properties":{"source":"bus_stop","name":"Тригуляй"},"geometry":{"type":"Point","coordinates":[41.523172,52.665506]}},{"type":"Feature","id":398,"properties":{"source":"bus_stop","name":""},"geometry":{"type":"Point","coordinates":[41.527862,52.651911]}},{"type":"Feature","id":399,"properties":{"source":"bus_stop","name":"Чичерина"},"geometry":{"type":"Point","coordinates":[41.39808,52.765913]}},{"type":"Feature","id":400,"properties":{"source":"bus_stop","name":"Ореховая"},"geometry":{"type":"Point","coordinates":[41.402943,52.768229]}},{"type":"Feature","id":401,"properties":{"source":"bus_stop","name":"Северо-западная"},"geometry":{"type":"Point","coordinates":[41.408625,52.770929]}},{"type":"Feature","id":402,"properties":{"source":"bus_stop","name":"Магистральная"},"geometry":{"type":"Point","coordinates":[41.403382,52.761819]}},{"type":"Feature","id":403,"properties":{"source":"bus_stop","name":"Магистральная"},"geometry":{"type":"Point","coordinates":[41.406393,52.762603]}},{"type":"Feature","id":404,"properties":{"source":"bus_stop","name":"Детская больница"},"geometry":{"type":"Point","coordinates":[41.45032,52.697912]}},{"type":"Feature","id":405,"properties":{"source":"bus_stop","name":"Детская больница"},"geometry":{"type":"Point","coordinates":[41.451827,52.69935]}},{"type":"Feature","id":406,"properties":{"source":"bus_stop","name":""},"geometry":{"type":"Point","coordinates":[41.4017,52.754279]}},{"type":"Feature","id":407,"properties":{"source":"bus_stop","name":""},"geometry":{"type":"Point","coordinates":[41.453997,52.703407]}},{"type":"Feature","id":408,"properties":{"source":"bus_stop","name":"Тамбовская ЦРБ"},"geometry":{"type":"Point","coordinates":[41.450591,52.652962]}},{"type":"Feature","id":409,"properties":{"source":"bus_stop","name":""},"geometry":{"type":"Point","coordinates":[41.464782,52.638246]}},{"type":"Feature","id":410,"properties":{"source":"bus_stop","name":""},"geometry":{"type":"Point","coordinates":[41.466329,52.635351]}},{"type":"Feature","id":411,"properties":{"source":"bus_stop","name":""},"geometry":{"type":"Point","coordinates":[41.459756,52.641582]}},{"type":"Feature","id":412,"properties":{"source":"bus_stop","name":"14 а"},"geometry":{"type":"Point","coordinates":[41.303709,52.732648]}},{"type":"Feature","id":413,"properties":{"source":"bus_stop","name":"14 а"},"geometry":{"type":"Point","coordinates":[41.303662,52.732113]}},{"type":"Feature","id":414,"properties":{"source":"bus_stop","name":""},"geometry":{"type":"Point","coordinates":[41.38668,52.772883]}},{"type":"Feature","id":415,"properties":{"source":"bus_stop","name":""},"geometry":{"type":"Point","coordinates":[41.385789,52.772532]}},{"type":"Feature","id":416,"properties":{"source":"bus_stop","name":""},"geometry":{"type":"Point","coordinates":[41.385992,52.772149]}},{"type":"Feature","id":417,"properties":{"source":"bus_stop","name":""},"geometry":{"type":"Point","coordinates":[41.451355,52.723784]}},{"type":"Feature","id":418,"properties":{"source":"bus_stop","name":""},"geometry":{"type":"Point","coordinates":[41.401065,52.777132]}},{"type":"Feature","id":419,"properties":{"source":"bus_stop","name":"Гиляровского"},"geometry":{"type":"Point","coordinates":[41.395035,52.774317]}},{"type":"Feature","id":420,"properties":{"source":"bus_stop","name":"Улица Гиляровского"},"geometry":{"type":"Point","coordinates":[41.396164,52.775153]}},{"type":"Feature","id":421,"properties":{"source":"bus_stop","name":"Ореховая"},"geometry":{"type":"Point","coordinates":[41.398541,52.771789]}},{"type":"Feature","id":422,"properties":{"source":"bus_stop","name":"По требованию"},"geometry":{"type":"Point","coordinates":[41.401676,52.77532]}},{"type":"Feature","id":423,"properties":{"source":"bus_stop","name":""},"geometry":{"type":"Point","coordinates":[41.379321,52.786241]}},{"type":"Feature","id":424,"properties":{"source":"bus_stop","name":"Хлеборобная"},"geometry":{"type":"Point","coordinates":[41.38362,52.783725]}},{"type":"Feature","id":425,"properties":{"source":"bus_stop","name":"Поворот на Бокино"},"geometry":{"type":"Point","coordinates":[41.442813,52.63836]}},{"type":"Feature","id":426,"properties":{"source":"bus_stop","name":""},"geometry":{"type":"Point","coordinates":[41.458886,52.63199]}},{"type":"Feature","id":427,"properties":{"source":"bus_stop","name":""},"geometry":{"type":"Point","coordinates":[41.449272,52.624257]}},{"type":"Feature","id":428,"properties":{"source":"bus_stop","name":""},"geometry":{"type":"Point","coordinates":[41.466462,52.635914]}},{"type":"Feature","id":429,"properties":{"source":"bus_stop","name":""},"geometry":{"type":"Point","coordinates":[41.454445,52.624259]}},{"type":"Feature","id":430,"properties":{"source":"bus_stop","name":""},"geometry":{"type":"Point","coordinates":[41.409509,52.770962]}},{"type":"Feature","id":431,"properties":{"source":"bus_stop","name":"Агапкина"},"geometry":{"type":"Point","coordinates":[41.407417,52.774863]}},{"type":"Feature","id":432,"properties":{"source":"bus_stop","name":"Пожарное депо"},"geometry":{"type":"Point","coordinates":[41.401931,52.773087]}},{"type":"Feature","id":433,"properties":{"source":"bus_stop","name":"Глазкова"},"geometry":{"type":"Point","coordinates":[41.394256,52.769824]}},{"type":"Feature","id":434,"properties":{"source":"bus_stop","name":"Мичуринская"},"geometry":{"type":"Point","coordinates":[41.390669,52.768786]}},{"type":"Feature","id":435,"properties":{"source":"bus_stop","name":"Ледовый дворец"},"geometry":{"type":"Point","coordinates":[41.392523,52.767961]}},{"type":"Feature","id":436,"properties":{"source":"bus_stop","name":"Шатрова"},"geometry":{"type":"Point","coordinates":[41.391603,52.773028]}},{"type":"Feature","id":437,"properties":{"source":"bus_stop","name":"Целинная"},"geometry":{"type":"Point","coordinates":[41.384725,52.765284]}},{"type":"Feature","id":438,"properties":{"source":"bus_stop","name":"Ледовый дворец"},"geometry":{"type":"Point","coordinates":[41.394467,52.767024]}},{"type":"Feature","id":439,"properties":{"source":"bus_stop","name":"мкр. Телецентр"},"geometry":{"type":"Point","coordinates":[41.405153,52.776649]}},{"type":"Feature","id":440,"properties":{"source":"bus_stop","name":"Сабуровская"},"geometry":{"type":"Point","coordinates":[41.397608,52.764148]}},{"type":"Feature","id":441,"properties":{"source":"bus_stop","name":""},"geometry":{"type":"Point","coordinates":[41.420547,52.710034]}},{"type":"Feature","id":442,"properties":{"source":"bus_stop","name":"мкр. Телецентр"},"geometry":{"type":"Point","coordinates":[41.40504,52.777128]}},{"type":"Feature","id":443,"properties":{"source":"bus_stop","name":"Агапкина"},"geometry":{"type":"Point","coordinates":[41.408109,52.77472]}},{"type":"Feature","id":444,"properties":{"source":"bus_stop","name":"Ореховая"},"geometry":{"type":"Point","coordinates":[41.399821,52.772107]}},{"type":"Feature","id":445,"properties":{"source":"bus_stop","name":""},"geometry":{"type":"Point","coordinates":[41.497116,52.783892]}},{"type":"Feature","id":446,"properties":{"source":"bus_stop","name":""},"geometry":{"type":"Point","coordinates":[41.492273,52.778989]}},{"type":"Feature","id":447,"properties":{"source":"bus_stop","name":""},"geometry":{"type":"Point","coordinates":[41.490932,52.778436]}},{"type":"Feature","id":448,"properties":{"source":"bus_stop","name":""},"geometry":{"type":"Point","coordinates":[41.496228,52.782888]}},{"type":"Feature","id":449,"properties":{"source":"bus_stop","name":""},"geometry":{"type":"Point","coordinates":[41.49767,52.787916]}},{"type":"Feature","id":450,"properties":{"source":"bus_stop","name":""},"geometry":{"type":"Point","coordinates":[41.497754,52.787117]}},{"type":"Feature","id":451,"properties":{"source":"bus_stop","name":""},"geometry":{"type":"Point","coordinates":[41.419503,52.784647]}},{"type":"Feature","id":452,"properties":{"source":"bus_stop","name":"АРЗ"},"geometry":{"type":"Point","coordinates":[41.396624,52.703584]}},{"type":"Feature","id":453,"properties":{"source":"bus_stop","name":"АРЗ"},"geometry":{"type":"Point","coordinates":[41.395637,52.703547]}},{"type":"Feature","id":454,"properties":{"source":"bus_stop","name":"ул. Киквидзе"},"geometry":{"type":"Point","coordinates":[41.368002,52.723305]}},{"type":"Feature","id":455,"properties":{"source":"bus_stop","name":"ул. Киквидзе"},"geometry":{"type":"Point","coordinates":[41.369571,52.723445]}},{"type":"Feature","id":456,"properties":{"source":"bus_stop","name":"Октябрьская"},"geometry":{"type":"Point","coordinates":[41.450799,52.725248]}},{"type":"Feature","id":457,"properties":{"source":"bus_stop","name":""},"geometry":{"type":"Point","coordinates":[41.413026,52.714656]}},{"type":"Feature","id":458,"properties":{"source":"bus_stop","name":"Пригородный лес"},"geometry":{"type":"Point","coordinates":[41.509372,52.715552]}},{"type":"Feature","id":459,"properties":{"source":"bus_stop","name":"Центральный рынок"},"geometry":{"type":"Point","coordinates":[41.448305,52.725486]}},{"type":"Feature","id":460,"properties":{"source":"bus_stop","name":"Дом ветеранов"},"geometry":{"type":"Point","coordinates":[41.519257,52.704231]}},{"type":"Feature","id":461,"properties":{"source":"bus_stop","name":"Магнит"},"geometry":{"type":"Point","coordinates":[41.44964,52.745249]}},{"type":"Feature","id":462,"properties":{"source":"bus_stop","name":"Мебельная ф-ка"},"geometry":{"type":"Point","coordinates":[41.468555,52.754378]}},{"type":"Feature","id":463,"properties":{"source":"bus_stop","name":"Кладбище воинских захоронений"},"geometry":{"type":"Point","coordinates":[41.373101,52.749732]}},{"type":"Feature","id":464,"properties":{"source":"bus_stop","name":"Кладбище воинских захоронений"},"geometry":{"type":"Point","coordinates":[41.372865,52.749555]}},{"type":"Feature","id":465,"properties":{"source":"bus_stop","name":"Мотель"},"geometry":{"type":"Point","coordinates":[41.301859,52.732871]}},{"type":"Feature","id":466,"properties":{"source":"bus_stop","name":"Трикотажная фабрика"},"geometry":{"type":"Point","coordinates":[41.4302,52.755628]}},{"type":"Feature","id":467,"properties":{"source":"bus_stop","name":"ул. Нагорная"},"geometry":{"type":"Point","coordinates":[41.398343,52.7201]}},{"type":"Feature","id":468,"properties":{"source":"bus_stop","name":"Дубки"},"geometry":{"type":"Point","coordinates":[41.273851,52.735423]}},{"type":"Feature","id":469,"properties":{"source":"bus_stop","name":"Мотель"},"geometry":{"type":"Point","coordinates":[41.301566,52.732529]}},{"type":"Feature","id":470,"properties":{"source":"bus_stop","name":"ТЦ Европа"},"geometry":{"type":"Point","coordinates":[41.412097,52.771532]}},{"type":"Feature","id":471,"properties":{"source":"bus_stop","name":""},"geometry":{"type":"Point","coordinates":[41.451299,52.72267]}},{"type":"Feature","id":472,"properties":{"source":"bus_stop","name":"Октябрьская"},"geometry":{"type":"Point","coordinates":[41.44955,52.725725]}},{"type":"Feature","id":473,"properties":{"source":"bus_stop","name":""},"geometry":{"type":"Point","coordinates":[41.3987,52.781901]}},{"type":"Feature","id":474,"properties":{"source":"bus_stop","name":""},"geometry":{"type":"Point","coordinates":[41.39375,52.785781]}},{"type":"Feature","id":475,"properties":{"source":"bus_stop","name":""},"geometry":{"type":"Point","coordinates":[41.300453,52.719922]}},{"type":"Feature","id":476,"properties":{"source":"bus_stop","name":""},"geometry":{"type":"Point","coordinates":[41.420391,52.780298]}},{"type":"Feature","id":477,"properties":{"source":"bus_stop","name":""},"geometry":{"type":"Point","coordinates":[41.408904,52.783282]}},{"type":"Feature","id":478,"properties":{"source":"bus_stop","name":"Хлеборобная"},"geometry":{"type":"Point","coordinates":[41.390322,52.787066]}},{"type":"Feature","id":479,"properties":{"source":"bus_stop","name":""},"geometry":{"type":"Point","coordinates":[41.388947,52.767037]}},{"type":"Feature","id":480,"properties":{"source":"bus_stop","name":""},"geometry":{"type":"Point","coordinates":[41.387911,52.766732]}},{"type":"Feature","id":481,"properties":{"source":"bus_stop","name":"Архитектурная"},"geometry":{"type":"Point","coordinates":[41.392341,52.777505]}},{"type":"Feature","id":482,"properties":{"source":"bus_stop","name":""},"geometry":{"type":"Point","coordinates":[41.412008,52.782835]}},{"type":"Feature","id":483,"properties":{"source":"bus_stop","name":""},"geometry":{"type":"Point","coordinates":[41.413005,52.782828]}},{"type":"Feature","id":484,"properties":{"source":"bus_stop","name":""},"geometry":{"type":"Point","coordinates":[41.505894,52.66502]}},{"type":"Feature","id":485,"properties":{"source":"bus_stop","name":""},"geometry":{"type":"Point","coordinates":[41.482358,52.680683]}},{"type":"Feature","id":486,"properties":{"source":"bus_stop","name":"Красноармейская"},"geometry":{"type":"Point","coordinates":[41.466247,52.700193]}},{"type":"Feature","id":487,"properties":{"source":"bus_stop","name":"Аэропорт"},"geometry":{"type":"Point","coordinates":[41.493591,52.804146]}},{"type":"Feature","id":488,"properties":{"source":"bus_stop","name":"Аэропорт"},"geometry":{"type":"Point","coordinates":[41.494171,52.803969]}},{"type":"Feature","id":489,"properties":{"source":"bus_stop","name":""},"geometry":{"type":"Point","coordinates":[41.478038,52.766417]}},{"type":"Feature","id":490,"properties":{"source":"bus_stop","name":""},"geometry":{"type":"Point","coordinates":[41.478757,52.767711]}},{"type":"Feature","id":491,"properties":{"source":"bus_stop","name":""},"geometry":{"type":"Point","coordinates":[41.478882,52.769219]}},{"type":"Feature","id":492,"properties":{"source":"bus_stop","name":""},"geometry":{"type":"Point","coordinates":[41.481046,52.771627]}},{"type":"Feature","id":493,"properties":{"source":"bus_stop","name":""},"geometry":{"type":"Point","coordinates":[41.484717,52.774014]}},{"type":"Feature","id":494,"properties":{"source":"bus_stop","name":""},"geometry":{"type":"Point","coordinates":[41.485052,52.774554]}},{"type":"Feature","id":495,"properties":{"source":"bus_stop","name":"Автовокзал \"Северный\""},"geometry":{"type":"Point","coordinates":[41.437258,52.737353]}},{"type":"Feature","id":496,"properties":{"source":"bus_stop","name":""},"geometry":{"type":"Point","coordinates":[41.422089,52.780581]}},{"type":"Feature","id":497,"properties":{"source":"bus_stop","name":""},"geometry":{"type":"Point","coordinates":[41.436913,52.776747]}},{"type":"Feature","id":498,"properties":{"source":"bus_stop","name":""},"geometry":{"type":"Point","coordinates":[41.436565,52.775612]}},{"type":"Feature","id":499,"properties":{"source":"bus_stop","name":""},"geometry":{"type":"Point","coordinates":[41.434162,52.780232]}},{"type":"Feature","id":500,"properties":{"source":"bus_stop","name":""},"geometry":{"type":"Point","coordinates":[41.434843,52.780941]}},{"type":"Feature","id":501,"properties":{"source":"bus_stop","name":""},"geometry":{"type":"Point","coordinates":[41.432303,52.786054]}},{"type":"Feature","id":502,"properties":{"source":"bus_stop","name":""},"geometry":{"type":"Point","coordinates":[41.35754,52.79238]}},{"type":"Feature","id":503,"properties":{"source":"bus_stop","name":""},"geometry":{"type":"Point","coordinates":[41.358107,52.792264]}}]}